,address,city,state,zip
0,1037  LAWSONS RIDGE DR,NASHVILLE,TN,37218
1,812  BRIAR CIR,MADISON,TN,37115
2,9405  KAPLAN AVE,BRENTWOOD,TN,37027
3,4327  STONE HALL BLVD,HERMITAGE,TN,37076
4,544  LITTLE CHANNING WAY,NASHVILLE,TN,37212
5,554  LITTLE CHANNING WAY,NASHVILLE,TN,37212
6,550  LITTLE CHANNING WAY,NASHVILLE,TN,37212
7,548  LITTLE CHANNING WAY,NASHVILLE,TN,37212
8,542  LITTLE CHANNING WAY,NASHVILLE,TN,37212
9,546  LITTLE CHANNING WAY,NASHVILLE,TN,37212
10,601B  BRISTOL CREEK DR,NASHVILLE,TN,37221
11,552  LITTLE CHANNING WAY,NASHVILLE,TN,37212
12,2416  SERENE DR,ANTIOCH,TN,37013
13,500B  PATH ALY,NOLENSVILLE,TN,37215
14,6003A2  NEW YORK AVE,NASHVILLE,TN,37209
15,1062  NAVE CT,NASHVILLE,TN,37214
16,300  LOIS ALY,NASHVILLE,TN,37214
17,502B  PATH ALY,NOLENSVILLE,TN,37135
18,1004  TREVINO PL,ANTIOCH,TN,37013
19,1039  NAVE CT,NASHVILLE,TN,37214
20,2951  JENRY DR,NASHVILLE,TN,37214
21,2992  JENRY DR,NASHVILLE,TN,37214
22,1066  NAVE CT,NASHVILLE,TN,37214
23,1813B2  16TH AVE N,NASHVILLE,TN,37208
24,768  BRADBURN VILLAGE WAY,ANTIOCH,TN,37013
25,522  PATH ALY,NOLENSVILLE,TN,37135
26,518B  PATH ALY,NOLENSVILLE,TN,37135
27,506B  PATH ALY,NOLENSVILLE,TN,37135
28,2424  SERENE DR,ANTIOCH,TN,37013
29,5525  MULLIGAN CT,HERMITAGE,TN,37076
30,780  BRADBURN VILLAGE WAY,ANTIOCH,TN,37013
31,2428  SERENE DR,ANTIOCH,TN,37013
32,512B  PATH ALY,NOLENSVILLE,TN,37135
33,5529  MULLIGAN CT,HERMITAGE,TN,37076
34,3809  OCTOBER WOODS DR  101,ANTIOCH,TN,37013
35,1018  GRANBERY PARK DR,BRENTWOOD,TN,37027
36,4945  RIVERBANK DR,HERMITAGE,TN,37076
37,504B  PATH ALY,NOLENSVILLE,TN,37135
38,6046  BLACKBERRY RIDGE LN,HERMITAGE,TN,37076
39,4367  STONE HALL BLVD,HERMITAGE,TN,37076
40,5513  MULLIGAN CT,HERMITAGE,TN,37076
41,2025  CAREFREE LN,ANTIOCH,TN,37013
42,5521  MULLIGAN CT,HERMITAGE,TN,37076
43,4953  RIVERBANK DR,HERMITAGE,TN,37076
44,4320  STONE HALL BLVD,HERMITAGE,TN,37076
45,2432  SERENE DR,ANTIOCH,TN,37013
46,2021  CAREFREE LN,ANTIOCH,TN,37013
47,516B  PATH ALY,NOLENSVILLE,TN,37135
48,772  BRADBURN VILLAGE WAY,ANTIOCH,TN,37013
49,6003B2  NEW YORK AVE,NASHVILLE,TN,37209
50,520  CERET ALY,NASHVILLE,TN,37211
51,500  CERET ALY,NASHVILLE,TN,37211
52,6048  BLACKBERRY RIDGE LN,HERMITAGE,TN,37076
53,2133  PORTWAY ALY,NASHVILLE,TN,37207
54,950  BRITTANY PARK DR  400-441,ANTIOCH,TN,37013
55,508B  PATH ALY,NOLENSVILLE,TN,37135
56,7000  HARRIS HILLS LN  1,NASHVILLE,TN,37211
57,514B  PATH ALY,NOLENSVILLE,TN,37135
58,7000  HARRIS HILLS LN  3,NASHVILLE,TN,37211
59,770  BRADBURN VILLAGE WAY,ANTIOCH,TN,37013
60,774  BRADBURN VILLAGE WAY,ANTIOCH,TN,37013
61,945  FAIRDALE CT,NASHVILLE,TN,37221
62,520B  PATH ALY,NOLENSVILLE,TN,37135
63,1508  CARLYBROOKE LN,BRENTWOOD,TN,37027
64,778  BRADBURN VILLAGE WAY,ANTIOCH,TN,37013
65,881B  INDUSTRIAL DR,OLD HICKORY,TN,37138
66,776  BRADBURN VILLAGE WAY,ANTIOCH,TN,37013
67,540  LITTLE CHANNING WAY,NASHVILLE,TN,37212
68,1813A2  16TH AVE N,NASHVILLE,TN,37208
69,6098  HARRIS HILLS LN,NASHVILLE,TN,37211
70,7000  HARRIS HILLS LN  4,NASHVILLE,TN,37211
71,411  MERRITT ST  201,NASHVILLE,TN,37203
72,2012  CAREFREE LN,NASHVILLE,TN,37013
73,1328  TREE HOUSE DR,ANTIOCH,TN,37013
74,1048  NAVE CT,NASHVILLE,TN,37214
75,2963  JENRY DR,NASHVILLE,TN,37214
76,1032  NAVE CT,NASHVILLE,TN,37214
77,2420  SERENE DR,ANTIOCH,TN,37013
78,2016  CAREFREE LN,ANTIOCH,TN,37013
79,2017  CAREFREE LN,ANTIOCH,TN,37013
80,500  PATH ALY,NOLENSVILLE,TN,37135
81,506  PATH ALY,NOLENSVILLE,TN,37135
82,1201  SUMMER SHADE DR,ANTIOCH,TN,37013
83,1205  SUMMER SHADE DR,ANTIOCH,TN,37013
84,345  KARA LN,NOLENSVILLE,TN,37135
85,620  WALLACE CT,NASHVILLE,TN,37211
86,339  KARA LN,NOLENSVILLE,TN,37135
87,607  WALLACE CT,NASHVILLE,TN,37211
88,614  WALLACE CT,NASHVILLE,TN,37211
89,616  WALLACE CT,NASHVILLE,TN,37211
90,341  KARA LN,NOLENSVILLE,TN,37135
91,601  WALLACE CT,NASHVILLE,TN,37211
92,613  WALLACE CT,NASHVILLE,TN,37211
93,617  WALLACE CT,NASHVILLE,TN,37211
94,623  WALLACE CT,NASHVILLE,TN,37211
95,349  KARA LN,NOLENSVILLE,TN,37135
96,347  KARA LN,NOLENSVILLE,TN,37135
97,615  WALLACE CT,NASHVILLE,TN,37211
98,610  WALLACE CT,NASHVILLE,TN,37211
99,2959  JENRY DR,NASHVILLE,TN,37214
100,325  HIDDEN SPRINGS CV,NASHVILLE,TN,37207
101,343  KARA LN,NOLENSVILLE,TN,37135
102,1711B2  3RD AVE N,NASHVILLE,TN,37208
103,90  WHITE BRIDGE PIKE,NASHVILLE,TN,37205
104,1711A2  3RD AVE N,NASHVILLE,TN,37208
105,328  HIDDEN SPRINGS CV,NASHVILLE,TN,37207
106,1613  ALAYNA DR,NASHVILLE,TN,37221
107,1633  ALAYNA DR,NASHVILLE,TN,37221
108,1625  ALAYNA DR,NASHVILLE,TN,37221
109,1704  ALAYNA CT,NASHVILLE,TN,37221
110,1540  DAVIDGE DR,NASHVILLE,TN,37221
111,1708  ALAYNA CT,NASHVILLE,TN,37221
112,1629  ALAYNA DR,NASHVILLE,TN,37221
113,950  BRITTANY PARK DR  1B,ANTIOCH,TN,37013
114,2517  VISTA LN,NASHVILLE,TN,37207
115,332  HIDDEN SPRINGS CV,NASHVILLE,TN,37207
116,2505  VISTA LN,NASHVILLE,TN,37207
117,320  MOIRA CIR,NOLENSVILLE,TN,37135
118,2516  VISTA LN,NASHVILLE,TN,37207
119,317  HIDDEN SPRINGS CV,NASHVILLE,TN,37207
120,309  HIDDEN SPRINGS CV,NASHVILLE,TN,37207
121,301  HIDDEN SPRINGS CV,NASHVILLE,TN,37207
122,2225  CAREFREE LN,ANTIOCH,TN,37013
123,2232  CAREFREE LN,ANTIOCH,TN,37013
124,2509  VISTA LN,NASHVILLE,TN,37207
125,1035  NAVE CT,NASHVILLE,TN,37214
126,1047  NAVE CT,NASHVILLE,TN,37214
127,313  HIDDEN SPRINGS CV,NASHVILLE,TN,37207
128,2501  VISTA LN,NASHVILLE,TN,37207
129,2520  VISTA LN,NASHVILLE,TN,37207
130,608  WALLACE CT,NASHVILLE,TN,37211
131,4159  MAGNOLIA FARMS DR,HERMITAGE,TN,37076
132,1620  ALAYNA DR,NASHVILLE,TN,37221
133,524  CERET ALY,NASHVILLE,TN,37211
134,2204  CAREFREE LN,ANTIOCH,TN,37013
135,2236  CAREFREE LN,ANTIOCH,TN,37013
136,400  DR MARTIN L KING JR BLVD,NASHVILLE,TN,37219
137,100  LAVENDER RD,HERMITAGE,TN,37076
138,4153  MAGNOLIA FARMS DR,HERMTAGE,TN,37076
139,6005  BLACKBERRY RIDGE LN,HERMITAGE,TN,37076
140,4149  MAGNOLIA FARMS DR,HERMITAGE,TN,37076
141,1709  ALAYNA CT,NASHVILLE,TN,37221
142,1016  LAWSONS RIDGE DR,NASHVILLE,TN,37218
143,5040  SUNFLOWER LN,HERMITAGE,TN,37076
144,1001  LAWSONS RIDGE DR,NASHVILLE,TN,37218
145,4044  MAGNOLIA FARMS DR,HERMITAGE,TN,37076
146,1932B  GRACE POINT LN,NOLENSVILLE,TN,37135
147,628  WALLACE CT,NASHVILLE,TN,37211
148,2525  VISTA LN,NASHVILLE,TN,37207
149,1510B2  10TH AVE N,NASHVILLE,TN,37208
150,3  BURKITT COMMONS AVE  305,NOLENSVILLE,TN,37135
151,1510A2  10TH AVE N,NASHVILLE,TN,37208
152,90  WHITE BRIDGE PIKE,NASHVILLE,TN,37205
153,5204  TUPELO ST,ANTIOCH,TN,37013
154,5212  TUPELO ST,ANTIOCH,TN,37013
155,624  WALLACE CT,NASHVILLE,TN,37211
156,5200  TUPELO ST,ANTIOCH,TN,37013
157,900  BRITTANY PARK DR,NASHVILLE,TN,37013
158,1337  DUNS LN,NOLENSVILLE,TN,37135
159,5206  TUPELO ST,ANTIOCH,TN,37013
160,1341  DUNS LN,NOLENSVILLE,TN,37135
161,5210  TUPELO ST,ANTIOCH,TN,37013
162,2224  CAREFREE LN,ANTIOCH,TN,37013
163,5008  RIVERBANK DR,HERMITAGE,TN,37076
164,757  BRADBURN VILLAGE WAY,ANTIOCH,TN,37013
165,1321  DUNS LN,NOLENSVILLE,TN,37135
166,605  WALLACE CT,NASHVILLE,TN,37211
167,5208  TUPELO ST,ANTIOCH,TN,37013
168,758  BRADBURN VILLAGE WAY,ANTIOCH,TN,37013
169,1716B2  MCKINNEY AVE,NASHVILLE,TN,37208
170,761  BRADBURN VILLAGE WAY,ANTIOCH,TN,37013
171,762  BRADBURN VILLAGE WAY,ANTIOCH,TN,37013
172,765  BRADBURN VILLAGE WAY,ANTIOCH,TN,37013
173,759  BRADBURN VILLAGE WAY,ANTIOCH,TN,37013
174,1317  DUNS LN,NOLENSVILLE,TN,37135
175,900  BRITTANY PARK DR,NASHVILLE,TN,37013
176,3213  LONGSTALK RD,ANTIOCH,TN,37013
177,760  BRADBURN VILLAGE WAY,ANTIOCH,TN,37013
178,756  BRADBURN VILLAGE WAY,ANTIOCH,TN,37013
179,764  BRADBURN VILLAGE WAY,ANTIOCH,TN,37013
180,763  BRADBURN VILLAGE WAY,ANTIOCH,TN,37013
181,2228  CAREFREE LN,ANTIOCH,TN,37013
182,5202  TUPELO ST,ANTIOCH,TN,37013
183,2436  SERENE DR,ANTIOCH,TN,37013
184,609  WALLACE CT,NASHVILLE,TN,37211
185,618  WALLACE CT,NASHVILLE,TN,37211
186,622  WALLACE CT,NASHVILLE,TN,37211
187,0  BOYDS HILLTOP DR,MADISON,TN,37115
188,604  WALLACE CT,NASHVILLE,TN,37211
189,621  WALLACE CT,NASHVILLE,TN,37211
190,619  WALLACE CT,NASHVILLE,TN,37211
191,606  WALLACE CT,NASHVILLE,TN,37211
192,630  WALLACE CT,NASHVILLE,TN,37211
193,351  KARA LN,NOLENSVILLE,TN,37135
194,602  WALLACE CT,NASHVILLE,TN,37211
195,612  WALLACE CT,NASHVILLE,TN,37211
196,5502  CENTRAL GROVE SQ,ANTIOCH,TN,37013
197,611  WALLACE CT,NASHVILLE,TN,37211
198,5227  TUPELO ST,ANTIOCH,TN,37013
199,304  LOIS ALY,NASHVILLE,TN,37214
200,1024  NAVE CT,NASHVILLE,TN,37214
201,1028  NAVE CT,NASHVILLE,TN,37214
202,626  WALLACE CT,NASHVILLE,TN,37211
203,2988  JENRY DR,NASHVILLE,TN,37214
204,2944  JENRY DR,NASHVILLE,TN,37214
205,6007A2  CALIFORNIA AVE,NASHVILLE,TN,37209
206,2241  CAREFREE LN,ANTIOCH,TN,37013
207,2508  PRAIRIE HILL DR,ANTIOCH,TN,37013
208,871  BLOOMDALE TRCE,HERMITAGE,TN,37076
209,3013  LARGE HOP LN,ANTIOCH,TN,37013
210,5060  SUNFLOWER LN,HERMITAGE,TN,37076
211,5229  TUPELO ST,ANTIOCH,TN,37013
212,5225  TUPELO ST,ANTIOCH,TN,37013
213,5203  TUPELO ST,ANTIOCH,TN,37013
214,5205  TUPELO ST,ANTIOCH,TN,37013
215,2146  BAYPORT AVE,OLD HICKORY,TN,37138
216,5508  CENTRAL GROVE SQ,ANTIOCH,TN,37013
217,5211  TUPELO ST,ANTIOCH,TN,37013
218,5500  CENTRAL GROVE SQ,ANTIOCH,TN,37013
219,5222  TUPELO ST,ANTIOCH,TN,37013
220,1201  SHIRE DR,ANTIOCH,TN,37013
221,5216  TUPELO ST,ANTIOCH,TN,37013
222,1213  SHIRE DR,ANTIOCH,TN,37013
223,2212  CAREFREE LN,ANTIOCH,TN,37013
224,2233  CAREFREE LN,ANTIOCH,TN,37013
225,2237  CAREFREE LN,ANTIOCH,TN,37013
226,2208  CAREFREE LN,ANTIOCH,TN,37013
227,2229  CAREFREE LN,ANTIOCH,TN,37013
228,2249  CAREFREE LN,ANTIOCH,TN,37013
229,5033  SUNFLOWER LN,HERMITAGE,TN,37076
230,2245  CAREFREE LN,ANTIOCH,TN,37013
231,2216  CAREFREE LN,ANTIOCH,TN,37013
232,2220  CAREFREE LN,ANTIOCH,TN,37013
233,2253  CAREFREE LN,ANTIOCH,TN,37013
234,5213  TUPELO ST,ANTIOCH,TN,37013
235,5207  TUPELO ST,ANTIOCH,TN,37013
236,5220  TUPELO ST,ANTIOCH,TN,37013
237,5359  TUPELO ST,ANTIOCH,TN,37013
238,5504  CENTRAL GROVE SQ,ANTIOCH,TN,37013
239,508  HOBBS CREEK DR,NASHVILLE,TN,37215
240,2148  BAYPORT AVE,OLD HICKORY,TN,37138
241,506  HOBBS CREEK DR,NASHVILLE,TN,37215
242,5209  TUPELO ST,ANTIOCH,TN,37013
243,5506  CENTRAL GROVE SQ,ANTIOCH,TN,37013
244,5201  TUPELO ST,ANTIOCH,TN,37013
245,5218  TUPELO ST,ANTIOCH,TN,37013
246,719  ARBOR TRACE CIR,NASHVILLE,TN,37207
247,3538  FOUR LEAF WAY,ANTIOCH,TN,37013
248,6034  BLACKBERRY RIDGE LN,HERMITAGE,TN,37076
249,2492  PRAIRIE HILL DR,ANTIOCH,TN,37013
250,6036  BLACKBERRY RIDGE LN,HERMITAGE,TN,37076
251,5805  WOODLAND HILLS DR,NASHVILLE,TN,37211
252,401  VALOR RIDGE DR,ANTIOCH,TN,37013
253,867  BLOOMDALE TRCE,HERMITAGE,TN,37076
254,729  ARBOR TRACE CIR,NASHVILLE,TN,37207
255,1316  GREENSTONE LN,NASHVILLE,TN,37221
256,727  ARBOR TRACE CIR,NASHVILLE,TN,37207
257,1014  GRANBERY PARK DR,BRENTWOOD,TN,37027
258,7117  SOUTHPOINT PKWY,BRENTWOOD,TN,37027
259,733  ARBOR TRACE CIR,NASHVILLE,TN,37207
260,4163  MAGNOLIA FARMS DR,HERMITAGE,TN,37076
261,86  EVANSTON AVE,NASHVILLE,TN,37207
262,816  BRIAR CIR,MADISON,TN,37115
263,720  JAMES AVE,NASHVILLE,TN,37209
264,7072  WESTSIDE CIR,NASHVILLE,TN,37205
265,320 E VILLAGE LN,NASHVILLE,TN,37216
266,7019  WESTSIDE CIR,NASHVILLE,TN,37205
267,7036  WESTSIDE CIR,NASHVILLE,TN,37205
268,7080  WESTSIDE CIR,NASHVILLE,TN,37205
269,325 E VILLAGE LN,NASHVILLE,TN,37216
270,328 E VILLAGE LN,NASHVILLE,TN,37216
271,7070  WESTSIDE CIR,NASHVILLE,TN,37205
272,7038  WESTSIDE CIR,NASHVILLE,TN,37205
273,7021  WESTSIDE CIR,NASHVILLE,TN,37205
274,7015  WESTSIDE CIR,NASHVILLE,TN,37205
275,3803  OCTOBER WOODS DR,ANTIOCH,TN,37013
276,319 E VILLAGE LN,NASHVILLE,TN,37216
277,6007B2  CALIFORNIA AVE,NASHVILLE,TN,37209
278,7078  WESTSIDE CIR,NASHVILLE,TN,37205
279,317 E VILLAGE LN,NASHVILLE,TN,37216
280,322 E VILLAGE LN,NASHVILLE,TN,37216
281,7013  WESTSIDE CIR,NASHVILLE,TN,37205
282,315 E VILLAGE LN,NASHVILLE,TN,37216
283,324 E VILLAGE LN,NASHVILLE,TN,37216
284,321 E VILLAGE LN,NASHVILLE,TN,37216
285,7032  WESTSIDE CIR,NASHVILLE,TN,37205
286,330 E VILLAGE LN,NASHVILLE,TN,37216
287,307 E VILLAGE LN,NASHVILLE,TN,37216
288,7074  WESTSIDE CIR,NASHVILLE,TN,37205
289,342 E VILLAGE LN,NASHVILLE,TN,37216
290,1536  DAVIDGE DR,NASHVILLE,TN,37221
291,7017  WESTSIDE CIR,NASHVILLE,TN,37205
292,7034  WESTSIDE CIR,NASHVILLE,TN,37205
293,326 E VILLAGE LN,NASHVILLE,TN,37216
294,334 E VILLAGE LN,NASHVILLE,TN,37216
295,7042  WESTSIDE CIR,NASHVILLE,TN,37205
296,7023  WESTSIDE CIR,NASHVILLE,TN,37205
297,323 E VILLAGE LN,NASHVILLE,TN,37216
298,332 E VILLAGE LN,NASHVILLE,TN,37216
299,7076  WESTSIDE CIR,NASHVILLE,TN,37205
300,7040  WESTSIDE CIR,NASHVILLE,TN,37205
301,1616  MARSHALL HOLLOW DR,NASHVILLE,TN,37203
302,731  ARBOR TRACE CIR,NASHVILLE,TN,37207
303,1030  DR MARTIN L KING JR BLVD,NASHVILLE,TN,37203
304,40  WHITE BRIDGE PIKE,NASHVILLE,TN,37205
305,1223  SUMMER SHADE DR,ANTIOCH,TN,37013
306,4360  STONE HALL BLVD,HERMITAGE,TN,37076
307,6033  BLACKBERRY RIDGE LN,HERMITAGE,TN,37076
308,9725  KATZ LN,BRENTWOOD,TN,37027
309,2504  VISTA LN,NASHVILLE,TN,37207
310,1348  TREE HOUSE DR,ANTIOCH,TN,37013
311,2524  VISTA LN,NASHVILLE,TN,37207
312,2520  PRAIRIE HILL DR,ANTIOCH,TN,37013
313,327 E VILLAGE LN,NASHVILLE,TN,37216
314,2039B  VILLAGE PARK CIR,OLD HICKORY,TN,37138
315,313 E VILLAGE LN,NASHVILLE,TN,37216
316,4977  RIVERBANK DR,HERMITAGE,TN,37076
317,4352  STONE HALL BLVD,HERMITAGE,TN,37076
318,4969  RIVERBANK DR,HERMITAGE,TN,37076
319,3205  LONGSTALK RD,ANTIOCH,TN,37013
320,1020  DR MARTIN L KING JR BLVD,NASHVILLE,TN,37203
321,5004  RIVERBANK DR,HERMITAGE,TN,37076
322,2504  PRAIRIE HILL DR,ANTIOCH,TN,37013
323,3212  LONGSTALK RD,ANTIOCH,TN,37013
324,3217  LONGSTALK RD,ANTIOCH,TN,37013
325,309 E VILLAGE LN,NASHVILLE,TN,37216
326,4096  POLK FOREST CIR,NASHVILLE,TN,37207
327,2508  VISTA LN,NASHVILLE,TN,37207
328,2521  VISTA LN,NASHVILLE,TN,37207
329,1404  ROPE SWING WAY,ANTIOCH,TN,37013
330,2513  VISTA LN,NASHVILLE,TN,37207
331,2512  VISTA LN,NASHVILLE,TN,37207
332,6001  TRAILWATER ALY,ANTIOCH,TN,37013
333,1209  SUMMER SHADE DR,ANTIOCH,TN,37013
334,908  LATTING DR,HERMITAGE,TN,37076
335,1215  SUMMER SHADE DR,ANTIOCH,TN,37013
336,1608  MARSHALL HOLLOW DR  102,NASHVILLE,TN,37203
337,6017  TRAILWATER ALY,ANTIOCH,TN,37013
338,724  MILL CREEK MEADOW DR,NASHVILLE,TN,37214
339,6013  TRAILWATER ALY,ANTIOCH,TN,37013
340,6009  TRAILWATER ALY,ANTIOCH,TN,37013
341,73  WHITE BRIDGE PIKE,NASHVILLE,TN,37205
342,726  MILL CREEK MEADOW DR,NASHVILLE,TN,37214
343,6005  TRAILWATER ALY,ANTIOCH,TN,37013
344,1610  MARSHALL HOLLOW DR,NASHVILLE,TN,37203
345,2932  JENRY DR,NASHVILLE,TN,37214
346,3208  LONGSTALK RD,ANTIOCH,TN,37013
347,1344  TREE HOUSE DR,ANTIOCH,TN,37013
348,3005  LARGE HOP LN,ANTIOCH,TN,37013
349,1612  MARSHALL HOLLOW DR,NASHVILLE,TN,37203
350,1614  MARSHALL HOLLOW DR,NASHVILLE,TN,37203
351,2488  PRAIRIE HILL DR,ANTIOCH,TN,37013
352,1788  WOODSONG DR,BRENTWOOD,TN,37027
353,5056  SUNFLOWER LN,HERMITAGE,TN,37076
354,0  HOSPITAL DR,MADISON,TN,37115
355,0  PERIMETER HILL DR,NASHVILLE,TN,37211
356,3261  LONGSTALK RD,ANTIOCH,TN,37013
357,626  PARKVUE PLACE DR,NASHVILLE,TN,37221
358,3001  LARGE HOP LN,ANTIOCH,TN,37013
359,3009  LARGE HOP LN,ANTIOCH,TN,37013
360,900  BRITTANY PARK DR,NASHVILLE,TN,37013
361,628  PARKVUE PLACE DR,NASHVILLE,TN,37221
362,1043  NAVE CT,NASHVILLE,TN,37214
363,700  MILL CREEK MEADOW DR,NASHVILLE,TN,37214
364,712  MILL CREEK MEADOW DR,NASHVILLE,TN,37214
365,714  MILL CREEK MEADOW DR,NASHVILLE,TN,37214
366,358  KARA LN,NOLENSVILLE,TN,37135
367,354  KARA LN,NOLENSVILLE,TN,37135
368,356  KARA LN,NOLENSVILLE,TN,37135
369,704  MILL CREEK MEADOW DR,NASHVILLE,TN,37214
370,722  MILL CREEK MEADOW DR,NASHVILLE,TN,37214
371,706  MILL CREEK MEADOW DR,NASHVILLE,TN,37214
372,716  MILL CREEK MEADOW DR,NASHVILLE,TN,37214
373,720  MILL CREEK MEADOW DR,NASHVILLE,TN,37214
374,718  MILL CREEK MEADOW DR,NASHVILLE,TN,37214
375,360  KARA LN,NOLENSVILLE,TN,37135
376,702  MILL CREEK MEADOW DR,NASHVILLE,TN,37214
377,900  BRITTANY PARK DR,NASHVILLE,TN,37013
378,4099  SADDLECREEK WAY,ANTIOCH,TN,37013
379,2145  BAYPORT AVE,OLD HICKORY,TN,37138
380,1070B  GRANBERY PARK DR,BRENTWOOD,TN,37027
381,900  BRITTANY PARK DR,NASHVILLE,TN,37013
382,5024  HARBOR RESERVE CV,HERMITAGE,TN,37076
383,900  BRITTANY PARK DR,NASHVILLE,TN,37013
384,5026  HARBOR RESERVE CV,HERMITAGE,TN,37076
385,7051  WESTSIDE CIR,NASHVILLE,TN,37205
386,5206B2  KENTUCKY AVE,NASHVILLE,TN,37209
387,2033  VILLAGE PARK CIR,OLD HICKORY,TN,37138
388,2147  BAYPORT AVE,OLD HICKORY,TN,37138
389,1400B  HERON POINTE DR,NASHVILLE,TN,37214
390,900  BRITTANY PARK DR,NASHVILLE,TN,37013
391,1020  LAWSONS RIDGE DR,NASHVILLE,TN,37218
392,7055  WESTSIDE CIR,NASHVILLE,TN,37205
393,7053  WESTSIDE CIR,NASHVILLE,TN,37205
394,2149  BAYPORT AVE,OLD HICKORY,TN,37138
395,7057  WESTSIDE CIR,NASHVILLE,TN,37205
396,900  BRITTANY PARK DR,NASHVILLE,TN,37013
397,2472  PRAIRIE HILL DR,ANTIOCH,TN,37013
398,900  BRITTANY PARK DR,NASHVILLE,TN,37013
399,2236  SILVERTON DR,NASHVILLE,TN,37207
400,7059  WESTSIDE CIR,NASHVILLE,TN,37205
401,2240  SILVERTON DR,NASHVILLE,TN,37207
402,900  BRITTANY PARK DR,NASHVILLE,TN,37013
403,4936  RIVERBANK DR,HERMITAGE,TN,37076
404,2533  PRAIRIE HILL DR,ANTIOCH,TN,37013
405,2517  PRAIRIE HILL DR,ANTIOCH,TN,37013
406,2509  PRAIRIE HILL DR,ANTIOCH,TN,37013
407,2505  PRAIRIE HILL DR,ANTIOCH,TN,37013
408,3  BURKITT COMMONS AVE  305,NOLENSVILLE,TN,37135
409,2151  BAYPORT AVE,OLD HICKORY,TN,37138
410,2143  BAYPORT AVE,OLD HICKORY,TN,37138
411,1107A3  BILTMORE DR,NASHVILLE,TN,37204
412,400A2  21ST AVE S,NASHVILLE,TN,37203
413,888  BLOOMDALE TRCE,HERMITAGE,TN,37076
414,404  DOUGLAS   301,NASHVILLE,TN,301
415,504  PATH ALY,NOLENSVILLE,TN,37135
416,502  PATH ALY,NOLENSVILLE,TN,37135
417,324  MOIRA CIR,NOLENSVILLE,TN,37135
418,2960  JENRY DR,NASHVILLE,TN,37214
419,4097  SADDLECREEK WAY,ANTIOCH,TN,37013
420,538  VERNON CIR,NASHVILLE,TN,37209
421,1721B2  3RD AVE N,NASHVILLE,TN,37208
422,640  PARKVUE PLACE DR,NASHVILLE,TN,37221
423,622  PARKVUE PLACE DR,NASHVILLE,TN,37221
424,728  BRADBURN VILLAGE WAY,ANTIOCH,TN,37013
425,1124  HARMONY WAY,NASHVILLE,TN,37207
426,7105  SILVERWOOD TRL,HERMITAGE,TN,37076
427,7101  SILVERWOOD TRL,HERMITAGE,TN,37076
428,1618  MARSHALL HOLLOW DR,NASHVILLE,TN,37203
429,508  PATH ALY,NOLENSVILLE,TN,37135
430,2964  JENRY DR,NASHVILLE,TN,37214
431,1721A2  3RD AVE N,NASHVILLE,TN,37208
432,638  PARKVUE PLACE DR,NASHVILLE,TN,37221
433,630  PARKVUE PLACE DR,NASHVILLE,TN,37221
434,624  PARKVUE PLACE DR,NASHVILLE,TN,37221
435,632  PARKVUE PLACE DR,NASHVILLE,TN,37221
436,1719B2  3RD AVE N,NASHVILLE,TN,37208
437,1726B2  PECAN ST,NASHVILLE,TN,37208
438,2244  CAREFREE LN,ANTIOCH,TN,37013
439,2252  CAREFREE LN,ANTIOCH,TN,37013
440,620  PARKVUE PLACE DR,NASHVILLE,TN,37221
441,2240  CAREFREE LN,ANTIOCH,TN,37013
442,2248  CAREFREE LN,ANTIOCH,TN,37013
443,2256  CAREFREE LN,ANTIOCH,TN,37013
444,1247  SUMMER SHADE DR,ANTIOCH,TN,37013
445,1726A2  PECAN ST,NASHVILLE,TN,37208
446,1532  DAVIDGE DR,NASHVILLE,TN,37221
447,1719A2  3RD AVE N,NASHVILLE,TN,37208
448,636  PARKVUE PLACE DR,NASHVILLE,TN,37221
449,634  PARKVUE PLACE DR,NASHVILLE,TN,37221
450,3615  BROOKWAY DR,NASHVILLE,TN,37207
451,700B  NORTHROP DR,JOELTON,TN,37080
452,333  BODDINGTON LN,ANTIOCH,TN,37013
453,805  SAM PATCH CT,HERMITAGE,TN,37076
454,1011B2  11TH AVE N,NASHVILLE,TN,37208
455,12  THE ARCADE,NASHVILLE,TN,37219
456,312  ROSA L PARKS AVE,NASHVILLE,TN,37203
457,1021  LAWSONS RIDGE DR,NASHVILLE,TN,37218
458,145  MONTGOMERY BELL AVE,NASHVILLE,TN,37205
459,1305  TREE HOUSE DR,ANTIOCH,TN,37013
460,526  VERNON CIR,NASHVILLE,TN,37209
461,5009  ARROGATE DR,ANTIOCH,TN,37013
462,928  GOVERNORS CT,ANTIOCH,TN,37013
463,536  VERNON CIR,NASHVILLE,TN,37209
464,1297  CARDINAL AVE,NASHVILLE,TN,37216
465,1295  CARDINAL AVE,NASHVILLE,TN,37216
466,1031  NAVE CT,NASHVILLE,TN,37214
467,530  VERNON CIR,NASHVILLE,TN,37209
468,522  VERNON CIR,NASHVILLE,TN,37209
469,534  VERNON CIR,NASHVILLE,TN,37209
470,532  VERNON CIR,NASHVILLE,TN,37209
471,528  VERNON CIR,NASHVILLE,TN,37209
472,524  VERNON CIR,NASHVILLE,TN,37209
473,3613  BROOKWAY DR,NASHVILLE,TN,37207
474,7061  WESTSIDE CIR,NASHVILLE,TN,37205
475,4062  LIBERTON WAY,NOLENSVILLE,TN,37135
476,2037  VILLAGE PARK CIR,OLD HICKORY,TN,37138
477,2029  VILLAGE PARK CIR,OLD HICKORY,TN,37138
478,7428  MARONEY DR,ANTIOCH,TN,37013
479,951  BRITTANY PARK DR  800-848,ANTIOCH,TN,37013
480,2364  FAIRCHILD CIR,NOLENSVILLE,TN,37135
481,951B  BRITTANY PARK DR,ANTIOCH,TN,37013
482,2368  FAIRCHILD CIR,NOLENSVILLE,TN,37135
483,4244  DYSANT ALY,NOLENSVILLE,TN,37135
484,4324  LONGFELLOW DR,NASHVILLE,TN,37214
485,7115  SOUTHPOINT PKWY,BRENTWOOD,TN,37027
486,3609  BROOKWAY DR,NASHVILLE,TN,37207
487,4328  LONGFELLOW DR,NASHVILLE,TN,37214
488,5603A2  PENNSYLVANIA AVE,NASHVILLE,TN,37209
489,5603B2  PENNSYLVANIA AVE,NASHVILLE,TN,37209
490,3611  BROOKWAY DR,NASHVILLE,TN,37207
491,3431  SHELBY BOTTOMS BND,NASHVILLE,TN,37206
492,140  BNA PARK DR,NASHVILLE,TN,37214
493,3617  BROOKWAY DR,NASHVILLE,TN,37207
494,1024A2  MONROE ST,NASHVILLE,TN,37208
495,1024B2  MONROE ST,NASHVILLE,TN,37208
496,1011A2  11TH AVE N,NASHVILLE,TN,37208
497,320  HIDDEN SPRINGS CV,NASHVILLE,TN,37207
498,1700  WOODSONG DR,BRENTWOOD,TN,37027
499,5008  ARROGATE DR,ANTIOCH,TN,37013
500,789  BRADBURN VILLAGE WAY,ANTIOCH,TN,37013
501,108  LIGHTWOOD DR,ANTIOCH,TN,37013
502,2998  BELWOOD ST,NASHVILLE,TN,37203
503,2996  BELWOOD ST,NASHVILLE,TN,37203
504,5224  TUPELO ST,ANTIOCH,TN,37013
505,1324  TREE HOUSE DR,ANTIOCH,TN,37013
506,6042  BLACKBERRY RIDGE LN,HERMITAGE,TN,37076
507,2220  SILVERTON DR,NASHVILLE,TN,37207
508,2224  SILVERTON DR,NASHVILLE,TN,37207
509,4807B2  TENNESSEE AVE,NASHVILLE,TN,37209
510,2232  SILVERTON DR,NASHVILLE,TN,37207
511,5221  TUPELO ST,ANTIOCH,TN,37013
512,4807A2  TENNESSEE AVE,NASHVILLE,TN,37209
513,2142  BAYPORT AVE,OLD HICKORY,TN,37138
514,2140  BAYPORT AVE,OLD HICKORY,TN,37138
515,2138  BAYPORT AVE,OLD HICKORY,TN,37138
516,5510  CENTRAL GROVE SQ,ANTIOCH,TN,37013
517,2228  SILVERTON DR,NASHVILLE,TN,37207
518,6044  BLACKBERRY RIDGE LN,HERMITAGE,TN,37076
519,2144  BAYPORT AVE,OLD HICKORY,TN,37138
520,783  BRADBURN VILLAGE WAY,ANTIOCH,TN,37013
521,1820B2  4TH AVE N,NASHVILLE,TN,37208
522,1820A2  4TH AVE N,NASHVILLE,TN,37208
523,781  BRADBURN VILLAGE WAY,ANTIOCH,TN,37013
524,3645  BROOKWAY DR,NASHVILLE,TN,37207
525,3641  BROOKWAY DR,NASHVILLE,TN,37207
526,2500  PRAIRIE HILL DR,ANTIOCH,TN,37013
527,5514  CENTRAL GROVE SQ,ANTIOCH,TN,37013
528,785  BRADBURN VILLAGE WAY,ANTIOCH,TN,37013
529,787  BRADBURN VILLAGE WAY,ANTIOCH,TN,37013
530,21  WHITE BRIDGE PIKE  101,NASHVILLE,TN,37205
531,124  LAVENDER RD,HERMITAGE,TN,37076
532,305  HIDDEN SPRINGS CV,NASHVILLE,TN,37207
533,5301  TUPELO ST,ANTIOCH,TN,37013
534,5800  WOODLAND HILLS DR,NASHVILLE,TN,37211
535,5306  TUPELO ST,ANTIOCH,TN,37013
536,5305  TUPELO ST,ANTIOCH,TN,37013
537,5236  TUPELO ST,ANTIOCH,TN,37013
538,1359  GREENSTONE LN,NASHVILLE,TN,37221
539,3300  JOGGERS PASS,NASHVILLE,TN,37206
540,3311  JOGGERS PASS,NASHVILLE,TN,37206
541,400  DR MARTIN L KING JR BLVD,NASHVILLE,TN,37219
542,3303  JOGGERS PASS,NASHVILLE,TN,37206
543,3300  JOGGERS PASS,NASHVILLE,TN,37206
544,5304  TUPELO ST,ANTIOCH,TN,37013
545,5238  TUPELO ST,ANTIOCH,TN,37013
546,5520  CENTRAL GROVE SQ,ANTIOCH,TN,37013
547,1713  ALAYNA CT,NASHVILLE,TN,37221
548,3307  JOGGERS PASS,NASHVILLE,TN,37206
549,3301  JOGGERS PASS,NASHVILLE,TN,37206
550,5308  TUPELO ST,ANTIOCH,TN,37013
551,920  SOUTH ST  105,NASHVILLE,TN,37203
552,5315  TUPELO ST,ANTIOCH,TN,37013
553,1617  ALAYNA DR,NASHVILLE,TN,37221
554,3309  JOGGERS PASS,NASHVILLE,TN,37206
555,1616  ALAYNA DR,NASHVILLE,TN,37221
556,1920B  GRACE POINT LN,NOLENSVILLE,TN,37135
557,3305  JOGGERS PASS,NASHVILLE,TN,37206
558,1348  GREENSTONE LN,NASHVILLE,TN,37221
559,5313  TUPELO ST,ANTIOCH,TN,37013
560,4961  RIVERBANK DR,HERMITAGE,TN,37076
561,2625  OLD BUENA VISTA RD,NASHVILLE,TN,37218
562,2204  SILVERTON DR,NASHVILLE,TN,37207
563,5240  LAKE MAXWELL DR,ANTIOCH,TN,37013
564,355  KARA LN,NOLENSVILLE,TN,37135
565,5232  LAKE MAXWELL DR,ANTIOCH,TN,37013
566,353  KARA LN,NOLENSVILLE,TN,37135
567,441  UNION BRIDGE RD,NASHVILLE,TN,37221
568,5516  CENTRAL GROVE SQ,ANTIOCH,TN,37013
569,5518  CENTRAL GROVE SQ,ANTIOCH,TN,37013
570,5240  TUPELO ST,ANTIOCH,TN,37013
571,4973  RIVERBANK DR,HERMITAGE,TN,37076
572,4957  RIVERBANK DR,HERMITAGE,TN,37076
573,5225  LAKE MAXWELL DR,ANTIOCH,TN,37013
574,5302  TUPELO ST,ANTIOCH,TN,37013
575,5300  TUPELO ST,ANTIOCH,TN,37013
576,359  KARA LN,NOLENSVILLE,TN,37135
577,2212  SILVERTON DR,NASHVILLE,TN,37207
578,2216  SILVERTON DR,NASHVILLE,TN,37207
579,5236  LAKE MAXWELL DR,ANTIOCH,TN,37013
580,5224  LAKE MAXWELL DR,ANTIOCH,TN,37013
581,5309  TUPELO ST,ANTIOCH,TN,37013
582,4965  RIVERBANK DR,HERMITAGE,TN,37076
583,5228  LAKE MAXWELL DR,ANTIOCH,TN,37013
584,5512  CENTRAL GROVE SQ,ANTIOCH,TN,37013
585,5229  LAKE MAXWELL DR,ANTIOCH,TN,37013
586,5220  LAKE MAXWELL DR,ANTIOCH,TN,37013
587,5311  TUPELO ST,ANTIOCH,TN,37013
588,140  BNA PARK DR  500,NASHVILLE,TN,37214
589,357  KARA LN,NOLENSVILLE,TN,37135
590,5242  TUPELO ST,ANTIOCH,TN,37013
591,2208  SILVERTON DR,NASHVILLE,TN,37207
592,810  BRIAR CIR,MADISON,TN,37115
593,802  BRIAR CIR,MADISON,TN,37115
594,806  BRIAR CIR,MADISON,TN,37115
595,1271  HAVENBROOK DR,NASHVILLE,TN,37207
596,808  BRIAR CIR,MADISON,TN,37115
597,2518  GALLATIN AVE,NASHVILLE,TN,37206
598,4355  STONE HALL BLVD,HERMITAGE,TN,37076
599,921B2  BENTON AVE,NASHVILLE,TN,37204
600,5217  TUPELO ST,ANTIOCH,TN,37013
601,1281  HAVENBROOK DR,NASHVILLE,TN,37207
602,1283  HAVENBROOK DR,NASHVILLE,TN,37207
603,1277  HAVENBROOK DR,NASHVILLE,TN,37207
604,2028  CAREFREE LN,ANTIOCH,TN,37013
605,1279  HAVENBROOK DR,NASHVILLE,TN,37207
606,1275  HAVENBROOK DR,NASHVILLE,TN,37207
607,1269  HAVENBROOK DR,NASHVILLE,TN,37207
608,5226  TUPELO ST,ANTIOCH,TN,37013
609,1273  HAVENBROOK DR,NASHVILLE,TN,37207
610,1285  HAVENBROOK DR,NASHVILLE,TN,37207
611,1287  HAVENBROOK DR,NASHVILLE,TN,37207
612,3406  SHELBY BOTTOMS BND,NASHVILLE,TN,37206
613,7388  MARONEY DR,ANTIOCH,TN,37013
614,7404  MARONEY DR,ANTIOCH,TN,37013
615,7400  MARONEY DR,ANTIOCH,TN,37013
616,1788  WOODSONG DR,BRENTWOOD,TN,37027
617,1029A2  MONROE ST,NASHVILLE,TN,37208
618,2048  CAREFREE LN,ANTIOCH,TN,37013
619,5214  TUPELO ST,ANTIOCH,TN,37013
620,7392  MARONEY DR,ANTIOCH,TN,37013
621,2032  CAREFREE LN,ANTIOCH,TN,37013
622,5231  TUPELO ST,ANTIOCH,TN,37013
623,2036  CAREFREE LN,ANTIOCH,TN,37013
624,1029B2  MONROE ST,NASHVILLE,TN,37208
625,2037  CAREFREE LN,ANTIOCH,TN,37013
626,5228  TUPELO ST,ANTIOCH,TN,37013
627,969  AIRPORT SERVICE RD  BAY 17 / S,NASHVILLE,TN,37217
628,5230  TUPELO ST,ANTIOCH,TN,37013
629,5232  TUPELO ST,ANTIOCH,TN,37013
630,3426  SHELBY BOTTOMS BND,NASHVILLE,TN,37206
631,3424  SHELBY BOTTOMS BND,NASHVILLE,TN,37206
632,3414  SHELBY BOTTOMS BND,NASHVILLE,TN,37206
633,0  CANE RIDGE RD,ANTIOCH,TN,37013
634,602  HECK LN,NOLENSVILLE,TN,37135
635,606  HECK LN,NOLENSVILLE,TN,37135
636,600  HECK LN,NOLENSVILLE,TN,37135
637,409  IONA WAY,NOLENSVILLE,TN,37135
638,7000  HARRIS HILLS LN,NASHVILLE,TN,37211
639,512  HOBBS CREEK DR,NASHVILLE,TN,37215
640,510  HOBBS CREEK DR,NASHVILLE,TN,37215
641,4004  ARROWLEAF LN,ANTIOCH,TN,37013
642,604  HECK LN,NOLENSVILLE,TN,37135
643,5332  TUPELO ST,ANTIOCH,TN,37013
644,155  LIGHTWOOD DR,ANTIOCH,TN,37013
645,5333  TUPELO ST,ANTIOCH,TN,37013
646,120  BRENTWOOD COMMONS WAY,BRENTWOOD,TN,37027
647,5353  TUPELO ST,ANTIOCH,TN,37013
648,2704  GOSSETT TRL,NASHVILLE,TN,37221
649,4033  SADDLECREEK WAY,ANTIOCH,TN,37013
650,4808A2  ILLINOIS AVE,NASHVILLE,TN,37209
651,1600  LAMPWICK CT,NASHVILLE,TN,37221
652,950  BRITTANY PARK DR,ANTIOCH,TN,37013
653,4031  SADDLECREEK WAY,ANTIOCH,TN,37013
654,1020  DR MARTIN L KING JR BLVD,NASHVILLE,TN,37203
655,950  BRITTANY PARK DR,ANTIOCH,TN,37013
656,804  BRIAR CIR,MADISON,TN,37115
657,2708  GOSSETT TRL,NASHVILLE,TN,37221
658,309  BODDINGTON LN,ANTIOCH,TN,37013
659,2712  GOSSETT TRL,NASHVILLE,TN,37221
660,5341  TUPELO ST,ANTIOCH,TN,37013
661,1501  HAMILTON CROSS DR,ANTIOCH,TN,37013
662,7424  MARONEY DR,ANTIOCH,TN,37013
663,5354  TUPELO ST,ANTIOCH,TN,37013
664,5352  TUPELO ST,ANTIOCH,TN,37013
665,4039  SADDLECREEK WAY,ANTIOCH,TN,37013
666,5338  TUPELO ST,ANTIOCH,TN,37013
667,5334  TUPELO ST,ANTIOCH,TN,37013
668,5337  TUPELO ST,ANTIOCH,TN,37013
669,5339  TUPELO ST,ANTIOCH,TN,37013
670,4043  SADDLECREEK WAY,ANTIOCH,TN,37013
671,2700  GOSSETT TRL,NASHVILLE,TN,37221
672,4037  SADDLECREEK WAY,ANTIOCH,TN,37013
673,4138  ALVA LN,NOLENSVILLE,TN,37135
674,5004  RIVERBANK DR,HERMITAGE,TN,37076
675,5356  TUPELO ST,ANTIOCH,TN,37013
676,5336  TUPELO ST,ANTIOCH,TN,37013
677,5335  TUPELO ST,ANTIOCH,TN,37013
678,5351  TUPELO ST,ANTIOCH,TN,37013
679,5340  TUPELO ST,ANTIOCH,TN,37013
680,1560  HAMILTON CROSS DR,ANTIOCH,TN,37013
681,9357  BARCO RD,BRENTWOOD,TN,37027
682,301 E VILLAGE LN,NASHVILLE,TN,37216
683,1552  HAMILTON CROSS DR,ANTIOCH,TN,37013
684,1548  HAMILTON CROSS DR,ANTIOCH,TN,37013
685,4035  SADDLECREEK WAY,ANTIOCH,TN,37013
686,7367  MARONEY DR,ANTIOCH,TN,37013
687,5138  SUNSET RIDGE LN,ANTIOCH,TN,37013
688,5134  SUNSET RIDGE LN,ANTIOCH,TN,37013
689,5342  TUPELO ST,ANTIOCH,TN,37013
690,5348  TUPELO ST,ANTIOCH,TN,37013
691,5524  CENTRAL GROVE SQ,ANTIOCH,TN,37013
692,5140  SUNSET RIDGE LN,ANTIOCH,TN,37013
693,1580  HAMILTON CROSS DR,ANTIOCH,TN,37013
694,7375  MARONEY DR,ANTIOCH,TN,37013
695,7371  MARONEY DR,ANTIOCH,TN,37013
696,5132  SUNSET RIDGE LN,ANTIOCH,TN,37013
697,5136  SUNSET RIDGE LN,ANTIOCH,TN,37013
698,5344  TUPELO ST,ANTIOCH,TN,37013
699,5355  TUPELO ST,ANTIOCH,TN,37013
700,5357  TUPELO ST,ANTIOCH,TN,37013
701,5350  TUPELO ST,ANTIOCH,TN,37013
702,5346  TUPELO ST,ANTIOCH,TN,37013
703,1312  GREENSTONE LN,NASHVILLE,TN,37221
704,5317  TUPELO ST,ANTIOCH,TN,37013
705,5528  CENTRAL GROVE SQ,ANTIOCH,TN,37013
706,2155  BAYPORT AVE,OLD HICKORY,TN,37138
707,2157  BAYPORT AVE,OLD HICKORY,TN,37138
708,5323  TUPELO ST,ANTIOCH,TN,37013
709,2045  CAREFREE LN,ANTIOCH,TN,37013
710,437  CREEDMORE DR,OLD HICKORY,TN,37138
711,2052  CAREFREE LN,ANTIOCH,TN,37013
712,1507A2  SHELBY AVE,NASHVILLE,TN,37206
713,5526  CENTRAL GROVE SQ,ANTIOCH,TN,37013
714,7384  MARONEY DR,ANTIOCH,TN,37013
715,1340  TREE HOUSE DR,ANTIOCH,TN,37013
716,2040  CAREFREE LN,ANTIOCH,TN,37013
717,426  CREEDMORE DR,OLD HICKORY,TN,37138
718,2044  CAREFREE LN,ANTIOCH,TN,37013
719,7380  MARONEY DR,ANTIOCH,TN,37013
720,5321  TUPELO ST,ANTIOCH,TN,37013
721,2161  BAYPORT AVE,OLD HICKORY,TN,37138
722,2001  CAREFREE LN,ANTIOCH,TN,37013
723,7372  MARONEY DR,ANTIOCH,TN,37013
724,1332  TREE HOUSE DR,ANTIOCH,TN,37013
725,1336  TREE HOUSE DR,ANTIOCH,TN,37013
726,2153  BAYPORT AVE,OLD HICKORY,TN,37138
727,2163  BAYPORT AVE,OLD HICKORY,TN,37138
728,2159  BAYPORT AVE,OLD HICKORY,TN,37138
729,2020  CAREFREE LN,ANTIOCH,TN,37013
730,1621  ALAYNA DR,NASHVILLE,TN,37221
731,5320  TUPELO ST,ANTIOCH,TN,37013
732,2207  SPRINGFIELD HWY,GOODLETTSVILLE,TN,37072
733,5318  TUPELO ST,ANTIOCH,TN,37013
734,2041  CAREFREE LN,ANTIOCH,TN,37013
735,7405  MARONEY DR,ANTIOCH,TN,37013
736,5606A2  PENNSYLVANIA AVE,NASHVILLE,TN,37209
737,2024  CAREFREE LN,ANTIOCH,TN,37013
738,5319  TUPELO ST,ANTIOCH,TN,37013
739,1507B2  SHELBY AVE,NASHVILLE,TN,37206
740,7401  MARONEY DR,ANTIOCH,TN,37013
741,5316  TUPELO ST,ANTIOCH,TN,37013
742,7443  MARONEY DR,ANTIOCH,TN,37013
743,4808B2  ILLINOIS AVE,NASHVILLE,TN,37209
744,702  TRAL ST,NASHVILLE,TN,37208
745,1321  TREE HOUSE DR,ANTIOCH,TN,37013
746,5314  TUPELO ST,ANTIOCH,TN,37013
747,0  BYRUM AVE,NASHVILLE,TN,37203
748,4041  SADDLECREEK WAY,ANTIOCH,TN,37013
749,1228C2  ARDEE AVE,NASHVILLE,TN,37216
750,700  TRAL ST,NASHVILLE,TN,37208
751,5130  SUNSET RIDGE LN,ANTIOCH,TN,37013
752,5532  CENTRAL GROVE SQ,ANTIOCH,TN,37013
753,708  TRAL ST,NASHVILLE,TN,37208
754,5330  TUPELO ST,ANTIOCH,TN,37013
755,717  TRAL ST,NASHVILLE,TN,37208
756,777  BRADBURN VILLAGE WAY,ANTIOCH,TN,37013
757,706  TRAL ST,NASHVILLE,TN,37208
758,1026B2  MONROE ST,NASHVILLE,TN,37208
759,814  BRIAR CIR,MADISON,TN,37115
760,5128  SUNSET RIDGE LN,ANTIOCH,TN,37013
761,5234  TUPELO ST,ANTIOCH,TN,37013
762,775  BRADBURN VILLAGE WAY,ANTIOCH,TN,37013
763,9429  KAPLAN AVE,BRENTWOOD,TN,37027
764,5312  TUPELO ST,ANTIOCH,TN,37013
765,715  TRAL ST,NASHVILLE,TN,37208
766,5328  TUPELO ST,ANTIOCH,TN,37013
767,1026A2  MONROE ST,NASHVILLE,TN,37208
768,5329  TUPELO ST,ANTIOCH,TN,37013
769,5534  CENTRAL GROVE SQ,ANTIOCH,TN,37013
770,767  BRADBURN VILLAGE WAY,ANTIOCH,TN,37013
771,5530  CENTRAL GROVE SQ,ANTIOCH,TN,37013
772,779  BRADBURN VILLAGE WAY,ANTIOCH,TN,37013
773,704  TRAL ST,NASHVILLE,TN,37208
774,5310  TUPELO ST,ANTIOCH,TN,37013
775,5326  TUPELO ST,ANTIOCH,TN,37013
776,4157  MAGNOLIA FARMS DR,HERMITAGE,TN,37076
777,5327  TUPELO ST,ANTIOCH,TN,37013
778,771  BRADBURN VILLAGE WAY,ANTIOCH,TN,37013
779,5522  CENTRAL GROVE SQ,ANTIOCH,TN,37013
780,5322  TUPELO ST,ANTIOCH,TN,37013
781,5041  SUNFLOWER LN,HERMITAGE,TN,37076
782,710  TRAL ST,NASHVILLE,TN,37208
783,5325  TUPELO ST,ANTIOCH,TN,37013
784,5331  TUPELO ST,ANTIOCH,TN,37013
785,5324  TUPELO ST,ANTIOCH,TN,37013
786,769  BRADBURN VILLAGE WAY,ANTIOCH,TN,37013
787,719  TRAL ST,NASHVILLE,TN,37208
788,712  TRAL ST,NASHVILLE,TN,37208
789,5126  SUNSET RIDGE LN,ANTIOCH,TN,37013
790,773  BRADBURN VILLAGE WAY,ANTIOCH,TN,37013
791,7376  MARONEY DR,ANTIOCH,TN,37013
792,714  TRAL ST,NASHVILLE,TN,37208
793,2008  NOTCHLEAF RD,ANTIOCH,TN,37013
794,518  VERNON CIR,NASHVILLE,TN,37209
795,2127  CENTURY FARMS PKWY,ANTIOCH,TN,37013
796,1381  MARITIME PRT,ANTIOCH,TN,37013
797,1568  HAMILTON CROSS DR,ANTIOCH,TN,37013
798,1051  NAVE CT,NASHVILLE,TN,37214
799,1576  HAMILTON CROSS DR,ANTIOCH,TN,37013
800,1055  NAVE CT,NASHVILLE,TN,37214
801,4165  MAGNOLIA FARMS DR,HERMITAGE,TN,37076
802,7368  MARONEY DR,ANTIOCH,TN,37013
803,2955  JENRY DR,NASHVILLE,TN,37214
804,1572  HAMILTON CROSS DR,ANTIOCH,TN,37013
805,5055  BROADWAY PL,NASHVILLE,TN,37203
806,6013  BLACKBERRY RIDGE LN,HERMITAGE,TN,37076
807,4096  MAGNOLIA FARMS DR,HERMITAGE,TN,37076
808,512  VERNON CIR,NASHVILLE,TN,37209
809,2008  CAREFREE LN,ANTIOCH,TN,37013
810,510  VERNON CIR,NASHVILLE,TN,37209
811,215  STERLING POINT CIR,NASHVILLE,TN,37209
812,520  VERNON CIR,NASHVILLE,TN,37209
813,2333B  FAIRCHILD CIR,NOLENSVILLE,TN,37135
814,516  VERNON CIR,NASHVILLE,TN,37209
815,4049  MAGNOLIA FARMS DR,HERMITAGE,TN,37076
816,514  VERNON CIR,NASHVILLE,TN,37209
817,1267  HAVENBROOK DR,NASHVILLE,TN,37207
818,803  BRADBURN VILLAGE WAY,ANTIOCH,TN,37013
819,1211B2  TREMONT ST,NASHVILLE,TN,37212
820,1408  ROPE SWING WAY,ANTIOCH,TN,37013
821,791  BRADBURN VILLAGE WAY,ANTIOCH,TN,37013
822,811  BRADBURN VILLAGE WAY,ANTIOCH,TN,37013
823,2132  BAYPORT AVE,OLD HICKORY,TN,37138
824,450B  GLASTONBURY RD,NASHVILLE,TN,37217
825,2124  BAYPORT AVE,OLD HICKORY,TN,37138
826,809  BRADBURN VILLAGE WAY,ANTIOCH,TN,37013
827,799  BRADBURN VILLAGE WAY,ANTIOCH,TN,37013
828,2130  BAYPORT AVE,OLD HICKORY,TN,37138
829,793  BRADBURN VILLAGE WAY,ANTIOCH,TN,37013
830,2122  BAYPORT AVE,OLD HICKORY,TN,37138
831,691  HICKORY INDUSTRIAL DR,OLD HICKORY,TN,37138
832,805  BRADBURN VILLAGE WAY,ANTIOCH,TN,37013
833,2134  BAYPORT AVE,OLD HICKORY,TN,37138
834,2992  BELWOOD ST,NASHVILLE,TN,37203
835,689  HICKORY INDUSTRIAL DR,OLD HICKORY,TN,37138
836,1261  HAVENBROOK DR,NASHVILLE,TN,37207
837,2126  BAYPORT AVE,OLD HICKORY,TN,37138
838,681  HICKORY INDUSTRIAL DR,OLD HICKORY,TN,37138
839,687  HICKORY INDUSTRIAL DR,OLD HICKORY,TN,37138
840,1263  HAVENBROOK DR,NASHVILLE,TN,37207
841,807  BRADBURN VILLAGE WAY,ANTIOCH,TN,37013
842,801  BRADBURN VILLAGE WAY,ANTIOCH,TN,37013
843,797  BRADBURN VILLAGE WAY,ANTIOCH,TN,37013
844,1211A2  TREMONT ST,NASHVILLE,TN,37212
845,2136  BAYPORT AVE,OLD HICKORY,TN,37138
846,0  UNKNOWN,NASHVILLE,TN,0
847,795  BRADBURN VILLAGE WAY,ANTIOCH,TN,37013
848,685  HICKORY INDUSTRIAL DR,OLD HICKORY,TN,37138
849,2994  BELWOOD ST,NASHVILLE,TN,37203
850,2128  BAYPORT AVE,OLD HICKORY,TN,37138
851,1265  HAVENBROOK DR,NASHVILLE,TN,37207
852,683  HICKORY INDUSTRIAL DR,OLD HICKORY,TN,37138
853,813  BRADBURN VILLAGE WAY,ANTIOCH,TN,37013
854,4708B2  ILLINOIS AVE,NASHVILLE,TN,37209
855,5015  BROADWAY PL,NASHVILLE,TN,37203
856,2496  PRAIRIE HILL DR,ANTIOCH,TN,37013
857,612  PARKVUE PLACE DR,NASHVILLE,TN,37221
858,618  PARKVUE PLACE DR,NASHVILLE,TN,37221
859,636A2  WESTBORO DR,NASHVILLE,TN,37209
860,614  PARKVUE PLACE DR,NASHVILLE,TN,37221
861,400A1  21ST AVE S,NASHVILLE,TN,37203
862,616  PARKVUE PLACE DR,NASHVILLE,TN,37221
863,5005  UPPER PARK PL,ANTIOCH,TN,37013
864,909A2  HALCYON AVE,NASHVILLE,TN,37204
865,5007  UPPER PARK PL,ANTIOCH,TN,37013
866,5003  UPPER PARK PL,ANTIOCH,TN,37013
867,7000  HARRIS HILLS LN  201-230,NASHVILLE,TN,37211
868,7000  HARRIS HILLS LN  701-708,NASHVILLE,TN,37211
869,7000  HARRIS HILLS LN  501-547,NASHVILLE,TN,37211
870,7000  HARRIS HILLS LN  301-330,NASHVILLE,TN,37211
871,5009  UPPER PARK PL,ANTIOCH,TN,37013
872,1823B2  5TH AVE N,NASHVILLE,TN,37208
873,1528  HAMILTON CROSS DR,ANTIOCH,TN,37013
874,1355  GREENSTONE LN,NASHVILLE,TN,37221
875,1536  HAMILTON CROSS DR,ANTIOCH,TN,37013
876,1669  ALAYNA DR,NASHVILLE,TN,37221
877,4011B  SADDLECREEK WAY,ANTIOCH,TN,37013
878,7000  HARRIS HILLS LN  401-430,NASHVILLE,TN,37211
879,7000  HARRIS HILLS LN  601-602,NASHVILLE,TN,37211
880,4038B  SADDLECREEK WAY,ANTIOCH,TN,37013
881,7000  HARRIS HILLS LN  801-802,NASHVILLE,TN,37211
882,7000  HARRIS HILLS LN  101-147,NASHVILLE,TN,37211
883,4055  CANE RIDGE PKWY,ANTIOCH,TN,37013
884,1032  LAWSONS RIDGE DR,NASHVILLE,TN,37218
885,7000  HARRIS HILLS LN  901-930,NASHVILLE,TN,37211
886,1544  HAMILTON CROSS DR,ANTIOCH,TN,37013
887,1653  ALAYNA DR,NASHVILLE,TN,37221
888,1512  HAMILTON CROSS DR,ANTIOCH,TN,37013
889,1500  HAMILTON CROSS DR,ANTIOCH,TN,37013
890,0  CHURCH ST,NASHVILLE,TN,37203
891,1632  ALAYNA DR,NASHVILLE,TN,37221
892,1540  HAMILTON CROSS DR,ANTIOCH,TN,37013
893,1532  HAMILTON CROSS DR,ANTIOCH,TN,37013
894,5001  UPPER PARK PL,HERMITAGE,TN,37013
895,3308  JOGGERS PASS,NASHVILLE,TN,37206
896,1500  DAVIDGE DR,NASHVILLE,TN,37221
897,1823A2  5TH AVE N,NASHVILLE,TN,37208
898,3306  JOGGERS PASS,NASHVILLE,TN,37206
899,4708A2  ILLINOIS AVE,NASHVILLE,TN,37209
900,5056  BROADWAY PL,NASHVILLE,TN,37203
901,1533  HAMILTON CROSS DR,ANTIOCH,TN,37013
902,1529  HAMILTON CROSS DR,ANTIOCH,TN,37013
903,540  CERET ALY,NASHVILLE,TN,37211
904,2798  HASTINGS RD,NASHVILLE,TN,37214
905,140  BNA PARK DR  500,NASHVILLE,TN,37214
906,5601  ETHEL ST,NASHVILLE,TN,37209
907,909  ASHLAND PLACE DR,NASHVILLE,TN,37218
908,969  ASHLAND PLACE DR,NASHVILLE,TN,37218
909,973  ASHLAND PLACE DR,NASHVILLE,TN,37218
910,965  ASHLAND PLACE DR,NASHVILLE,TN,37218
911,716B2  27TH AVE N,NASHVILLE,TN,37208
912,975  ASHLAND PLACE DR,NASHVILLE,TN,37218
913,716A2  27TH AVE N,NASHVILLE,TN,37208
914,905  ASHLAND PLACE DR,NASHVILLE,TN,37218
915,901  ASHLAND PLACE DR,NASHVILLE,TN,37218
916,907  ASHLAND PLACE DR,NASHVILLE,TN,37218
917,977  ASHLAND PLACE DR,NASHVILLE,TN,37218
918,903  ASHLAND PLACE DR,NASHVILLE,TN,37218
919,967  ASHLAND PLACE DR,NASHVILLE,TN,37218
920,21  WHITE BRIDGE PIKE,NASHVILLE,TN,37205
921,971  ASHLAND PLACE DR,NASHVILLE,TN,37218
922,5603  ETHEL ST,NASHVILLE,TN,37209
923,600  PARKVUE PLACE DR,NASHVILLE,TN,37221
924,604  PARKVUE PLACE DR,NASHVILLE,TN,37221
925,4508B2  ILLINOIS AVE,NASHVILLE,TN,37209
926,2033  CAREFREE LN,ANTIOCH,TN,37013
927,2029  CAREFREE LN,ANTIOCH,TN,37013
928,761  MILL CREEK MEADOW DR,NASHVILLE,TN,37214
929,4304  LONGFELLOW DR,NASHVILLE,TN,37214
930,504  VALOR WAY,ANTIOCH,TN,37013
931,4508A2  ILLINOIS AVE,NASHVILLE,TN,37209
932,602  PARKVUE PLACE DR,NASHVILLE,TN,37221
933,777  MILL CREEK MEADOW DR,NASHVILLE,TN,37214
934,3369  WOODLAND STAR WAY,NASHVILLE,TN,37207
935,4325  LONGFELLOW DR,NASHVILLE,TN,37214
936,4320  LONGFELLOW DR,NASHVILLE,TN,37214
937,4316  LONGFELLOW DR,NASHVILLE,TN,37214
938,4321  LONGFELLOW DR,NASHVILLE,TN,37214
939,4300  LONGFELLOW DR,NASHVILLE,TN,37214
940,4313  LONGFELLOW DR,NASHVILLE,TN,37214
941,4317  LONGFELLOW DR,NASHVILLE,TN,37214
942,4336  LONGFELLOW DR,NASHVILLE,TN,37214
943,4712A2  MICHIGAN AVE,NASHVILLE,TN,37209
944,4312  LONGFELLOW DR,NASHVILLE,TN,37214
945,4309  LONGFELLOW DR,NASHVILLE,TN,37214
946,4329  LONGFELLOW DR,NASHVILLE,TN,37214
947,779  MILL CREEK MEADOW DR,NASHVILLE,TN,37214
948,4332  LONGFELLOW DR,NASHVILLE,TN,37214
949,4301  LONGFELLOW DR,NASHVILLE,TN,37214
950,4308  LONGFELLOW DR,NASHVILLE,TN,37214
951,3164  CHARLES PARK DR,NASHVILLE,TN,37211
952,5052  SUNFLOWER LN,HERMITAGE,TN,37076
953,4305  LONGFELLOW DR,NASHVILLE,TN,37214
954,791  MILL CREEK MEADOW DR,NASHVILLE,TN,37214
955,1000  HEALTH PARK DR,BRENTWOOD,TN,37027
956,3385  WOODLAND STAR WAY,NASHVILLE,TN,37207
957,4712B2  MICHIGAN AVE,NASHVILLE,TN,37209
958,3377  WOODLAND STAR WAY,NASHVILLE,TN,37207
959,3392  WOODLAND STAR WAY,NASHVILLE,TN,37207
960,3384  WOODLAND STAR WAY,NASHVILLE,TN,37207
961,1652  ALAYNA DR,NASHVILLE,TN,37221
962,1705  ALAYNA CT,NASHVILLE,TN,37221
963,1628  ALAYNA DR,NASHVILLE,TN,37221
964,3373  WOODLAND STAR WAY,NASHVILLE,TN,37207
965,1317  TREE HOUSE DR,ANTIOCH,TN,37013
966,1009  GAYRON DR,JOELTON,TN,37080
967,1921B2  DELTA AVE,NASHVILLE,TN,37208
968,1921A2  DELTA AVE,NASHVILLE,TN,37208
969,4803C2  MICHIGAN AVE,NASHVILLE,TN,37209
970,4065  MAGNOLIA FARMS DR,HERMITAGE,TN,37076
971,3381  WOODLAND STAR WAY,NASHVILLE,TN,37207
972,3388  WOODLAND STAR WAY,NASHVILLE,TN,37207
973,1289  BROOKHAVEN DR,NASHVILLE,TN,37207
974,4095  CANE RIDGE PKWY,ANTIOCH,TN,37013
975,4803A2  MICHIGAN AVE,NASHVILLE,TN,37209
976,1259  SUMMER SHADE DR,ANTIOCH,TN,37013
977,4803B2  MICHIGAN AVE,NASHVILLE,TN,37209
978,1347  TREE HOUSE DR,ANTIOCH,TN,37013
979,1200  NATIONS DR,NASHVILLE,TN,37209
980,1217  NATIONS DR,NASHVILLE,TN,37209
981,3380  WOODLAND STAR WAY,NASHVILLE,TN,37207
982,783  MILL CREEK MEADOW DR,NASHVILLE,TN,37214
983,759  MILL CREEK MEADOW DR,NASHVILLE,TN,37214
984,771  MILL CREEK MEADOW DR,NASHVILLE,TN,37214
985,1223  NATIONS DR,NASHVILLE,TN,37209
986,785  MILL CREEK MEADOW DR,NASHVILLE,TN,37214
987,4151  MAGNOLIA FARMS DR,HERMITAGE,TN,37076
988,1208  NATIONS DR,NASHVILLE,TN,37209
989,1221  NATIONS DR,NASHVILLE,TN,37209
990,1213  NATIONS DR,NASHVILLE,TN,37209
991,5032  SUNFLOWER LN,HERMITAGE,TN,37076
992,1235  NATIONS DR,NASHVILLE,TN,37209
993,1241  NATIONS DR,NASHVILLE,TN,37209
994,1231  NATIONS DR,NASHVILLE,TN,37209
995,1215  NATIONS DR,NASHVILLE,TN,37209
996,1202  NATIONS DR,NASHVILLE,TN,37209
997,6001  BLACKBERRY RIDGE LN,HERMITAGE,TN,37076
998,4092  MAGNOLIA FARMS DR,HERMITAGE,TN,37076
999,1209  NATIONS DR,NASHVILLE,TN,37209
1000,1219  NATIONS DR,NASHVILLE,TN,37209
1001,1229  NATIONS DR,NASHVILLE,TN,37209
1002,1211  NATIONS DR,NASHVILLE,TN,37209
1003,1204  NATIONS DR,NASHVILLE,TN,37209
1004,1233  NATIONS DR,NASHVILLE,TN,37209
1005,1239  NATIONS DR,NASHVILLE,TN,37209
1006,1206  NATIONS DR,NASHVILLE,TN,37209
1007,1237  NATIONS DR,NASHVILLE,TN,37209
1008,1227  NATIONS DR,NASHVILLE,TN,37209
1009,751  MILL CREEK MEADOW DR,NASHVILLE,TN,37214
1010,749  MILL CREEK MEADOW DR,NASHVILLE,TN,37214
1011,757  MILL CREEK MEADOW DR,NASHVILLE,TN,37214
1012,773  MILL CREEK MEADOW DR,NASHVILLE,TN,37214
1013,755  MILL CREEK MEADOW DR,NASHVILLE,TN,37214
1014,747  MILL CREEK MEADOW DR,NASHVILLE,TN,37214
1015,5069  BROADWAY PL,NASHVILLE,TN,37203
1016,1375  GREENSTONE LN,NASHVILLE,TN,37221
1017,1673  ALAYNA DR,NASHVILLE,TN,37221
1018,313  BODDINGTON LN,ANTIOCH,TN,37013
1019,1509  HAMILTON CROSS DR,ANTIOCH,TN,37013
1020,5564  HAMILTON CIR,NASHVILLE,TN,37013
1021,1259  HAVENBROOK DR,NASHVILLE,TN,37207
1022,793  MILL CREEK MEADOW DR,NASHVILLE,TN,37214
1023,1249  HAVENBROOK DR,NASHVILLE,TN,37207
1024,3304  JOGGERS PASS,NASHVILLE,TN,37206
1025,1257  HAVENBROOK DR,NASHVILLE,TN,37207
1026,1251  HAVENBROOK DR,NASHVILLE,TN,37207
1027,1255  HAVENBROOK DR,NASHVILLE,TN,37207
1028,1253  HAVENBROOK DR,NASHVILLE,TN,37207
1029,305  BODDINGTON LN,ANTIOCH,TN,37013
1030,316  BODDINGTON LN,ANTIOCH,TN,37013
1031,204  FOUNDERS LN,NASHVILLE,TN,37209
1032,1537  HAMILTON CROSS DR,ANTIOCH,TN,37013
1033,775  MILL CREEK MEADOW DR,NASHVILLE,TN,37214
1034,206  FOUNDERS LN,NASHVILLE,TN,37209
1035,1255  SUMMER SHADE DR,ANTIOCH,TN,37013
1036,0  OLD HICKORY BLVD,NASHVILLE,TN,37221
1037,753  MILL CREEK MEADOW DR,NASHVILLE,TN,37214
1038,1122A2  GLENVIEW DR,NASHVILLE,TN,37206
1039,2528  VISTA LN,NASHVILLE,TN,37207
1040,781  MILL CREEK MEADOW DR,NASHVILLE,TN,37214
1041,4323  STONE HALL BLVD,HERMITAGE,TN,37076
1042,1525  HAMILTON CROSS DR,ANTIOCH,TN,37013
1043,4216  SUMMERCREST BLVD,ANTIOCH,TN,37013
1044,207B2  MYRTLE ST,NASHVILLE,TN,37206
1045,343  BODDINGTON LN,ANTIOCH,TN,37013
1046,4335  STONE HALL BLVD,HERMITAGE,TN,37076
1047,1309  MARITIME PRT,ANTIOCH,TN,37013
1048,5002  BROADWAY PL,NASHVILLE,TN,37203
1049,321  HIDDEN SPRINGS CV,NASHVILLE,TN,37207
1050,5528  HAMILTON CIR,ANTIOCH,TN,37013
1051,6014  BLACKBERRY RIDGE LN,HERMITAGE,TN,37076
1052,1122B2  GLENVIEW DR,NASHVILLE,TN,37206
1053,203  FOUNDERS LN,NASHVILLE,TN,37209
1054,1100  DR MARTIN L KING JR BLVD,NASHVILLE,TN,37203
1055,210  FOUNDERS LN,NASHVILLE,TN,37209
1056,420  CREATIVE WAY,MADISON,TN,37115
1057,201  FOUNDERS LN,NASHVILLE,TN,37209
1058,424  CREATIVE WAY,MADISON,TN,37115
1059,4347  STONE HALL BLVD,HERMITAGE,TN,37076
1060,208  FOUNDERS LN,NASHVILLE,TN,37209
1061,212  FOUNDERS LN,NASHVILLE,TN,37209
1062,200  FOUNDERS LN,NASHVILLE,TN,37209
1063,422  CREATIVE WAY,MADISON,TN,37115
1064,324  HIDDEN SPRINGS CV,NASHVILLE,TN,37207
1065,790  BRADBURN VILLAGE WAY,ANTIOCH,TN,37013
1066,1520  HAMILTON CROSS DR,ANTIOCH,TN,37013
1067,3265  LONGSTALK RD,ANTIOCH,TN,37013
1068,101  HAILEY DR,NASHVILLE,TN,37204
1069,2051  VILLAGE PARK CIR,OLD HICKORY,TN,37138
1070,1418B2  SHARPE AVE,NASHVILLE,TN,37206
1071,1508  HAMILTON CROSS DR,ANTIOCH,TN,37013
1072,1564  HAMILTON CROSS DR,ANTIOCH,TN,37013
1073,1524  HAMILTON CROSS DR,ANTIOCH,TN,37013
1074,1504  HAMILTON CROSS DR,ANTIOCH,TN,37013
1075,2939  JENRY DR,NASHVILLE,TN,37214
1076,1516  HAMILTON CROSS DR,ANTIOCH,TN,37013
1077,794  BRADBURN VILLAGE WAY,ANTIOCH,TN,37013
1078,2045  VILLAGE PARK CIR,OLD HICKORY,TN,37138
1079,788  BRADBURN VILLAGE WAY,ANTIOCH,TN,37013
1080,784  BRADBURN VILLAGE WAY,ANTIOCH,TN,37013
1081,786  BRADBURN VILLAGE WAY,ANTIOCH,TN,37013
1082,4339  STONE HALL BLVD,HERMITAGE,TN,37076
1083,792  BRADBURN VILLAGE WAY,ANTIOCH,TN,37013
1084,782  BRADBURN VILLAGE WAY,ANTIOCH,TN,37013
1085,3542  FOUR LEAF WAY,ANTIOCH,TN,37013
1086,21  WHITE BRIDGE PIKE  102,NASHVILLE,TN,37205
1087,1520  DAVIDGE DR,NASHVILLE,TN,37221
1088,732  INSPIRATION BLVD  14,MADISON,TN,37115
1089,1263  SUMMER SHADE DR,ANTIOCH,TN,37013
1090,1000B  CAMERON PARK DR,NASHVILLE,TN,37211
1091,1036  TREVINO PL,ANTIOCH,TN,37013
1092,4057  MAGNOLIA FARMS DR,HERMITAGE,TN,37076
1093,606  PARKVUE PLACE DR,NASHVILLE,TN,37221
1094,301  HART ST,NASHVILLE,TN,37210
1095,738  INSPIRATION BLVD,MADISON,TN,37115
1096,744  INSPIRATION BLVD,MADISON,TN,37115
1097,742  INSPIRATION BLVD,MADISON,TN,37115
1098,21  WHITE BRIDGE PIKE,NASHVILLE,TN,37205
1099,4104  MAGNOLIA FARMS DR,HERMITAGE,TN,37076
1100,1033  LAWSONS RIDGE DR,NASHVILLE,TN,37218
1101,736  INSPIRATION BLVD,MADISON,TN,37115
1102,4072  MAGNOLIA FARMS DR,HERMITAGE,TN,37076
1103,21  WHITE BRIDGE PIKE  107,NASHVILLE,TN,37205
1104,3176  CHARLES PARK DR,NASHVILLE,TN,37211
1105,0  VERNON AVE,NASHVILLE,TN,37209
1106,732  INSPIRATION BLVD  15,MADISON,TN,37115
1107,732  INSPIRATION BLVD  16,MADISON,TN,37115
1108,740  INSPIRATION BLVD,MADISON,TN,37115
1109,732  INSPIRATION BLVD  13,MADISON,TN,37115
1110,1661  ALAYNA DR,NASHVILLE,TN,37221
1111,1367  GREENSTONE LN,NASHVILLE,TN,37221
1112,311  HART ST,NASHVILLE,TN,37210
1113,2333  FAIRCHILD CIR  103,NOLENSVILLE,TN,37135
1114,2441  SOLOMON LN,NASHVILLE,TN,37207
1115,1371  GREENSTONE LN,NASHVILLE,TN,37221
1116,2009  CAREFREE LN,ANTIOCH,TN,37013
1117,2416  SOLOMON LN,NASHVILLE,TN,37207
1118,2333  FAIRCHILD CIR  101,NOLENSVILLE,TN,37135
1119,1105A2 N 8TH ST,NASHVILLE,TN,37207
1120,2333  FAIRCHILD CIR  102,NOLENSVILLE,TN,37135
1121,2333  FAIRCHILD CIR  203,NOLENSVILLE,TN,37135
1122,2333  FAIRCHILD CIR  202,NOLENSVILLE,TN,37135
1123,2333  FAIRCHILD CIR  201,NOLENSVILLE,TN,37135
1124,407  ANCHOR RESERVE CV,HERMITAGE,TN,37076
1125,1251  SUMMER SHADE DR,ANTIOCH,TN,37013
1126,405  ANCHOR RESERVE CV,HERMITAGE,TN,37076
1127,2223  SILVERTON DR,NASHVILLE,TN,37207
1128,2221  SILVERTON DR,NASHVILLE,TN,37207
1129,4315  STONE HALL BLVD,HERMITAGE,TN,37076
1130,4307  STONE HALL BLVD,HERMITAGE,TN,37076
1131,7115  SOUTHPOINT PKWY,BRENTWOOD,TN,37027
1132,4311  STONE HALL BLVD,HERMITAGE,TN,37076
1133,4303  STONE HALL BLVD,HERMITAGE,TN,37076
1134,2484  PRAIRIE HILL DR,ANTIOCH,TN,37013
1135,0  35TH AVE N,NASHVILLE,TN,37209
1136,3261  LONGSTALK RD,ANTIOCH,TN,37013
1137,2525  PRAIRIE HILL DR,ANTIOCH,TN,37013
1138,2480  PRAIRIE HILL DR,ANTIOCH,TN,37013
1139,2013  CAREFREE LN,ANTIOCH,TN,37013
1140,4319  STONE HALL BLVD,HERMITAGE,TN,37076
1141,9721  KATZ LN,BRENTWOOD,TN,37027
1142,3302  JOGGERS PASS,NASHVILLE,TN,37206
1143,6133  OBRIEN AVE,NASHVILLE,TN,37209
1144,9729  KATZ LN,BRENTWOOD,TN,37027
1145,2376  FAIRCHILD CIR,NOLENSVILLE,TN,37135
1146,6056  BLACKBERRY RIDGE LN,HERMITAGE,TN,37076
1147,9728  KATZ LN,BRENTWOOD,TN,37027
1148,9724  KATZ LN,BRENTWOOD,TN,37027
1149,9716  KATZ LN,BRENTWOOD,TN,37027
1150,9733  KATZ LN,BRENTWOOD,TN,37027
1151,9713  KATZ LN,BRENTWOOD,TN,37027
1152,1657  ALAYNA DR,NASHVILLE,TN,37221
1153,9720  KATZ LN,BRENTWOOD,TN,37027
1154,9717  KATZ LN,BRENTWOOD,TN,37027
1155,1649  ALAYNA DR,NASHVILLE,TN,37221
1156,5015  UPPER PARK PL,ANTIOCH,TN,37013
1157,9740  KATZ LN,BRENTWOOD,TN,37027
1158,5017  UPPER PARK PL,ANTIOCH,TN,37013
1159,4008  MAGNOLIA FARMS DR,HERMITAGE,TN,37076
1160,21  WHITE BRIDGE PIKE  110,NASHVILLE,TN,37205
1161,3376  WOODLAND STAR WAY,NASHVILLE,TN,37207
1162,601  LINDEN ROSE ALY,NASHVILLE,TN,37209
1163,603  LINDEN ROSE ALY,NASHVILLE,TN,37209
1164,5019  UPPER PARK PL,ANTIOCH,TN,37013
1165,5013  UPPER PARK PL,ANTIOCH,TN,37013
1166,23  WHITE BRIDGE PIKE,NASHVILLE,TN,37205
1167,5011  UPPER PARK PL,ANTIOCH,TN,37013
1168,3114  TREVOR ST,NASHVILLE,TN,37209
1169,2156A2  SADLER AVE,NASHVILLE,TN,37210
1170,1118A2 N 6TH ST,NASHVILLE,TN,37207
1171,2156B2  SADLER AVE,NASHVILLE,TN,37210
1172,7359  MARONEY DR,ANTIOCH,TN,37013
1173,1701  WOODSONG DR,BRENTWOOD,TN,37027
1174,625  OLD HICKORY BLVD,OLD HICKORY,TN,37138
1175,0  PIN HOOK RD,ANTIOCH,TN,37013
1176,0  LIBERTY LN,MADISON,TN,37115
1177,1101  KNOBCREST CT,ANTIOCH,TN,37013
1178,617  OLD HICKORY BLVD,OLD HICKORY,TN,37138
1179,1351  TREE HOUSE DR,ANTIOCH,TN,37013
1180,21  WHITE BRIDGE PIKE  107,NASHVILLE,TN,37205
1181,1549  HAMILTON CROSS DR,ANTIOCH,TN,37013
1182,1106  HARMONY WAY,NASHVILLE,TN,37207
1183,3608  BROOKWAY DR,NASHVILLE,TN,37207
1184,1320  TREE HOUSE DR,ANTIOCH,TN,37013
1185,6113C2  LOUISIANA AVE,NASHVILLE,TN,37209
1186,1104  HARMONY WAY,NASHVILLE,TN,37207
1187,1107  HARMONY WAY,NASHVILLE,TN,37207
1188,1101  HARMONY WAY,NASHVILLE,TN,37207
1189,3614  BROOKWAY DR,NASHVILLE,TN,37207
1190,1100  HARMONY WAY,NASHVILLE,TN,37207
1191,1113  HARMONY WAY,NASHVILLE,TN,37207
1192,1111  HARMONY WAY,NASHVILLE,TN,37207
1193,732  ELLIE DR,MADISON,TN,37115
1194,1117  HARMONY WAY,NASHVILLE,TN,37207
1195,1103  HARMONY WAY,NASHVILLE,TN,37207
1196,1105  HARMONY WAY,NASHVILLE,TN,37207
1197,4161  MAGNOLIA FARMS DR,HERMITAGE,TN,37076
1198,713  ELLIE DR,MADISON,TN,37115
1199,1109  HARMONY WAY,NASHVILLE,TN,37207
1200,1119  HARMONY WAY,NASHVILLE,TN,37207
1201,0  CREATIVE WAY,MADISON,TN,37115
1202,1102  HARMONY WAY,NASHVILLE,TN,37207
1203,1115  HARMONY WAY,NASHVILLE,TN,37207
1204,1645  ALAYNA DR,NASHVILLE,TN,37221
1205,3612  BROOKWAY DR,NASHVILLE,TN,37207
1206,3622  BROOKWAY DR,NASHVILLE,TN,37207
1207,3610  BROOKWAY DR,NASHVILLE,TN,37207
1208,1241  HAVENBROOK DR,NASHVILLE,TN,37207
1209,3618  BROOKWAY DR,NASHVILLE,TN,37207
1210,3616  BROOKWAY DR,NASHVILLE,TN,37207
1211,3620  BROOKWAY DR,NASHVILLE,TN,37207
1212,21  WHITE BRIDGE PIKE,NASHVILLE,TN,37205
1213,2275  MURFREESBORO PIKE  101,ANTIOCH,TN,37013
1214,1245  HAVENBROOK DR,NASHVILLE,TN,37207
1215,3118  TREVOR ST,NASHVILLE,TN,37209
1216,4351  STONE HALL BLVD,HERMITAGE,TN,37076
1217,1605  LAMPWICK CT,NASHVILLE,TN,37221
1218,1105  KNOBCREST CT,ANTIOCH,TN,37013
1219,1036  NAVE CT,NASHVILLE,TN,37214
1220,1040  NAVE CT,NASHVILLE,TN,37214
1221,1108  KNOBCREST CT,ANTIOCH,TN,37013
1222,1243  HAVENBROOK DR,NASHVILLE,TN,37207
1223,6029  BLACKBERRY RIDGE LN,HERMITAGE,TN,37076
1224,1044  NAVE CT,NASHVILLE,TN,37214
1225,4100  MAGNOLIA FARMS DR,HERMITAGE,TN,37076
1226,1109  KNOBCREST CT,ANTIOCH,TN,37013
1227,1784  WOODSONG DR,BRENTWOOD,TN,37027
1228,1247  HAVENBROOK DR,NASHVILLE,TN,37207
1229,3108  TREVOR ST,NASHVILLE,TN,37209
1230,5505A2  TENNESSEE AVE,NASHVILLE,TN,37209
1231,3120  TREVOR ST,NASHVILLE,TN,37209
1232,4056  MAGNOLIA FARMS DR,HERMITAGE,TN,37076
1233,5505B2  TENNESSEE AVE,NASHVILLE,TN,37209
1234,2940  JENRY DR,NASHVILLE,TN,37214
1235,2404  BROCKMAN CT,NASHVILLE,TN,37211
1236,0  CENTENNIAL BLVD,NASHVILLE,TN,37209
1237,3116  TREVOR ST,NASHVILLE,TN,37209
1238,607  LINDEN ROSE ALY,NASHVILLE,TN,37209
1239,3122  TREVOR ST,NASHVILLE,TN,37209
1240,611  LINDEN ROSE ALY,NASHVILLE,TN,37209
1241,609  LINDEN ROSE ALY,NASHVILLE,TN,37209
1242,6113D2  LOUISIANA AVE,NASHVILLE,TN,37209
1243,3110  TREVOR ST,NASHVILLE,TN,37209
1244,3112  TREVOR ST,NASHVILLE,TN,37209
1245,4155  MAGNOLIA FARMS DR,HERMITAGE,TN,37076
1246,3156  CHARLES PARK DR,NASHVILLE,TN,37211
1247,120  BRENTWOOD COMMONS WAY,BRENTWOOD,TN,37027
1248,240  FOUNDERS LN,NASHVILLE,TN,37209
1249,0  WEDGEWOOD AVE,NASHVILLE,TN,37203
1250,7325  MARONEY DR,ANTIOCH,TN,37013
1251,220  FOUNDERS LN,NASHVILLE,TN,37209
1252,216  FOUNDERS LN,NASHVILLE,TN,37209
1253,238  FOUNDERS LN,NASHVILLE,TN,37209
1254,218  FOUNDERS LN,NASHVILLE,TN,37209
1255,224  FOUNDERS LN,NASHVILLE,TN,37209
1256,1612A2  DOUGLAS AVE,NASHVILLE,TN,37206
1257,222  FOUNDERS LN,NASHVILLE,TN,37209
1258,228  FOUNDERS LN,NASHVILLE,TN,37209
1259,226  FOUNDERS LN,NASHVILLE,TN,37209
1260,1612B2  DOUGLAS AVE,NASHVILLE,TN,37206
1261,236  FOUNDERS LN,NASHVILLE,TN,37209
1262,2227  SILVERTON DR,NASHVILLE,TN,37207
1263,7343  MARONEY DR,ANTIOCH,TN,37013
1264,1312  MARITIME PRT,ANTIOCH,TN,37013
1265,4051  SADDLECREEK WAY,ANTIOCH,TN,37013
1266,4045  SADDLECREEK WAY,ANTIOCH,TN,37013
1267,4047  SADDLECREEK WAY,ANTIOCH,TN,37013
1268,7347  MARONEY DR,ANTIOCH,TN,37013
1269,4049  SADDLECREEK WAY,ANTIOCH,TN,37013
1270,2996  JENRY DR,NASHVILLE,TN,37214
1271,7339  MARONEY DR,ANTIOCH,TN,37013
1272,1103A2 N 5TH ST,NASHVILLE,TN,37207
1273,450  GLASTONBURY RD  3,NASHVILLE,TN,37217
1274,450  GLASTONBURY RD  1,NASHVILLE,TN,37217
1275,410B  DOMINICAN DR,NASHVILLE,TN,37228
1276,450  GLASTONBURY RD  9,NASHVILLE,TN,37217
1277,4175  MAGNOLIA FARMS DR,HERMITAGE,TN,37076
1278,450  GLASTONBURY RD  10,NASHVILLE,TN,37217
1279,450  GLASTONBURY RD  16,NASHVILLE,TN,37217
1280,618  HECK LN,NOLENSVILLE,TN,37135
1281,450  GLASTONBURY RD  14,NASHVILLE,TN,37217
1282,4343  STONE HALL BLVD,HERMITAGE,TN,37076
1283,6040  BLACKBERRY RIDGE LN,HERMITAGE,TN,37076
1284,637  HENRY LN,NASHVILLE,TN,37211
1285,410  DOMINICAN DR,NASHVILLE,TN,37228
1286,221  MUIR AVE,NOLENSVILLE,TN,37135
1287,330  23RD AVE N 600,NASHVILLE,TN,37203
1288,410  DOMINICAN DR,NASHVILLE,TN,37228
1289,450  GLASTONBURY RD  8,NASHVILLE,TN,37217
1290,6038  BLACKBERRY RIDGE LN,HERMITAGE,TN,37076
1291,450  GLASTONBURY RD  13,NASHVILLE,TN,37217
1292,450  GLASTONBURY RD  2,NASHVILLE,TN,37217
1293,234  FOUNDERS LN,NASHVILLE,TN,37209
1294,450  GLASTONBURY RD  11,NASHVILLE,TN,37217
1295,605  HECK LN,NOLENSVILLE,TN,37135
1296,603  HECK LN,NOLENSVILLE,TN,37135
1297,450  GLASTONBURY RD  15,NASHVILLE,TN,37217
1298,135  BURKITT COMMONS AVE,NOLENSVILLE,TN,37135
1299,450  GLASTONBURY RD  6,NASHVILLE,TN,37217
1300,614  HECK LN,NOLENSVILLE,TN,37135
1301,5516  MULLIGAN CT,HERMITAGE,TN,37076
1302,265  FOUNDERS LN,NASHVILLE,TN,37209
1303,450  GLASTONBURY RD  17,NASHVILLE,TN,37217
1304,450  GLASTONBURY RD  12,NASHVILLE,TN,37217
1305,267  FOUNDERS LN,NASHVILLE,TN,37209
1306,223  MUIR AVE,NOLENSVILLE,TN,37135
1307,219  MUIR AVE,NOLENSVILLE,TN,37135
1308,217  MUIR AVE,NOLENSVILLE,TN,37135
1309,450  GLASTONBURY RD  5,NASHVILLE,TN,37217
1310,264  FOUNDERS LN,NASHVILLE,TN,37209
1311,612  HECK LN,NOLENSVILLE,TN,37135
1312,6204B2  NEW YORK AVE,NASHVILLE,TN,37209
1313,215  MUIR AVE,NOLENSVILLE,TN,37135
1314,232  FOUNDERS LN,NASHVILLE,TN,37209
1315,269  FOUNDERS LN,NASHVILLE,TN,37209
1316,230  FOUNDERS LN,NASHVILLE,TN,37209
1317,262  FOUNDERS LN,NASHVILLE,TN,37209
1318,607  HECK LN,NOLENSVILLE,TN,37135
1319,633  HENRY LN,NASHVILLE,TN,37211
1320,601  HECK LN,NOLENSVILLE,TN,37135
1321,616  HECK LN,NOLENSVILLE,TN,37135
1322,450  GLASTONBURY RD  7,NASHVILLE,TN,37217
1323,450  GLASTONBURY RD  4,NASHVILLE,TN,37217
1324,508  CERET ALY,NASHVILLE,TN,37211
1325,7115  SOUTHPOINT PKWY,BRENTWOOD,TN,37027
1326,120  BRENTWOOD COMMONS WAY  500,BRENTWOOD,TN,37027
1327,625  HENRY LN,NASHVILLE,TN,37211
1328,629  HENRY LN,NASHVILLE,TN,37211
1329,2001B  WESTCHESTER DR,NASHVILLE,TN,37207
1330,1400B  HERON POINTE DR,NASHVILLE,TN,37214
1331,1308  MARITIME PRT,ANTIOCH,TN,37013
1332,1557  HAMILTON CROSS DR,ANTIOCH,TN,37013
1333,3550  FOUR LEAF WAY,ANTIOCH,TN,37013
1334,1809  SPRUCEWOOD LN,NASHVILLE,TN,37211
1335,1545  HAMILTON CROSS DR,ANTIOCH,TN,37013
1336,1321  MARITIME PRT,ANTIOCH,TN,37013
1337,1561  HAMILTON CROSS DR,ANTIOCH,TN,37013
1338,1813  SPRUCEWOOD LN,NASHVILLE,TN,37211
1339,4331  STONE HALL BLVD,HERMITAGE,TN,37076
1340,2005  MORRISON RIDGE DR,NASHVILLE,TN,37221
1341,2009  MORRISON RIDGE DR,NASHVILLE,TN,37221
1342,300  HIDDEN SPRINGS CV,NASHVILLE,TN,37207
1343,2001  MORRISON RIDGE DR,NASHVILLE,TN,37221
1344,2010  MORRISON RIDGE DR,NASHVILLE,TN,37221
1345,2211  SILVERTON DR,NASHVILLE,TN,37207
1346,2006  MORRISON RIDGE DR,NASHVILLE,TN,37221
1347,2007  MORRISON RIDGE DR,NASHVILLE,TN,37221
1348,2209  SILVERTON DR,NASHVILLE,TN,37207
1349,6025  BLACKBERRY RIDGE LN,HERMITAGE,TN,37076
1350,4311  STONE HALL BLVD,HERMITAGE,TN,37076
1351,304  BODDINGTON LN,ANTIOCH,TN,37013
1352,4307  STONE HALL BLVD,HERMITAGE,TN,37076
1353,2219  SILVERTON DR,NASHVILLE,TN,37207
1354,820  SKYLINE RIDGE DR,MADISON,TN,37115
1355,7708  TRANQUIL TRL,BRENTWOOD,TN,37027
1356,2217  SILVERTON DR,NASHVILLE,TN,37207
1357,2012  MORRISON RIDGE DR,NASHVILLE,TN,37221
1358,2003  MORRISON RIDGE DR,NASHVILLE,TN,37221
1359,2213  SILVERTON DR,NASHVILLE,TN,37207
1360,752B2  LYNWOOD AVE,NASHVILLE,TN,37203
1361,316  HIDDEN SPRINGS CV,NASHVILLE,TN,37207
1362,2008  MORRISON RIDGE DR,NASHVILLE,TN,37221
1363,752A2  LYNWOOD AVE,NASHVILLE,TN,37203
1364,2011  MORRISON RIDGE DR,NASHVILLE,TN,37221
1365,7067  PAISLEY WOOD DR,ANTIOCH,TN,37013
1366,7064  PAISLEY WOOD DR,ANTIOCH,TN,37013
1367,261  FOUNDERS LN,NASHVILLE,TN,37209
1368,2048  VILLAGE PARK CIR,OLD HICKORY,TN,37138
1369,263  FOUNDERS LN,NASHVILLE,TN,37209
1370,258  FOUNDERS LN,NASHVILLE,TN,37209
1371,9736  KATZ LN,BRENTWOOD,TN,37027
1372,1223  SUMMER SHADE DR,ANTIOCH,TN,37013
1373,260  FOUNDERS LN,NASHVILLE,TN,37209
1374,255  FOUNDERS LN,NASHVILLE,TN,37209
1375,253  FOUNDERS LN,NASHVILLE,TN,37209
1376,259  FOUNDERS LN,NASHVILLE,TN,37209
1377,256  FOUNDERS LN,NASHVILLE,TN,37209
1378,257  FOUNDERS LN,NASHVILLE,TN,37209
1379,7068  PAISLEY WOOD DR,ANTIOCH,TN,37013
1380,410  DOMINICAN DR,NASHVILLE,TN,37228
1381,1329  HAVENBROOK DR,NASHVILLE,TN,37207
1382,7076  PAISLEY WOOD DR,ANTIOCH,TN,37013
1383,1200  SHIRE DR,ANTIOCH,TN,37013
1384,1257  SHIRE DR,ANTIOCH,TN,37013
1385,1200B  SHIRE DR,ANTIOCH,TN,37013
1386,1255  SHIRE DR,ANTIOCH,TN,37013
1387,1259  SHIRE DR,ANTIOCH,TN,37013
1388,4319  STONE HALL BLVD,HERMITAGE,TN,37076
1389,1269  SHIRE DR,ANTIOCH,TN,37013
1390,1267  SHIRE DR,ANTIOCH,TN,37013
1391,1261  SHIRE DR,ANTIOCH,TN,37013
1392,9737  KATZ LN,BRENTWOOD,TN,37027
1393,1265  SHIRE DR,ANTIOCH,TN,37013
1394,1271  SHIRE DR,ANTIOCH,TN,37013
1395,1253  SHIRE DR,ANTIOCH,TN,37013
1396,5008B  ARROGATE DR,ANTIOCH,TN,37013
1397,868  BLOOMDALE TRCE,HERMITAGE,TN,37076
1398,732B  INSPIRATION BLVD,MADISON,TN,37115
1399,1263  SHIRE DR,ANTIOCH,TN,37013
1400,1202  SHIRE DR,ANTIOCH,TN,37013
1401,4017  SADDLECREEK WAY,ANTIOCH,TN,37013
1402,4013  SADDLECREEK WAY,ANTIOCH,TN,37013
1403,7072  PAISLEY WOOD DR,ANTIOCH,TN,37013
1404,7071  PAISLEY WOOD DR,ANTIOCH,TN,37013
1405,4011  SADDLECREEK WAY,ANTIOCH,TN,37013
1406,4015  SADDLECREEK WAY,ANTIOCH,TN,37013
1407,544  CERET ALY,NASHVILLE,TN,37211
1408,9744  KATZ LN,BRENTWOOD,TN,37027
1409,1308  TREE HOUSE DR,ANTIOCH,TN,37013
1410,1204  SHIRE DR,ANTIOCH,TN,37013
1411,5006  HARBOR RESERVE CV,HERMITAGE,TN,37076
1412,1313  JEWEL ST,NASHVILLE,TN,37207
1413,2404  PRAIRIE HILL DR,ANTIOCH,TN,37013
1414,1513  HAMILTON CROSS DR,ANTIOCH,TN,37013
1415,1304  MARITIME PRT,ANTIOCH,TN,37013
1416,1553  HAMILTON CROSS DR,ANTIOCH,TN,37013
1417,3546  FOUR LEAF WAY,ANTIOCH,TN,37013
1418,2529  PRAIRIE HILL DR,ANTIOCH,TN,37013
1419,3273  LONGSTALK RD,ANTIOCH,TN,37013
1420,2501  PRAIRIE HILL DR,ANTIOCH,TN,37013
1421,5004  HARBOR RESERVE CV,HERMITAGE,TN,37076
1422,1517  HAMILTON CROSS DR,ANTIOCH,TN,37013
1423,7351  MARONEY DR,ANTIOCH,TN,37013
1424,3269  LONGSTALK RD,ANTIOCH,TN,37013
1425,3396  WOODLAND STAR WAY,NASHVILLE,TN,37207
1426,3632  BROOKWAY DR,NASHVILLE,TN,37207
1427,3628  BROOKWAY DR,NASHVILLE,TN,37207
1428,3635  BROOKWAY DR,NASHVILLE,TN,37207
1429,244  FOUNDERS LN,NASHVILLE,TN,37209
1430,242  FOUNDERS LN,NASHVILLE,TN,37209
1431,151B2  RAINS AVE,NASHVILLE,TN,37203
1432,250  FOUNDERS LN,NASHVILLE,TN,37209
1433,252  FOUNDERS LN,NASHVILLE,TN,37209
1434,1501  STRONG ALY,NOLENSVILLE,TN,37135
1435,151A2  RAINS AVE,NASHVILLE,TN,37203
1436,608  HENRY LN,NASHVILLE,TN,37211
1437,612  HENRY LN,NASHVILLE,TN,37211
1438,248  FOUNDERS LN,NASHVILLE,TN,37209
1439,1000  GRANBERY PARK DR,BRENTWOOD,TN,37027
1440,246  FOUNDERS LN,NASHVILLE,TN,37209
1441,2416  PRAIRIE HILL DR,ANTIOCH,TN,37013
1442,2372  FAIRCHILD CIR,NOLENSVILLE,TN,37135
1443,3634  BROOKWAY DR,NASHVILLE,TN,37207
1444,1100  DR MARTIN L KING JR BLVD,NASHVILLE,TN,37203
1445,3633  BROOKWAY DR,NASHVILLE,TN,37207
1446,2372B  FAIRCHILD CIR,NOLENSVILLE,TN,37135
1447,1984  CAROTHERS RD,NOLENSVILLE,TN,37135
1448,9732  KATZ LN,BRENTWOOD,TN,37027
1449,2505  EMMITT AVE,NASHVILLE,TN,37206
1450,3624  BROOKWAY DR,NASHVILLE,TN,37207
1451,3637  BROOKWAY DR,NASHVILLE,TN,37207
1452,3627  BROOKWAY DR,NASHVILLE,TN,37207
1453,3629  BROOKWAY DR,NASHVILLE,TN,37207
1454,3630  BROOKWAY DR,NASHVILLE,TN,37207
1455,3626  BROOKWAY DR,NASHVILLE,TN,37207
1456,1581  HAMILTON CROSS DR,ANTIOCH,TN,37013
1457,2325B  FAIRCHILD CIR,NOLENSVILLE,TN,37135
1458,1573  HAMILTON CROSS DR,ANTIOCH,TN,37013
1459,1521  HAMILTON CROSS DR,ANTIOCH,TN,37013
1460,3631  BROOKWAY DR,NASHVILLE,TN,37207
1461,1108  HARMONY WAY,NASHVILLE,TN,37207
1462,421  CORNER ALY,NOLENSVILLE,TN,37135
1463,1123  HARMONY WAY,NASHVILLE,TN,37207
1464,409  ANCHOR RESERVE CV,HERMITAGE,TN,37076
1465,377  MOIRA CIR,NOLENSVILLE,TN,37135
1466,1127  HARMONY WAY,NASHVILLE,TN,37207
1467,409  CORNER ALY,NOLENSVILLE,TN,37135
1468,1316  TREE HOUSE DR,ANTIOCH,TN,37013
1469,1125  HARMONY WAY,NASHVILLE,TN,37207
1470,1621  LAMPWICK CT,NASHVILLE,TN,37221
1471,1112  HARMONY WAY,NASHVILLE,TN,37207
1472,1665  ALAYNA DR,NASHVILLE,TN,37221
1473,1110  HARMONY WAY,NASHVILLE,TN,37207
1474,1114  HARMONY WAY,NASHVILLE,TN,37207
1475,515  WRIGHT BRANCH COVE,HERMITAGE,TN,37076
1476,1625  LAMPWICK CT,NASHVILLE,TN,37221
1477,1636  ALAYNA DR,NASHVILLE,TN,37221
1478,1129  HARMONY WAY,NASHVILLE,TN,37207
1479,1121  HARMONY WAY,NASHVILLE,TN,37207
1480,1312  TREE HOUSE DR,ANTIOCH,TN,37013
1481,7000  HARRIS HILLS LN,NASHVILLE,TN,37211
1482,7333  MARONEY DR,ANTIOCH,TN,37013
1483,435  BECANNI LN,NASHVILLE,TN,37209
1484,6006B2  LOUISIANA AVE,NASHVILLE,TN,37209
1485,2972  JENRY DR,NASHVILLE,TN,37214
1486,3172  CHARLES PARK DR,NASHVILLE,TN,37211
1487,2984  JENRY DR,NASHVILLE,TN,37214
1488,513  WRIGHT BRANCH COVE,HERMITAGE,TN,37076
1489,3142  CHARLES PARK DR,NASHVILLE,TN,37211
1490,2976  JENRY DR,NASHVILLE,TN,37214
1491,7329  MARONEY DR,ANTIOCH,TN,37013
1492,3148  CHARLES PARK DR,NASHVILLE,TN,37211
1493,3188  CHARLES PARK DR,NASHVILLE,TN,37211
1494,1227  SUMMER SHADE DR,ANTIOCH,TN,37013
1495,2980  JENRY DR,NASHVILLE,TN,37214
1496,436  BECANNI LN,NASHVILLE,TN,37209
1497,7000  HARRIS HILLS LN,NASHVILLE,TN,37211
1498,449  BECANNI LN,NASHVILLE,TN,37209
1499,445  BECANNI LN,NASHVILLE,TN,37209
1500,447  BECANNI LN,NASHVILLE,TN,37209
1501,437  BECANNI LN,NASHVILLE,TN,37209
1502,444  BECANNI LN,NASHVILLE,TN,37209
1503,440  BECANNI LN,NASHVILLE,TN,37209
1504,7000  HARRIS HILLS LN,NASHVILLE,TN,37211
1505,432  BECANNI LN,NASHVILLE,TN,37209
1506,3621  BROOKWAY DR,NASHVILLE,TN,37207
1507,508  PLEASANT ST,NOLENSVILLE,TN,37135
1508,7000  HARRIS HILLS LN,NASHVILLE,TN,37211
1509,6098  HARRIS HILLS LN,NASHVILLE,TN,37211
1510,7000  HARRIS HILLS LN,NASHVILLE,TN,37211
1511,7000  HARRIS HILLS LN,NASHVILLE,TN,37211
1512,3623  BROOKWAY DR,NASHVILLE,TN,37207
1513,7000  HARRIS HILLS LN,NASHVILLE,TN,37211
1514,443  BECANNI LN,NASHVILLE,TN,37209
1515,442  BECANNI LN,NASHVILLE,TN,37209
1516,434  BECANNI LN,NASHVILLE,TN,37209
1517,7000  HARRIS HILLS LN,NASHVILLE,TN,37211
1518,441  BECANNI LN,NASHVILLE,TN,37209
1519,7000  HARRIS HILLS LN,NASHVILLE,TN,37211
1520,438  BECANNI LN,NASHVILLE,TN,37209
1521,446  BECANNI LN,NASHVILLE,TN,37209
1522,3619  BROOKWAY DR,NASHVILLE,TN,37207
1523,7000  HARRIS HILLS LN,NASHVILLE,TN,37211
1524,439  BECANNI LN,NASHVILLE,TN,37209
1525,1313  GREENSTONE LN,NASHVILLE,TN,37221
1526,7000  HARRIS HILLS LN,NASHVILLE,TN,37211
1527,3625  BROOKWAY DR,NASHVILLE,TN,37207
1528,4064  MAGNOLIA FARMS DR,HERMITAGE,TN,37076
1529,7000  HARRIS HILLS LN,NASHVILLE,TN,37211
1530,417  CORNER ALY,NOLENSVILLE,TN,37135
1531,413  CORNER ALY,NOLENSVILLE,TN,37135
1532,405  CORNER ALY,NOLENSVILLE,TN,37135
1533,1226  SHIRE DR,ANTIOCH,TN,37013
1534,104  LAVENDER RD,HERMITAGE,TN,37076
1535,5605B2  CALIFORNIA AVE,NASHVILLE,TN,37209
1536,4069  MAGNOLIA FARMS DR,HERMITAGE,TN,37076
1537,5605A2  CALIFORNIA AVE,NASHVILLE,TN,37209
1538,303  MOIRA CIR,NOLENSVILLE,TN,37135
1539,1305  MARITIME PRT,ANTIOCH,TN,37013
1540,1325  MARITIME PRT,ANTIOCH,TN,37013
1541,1230  SHIRE DR,ANTIOCH,TN,37013
1542,5045  SUNFLOWER LN,HERMITAGE,TN,37076
1543,305  MOIRA CIR,NOLENSVILLE,TN,37135
1544,512  PATH ALY,NOLENSVILLE,TN,37135
1545,514  PATH ALY,NOLENSVILLE,TN,37135
1546,516  PATH ALY,NOLENSVILLE,TN,37135
1547,309  MOIRA CIR,NOLENSVILLE,TN,37135
1548,520  PATH ALY,NOLENSVILLE,TN,37135
1549,518  PATH ALY,NOLENSVILLE,TN,37135
1550,8056  BROCKMAN LN,NASHVILLE,TN,37211
1551,301  MOIRA CIR,NOLENSVILLE,TN,37135
1552,307  MOIRA CIR,NOLENSVILLE,TN,37135
1553,522  PATH ALY,NOLENSVILLE,TN,37135
1554,401  KIRKPATRICK AVE,NASHVILLE,TN,37206
1555,88B  WHITE BRIDGE PIKE,NASHVILLE,TN,37205
1556,400  KIRKPATRICK AVE,NASHVILLE,TN,37206
1557,2131  BAYPORT AVE,OLD HICKORY,TN,37138
1558,1541  HAMILTON CROSS DR,ANTIOCH,TN,37013
1559,415A  KIRKPATRICK AVE,NASHVILLE,TN,37206
1560,2123  BAYPORT AVE,OLD HICKORY,TN,37138
1561,1617  LAMPWICK CT,NASHVILLE,TN,37221
1562,2121  BAYPORT AVE,OLD HICKORY,TN,37138
1563,2127  BAYPORT AVE,OLD HICKORY,TN,37138
1564,1505  HAMILTON CROSS DR,ANTIOCH,TN,37013
1565,3419  SHELBY BOTTOMS BND,NASHVILLE,TN,37206
1566,2137  BAYPORT AVE,OLD HICKORY,TN,37138
1567,2139  BAYPORT AVE,OLD HICKORY,TN,37138
1568,1616  LAMPWICK CT,NASHVILLE,TN,37221
1569,2133  BAYPORT AVE,OLD HICKORY,TN,37138
1570,2125  BAYPORT AVE,OLD HICKORY,TN,37138
1571,2135  BAYPORT AVE,OLD HICKORY,TN,37138
1572,1620  LAMPWICK CT,NASHVILLE,TN,37221
1573,2129  BAYPORT AVE,OLD HICKORY,TN,37138
1574,2141  BAYPORT AVE,OLD HICKORY,TN,37138
1575,226  ANNE DALLAS DUDLEY BLVD,NASHVILLE,TN,37219
1576,4356  STONE HALL BLVD,HERMITAGE,TN,37076
1577,1228  SHIRE DR,ANTIOCH,TN,37013
1578,1232  SHIRE DR,ANTIOCH,TN,37013
1579,1313  MARITIME PRT,ANTIOCH,TN,37013
1580,7355  MARONEY DR,ANTIOCH,TN,37013
1581,600B  QUIET CIR,NOLENSVILLE,TN,37135
1582,2465  PRAIRIE HILL DR,ANTIOCH,TN,37013
1583,1317  MARITIME PRT,ANTIOCH,TN,37013
1584,1332  HAVENBROOK DR,NASHVILLE,TN,37207
1585,2461  PRAIRIE HILL DR,ANTIOCH,TN,37013
1586,3301  LONGSTALK RD,ANTIOCH,TN,37013
1587,621  HENRY LN,NASHVILLE,TN,37211
1588,3562  FOUR LEAF WAY,ANTIOCH,TN,37013
1589,600  QUIET CIR,NOLENSVILLE,TN,37135
1590,2457  PRAIRIE HILL DR,ANTIOCH,TN,37013
1591,2475  PRAIRIE HILL DR,ANTIOCH,TN,37013
1592,214  MUIR AVE  101,NOLENSVILLE,TN,37135
1593,1333  MARITIME PRT,ANTIOCH,TN,37013
1594,800  BRADBURN VILLAGE WAY,ANTIOCH,TN,37013
1595,802  BRADBURN VILLAGE WAY,ANTIOCH,TN,37013
1596,1012  CLOVER GLEN WAY,ANTIOCH,TN,37013
1597,5008A2  MICHIGAN AVE,NASHVILLE,TN,37209
1598,6012A2  CALIFORNIA AVE,NASHVILLE,TN,37209
1599,804  BRADBURN VILLAGE WAY,ANTIOCH,TN,37013
1600,600B  WALLACE CT,NASHVILLE,TN,37211
1601,500  HILLSIDE CT,NASHVILLE,TN,37203
1602,6012B2  CALIFORNIA AVE,NASHVILLE,TN,37209
1603,798  BRADBURN VILLAGE WAY,ANTIOCH,TN,37013
1604,500  HILLSIDE CT,NASHVILLE,TN,37203
1605,500B  HILLSIDE CT,NASHVILLE,TN,37203
1606,796  BRADBURN VILLAGE WAY,ANTIOCH,TN,37013
1607,5008B2  MICHIGAN AVE,NASHVILLE,TN,37209
1608,3285  LONGSTALK RD,ANTIOCH,TN,37013
1609,2445  PRAIRIE HILL DR,ANTIOCH,TN,37013
1610,4056  LIBERTON WAY,NOLENSVILLE,TN,37135
1611,2449  PRAIRIE HILL DR,ANTIOCH,TN,37013
1612,1376  GREENSTONE LN,NASHVILLE,TN,37221
1613,1262  SHIRE DR,ANTIOCH,TN,37013
1614,1260  SHIRE DR,ANTIOCH,TN,37013
1615,309B  MOIRA CIR,NOLENSVILLE,TN,37135
1616,100  LAZY ALY,NOLENSVILLE,TN,37135
1617,303B  MOIRA CIR,NOLENSVILLE,TN,37135
1618,307B  MOIRA CIR,NOLENSVILLE,TN,37135
1619,305B  MOIRA CIR,NOLENSVILLE,TN,37135
1620,1270  SHIRE DR,ANTIOCH,TN,37013
1621,1264  SHIRE DR,ANTIOCH,TN,37013
1622,1268  SHIRE DR,ANTIOCH,TN,37013
1623,7063  PAISLEY WOOD DR,ANTIOCH,TN,37013
1624,1266  SHIRE DR,ANTIOCH,TN,37013
1625,1014  GRANBERY PARK DR,BRENTWOOD,TN,37027
1626,1641  ALAYNA DR,NASHVILLE,TN,37221
1627,503  WRIGHT BRANCH COVE,HERMITAGE,TN,37076
1628,501  WRIGHT BRANCH COVE,HERMITAGE,TN,37076
1629,4061B  CANE RIDGE PKWY,ANTIOCH,TN,37013
1630,3305  LONGSTALK RD,ANTIOCH,TN,37013
1631,3604  FOUR LEAF WAY,ANTIOCH,TN,37013
1632,527B  VERNON CIR,NASHVILLE,TN,37209
1633,149B2  RAINS AVE,NASHVILLE,TN,37203
1634,149A2  RAINS AVE,NASHVILLE,TN,37203
1635,500B  VERNON CIR,NASHVILLE,TN,37209
1636,4052  MAGNOLIA FARMS DR,HERMITAGE,TN,37076
1637,993  ALICE ST,NASHVILLE,TN,37207
1638,991  ALICE ST,NASHVILLE,TN,37207
1639,507B  VERNON CIR,NASHVILLE,TN,37209
1640,4108  MAGNOLIA FARMS DR,HERMITAGE,TN,37076
1641,3600  FOUR LEAF WAY,ANTIOCH,TN,37013
1642,3309  LONGSTALK RD,ANTIOCH,TN,37013
1643,342  BODDINGTON LN,ANTIOCH,TN,37013
1644,338  BODDINGTON LN,ANTIOCH,TN,37013
1645,1207A2  SWEETBRIAR AVE,NASHVILLE,TN,37212
1646,1980  CAROTHERS RD,NOLENSVILLE,TN,37135
1647,325  BODDINGTON LN,ANTIOCH,TN,37013
1648,1660  ALAYNA DR,NASHVILLE,TN,37221
1649,6800B2  HIGHWAY 70  S,NASHVILLE,TN,37221
1650,1612  ALAYNA DR,NASHVILLE,TN,37221
1651,1368  GREENSTONE LN,NASHVILLE,TN,37221
1652,1604  LAMPWICK CT,NASHVILLE,TN,37221
1653,450B  GLASTONBURY RD,NASHVILLE,TN,37217
1654,99  WHITE BRIDGE PIKE,NASHVILLE,TN,37205
1655,804  TWIN FALLS DR,JOELTON,TN,37080
1656,2004  NOTCHLEAF RD,ANTIOCH,TN,37013
1657,900  MAIN ST  FAT BOTTOM,NASHVILLE,TN,37206
1658,1104  KNOBCREST CT,ANTIOCH,TN,37013
1659,912  FANCHER LN,JOELTON,TN,37080
1660,3419B2  HOPKINS ST,NASHVILLE,TN,37215
1661,312  MOIRA CIR,NOLENSVILLE,TN,37135
1662,1608  LAMPWICK CT,NASHVILLE,TN,37221
1663,1624  LAMPWICK CT,NASHVILLE,TN,37221
1664,2518  GALLATIN AVE,NASHVILLE,TN,37206
1665,1624  ALAYNA DR,NASHVILLE,TN,37221
1666,1565  HAMILTON CROSS DR,ANTIOCH,TN,37013
1667,1569  HAMILTON CROSS DR,ANTIOCH,TN,37013
1668,5048  SUNFLOWER LN,HERMITAGE,TN,37076
1669,2322  COUNTESS ALY,NASHVILLE,TN,37207
1670,1024  DR MARTIN L KING JR BLVD,NASHVILLE,TN,37203
1671,2332  COUNTESS ALY,NASHVILLE,TN,37207
1672,2330  COUNTESS ALY,NASHVILLE,TN,37207
1673,2318  COUNTESS ALY,NASHVILLE,TN,37207
1674,2328  COUNTESS ALY,NASHVILLE,TN,37207
1675,2225  SILVERTON DR,NASHVILLE,TN,37207
1676,2324  COUNTESS ALY,NASHVILLE,TN,37207
1677,2320  COUNTESS ALY,NASHVILLE,TN,37207
1678,6060  BLACKBERRY RIDGE LN,HERMITAGE,TN,37076
1679,7117  SOUTHPOINT PKWY,BRENTWOOD,TN,37027
1680,345  MOIRA CIR,NOLENSVILLE,TN,37135
1681,2129  PORTWAY ALY,NASHVILLE,TN,37207
1682,6054  BLACKBERRY RIDGE LN,HERMITAGE,TN,37076
1683,4068  MAGNOLIA FARMS DR,HERMITAGE,TN,37076
1684,6058  BLACKBERRY RIDGE LN,HERMITAGE,TN,37076
1685,7443  MARONEY DR,ANTIOCH,TN,37013
1686,6050  BLACKBERRY RIDGE LN,HERMITAGE,TN,37076
1687,6052  BLACKBERRY RIDGE LN,HERMITAGE,TN,37076
1688,601  QUIET CIR,NOLENSVILLE,TN,37135
1689,0  EWING DR,NASHVILLE,TN,37207
1690,510  HILLSIDE CT,NASHVILLE,TN,37203
1691,1609  LAMPWICK CT,NASHVILLE,TN,37221
1692,1739  WOODSONG DR,BRENTWOOD,TN,37027
1693,2343  FAIRCHILD CIR,NOLENSVILLE,TN,37135
1694,923  ASHLAND PLACE DR,NASHVILLE,TN,37218
1695,925  ASHLAND PLACE DR,NASHVILLE,TN,37218
1696,511  LITTLE CHANNING WAY,NASHVILLE,TN,37212
1697,929  ASHLAND PLACE DR,NASHVILLE,TN,37218
1698,919  ASHLAND PLACE DR,NASHVILLE,TN,37218
1699,1124  LADY NASHVILLE DR,HERMITAGE,TN,37076
1700,535  LITTLE CHANNING WAY,NASHVILLE,TN,37212
1701,927  ASHLAND PLACE DR,NASHVILLE,TN,37218
1702,1363  GREENSTONE LN,NASHVILLE,TN,37221
1703,1681  ALAYNA DR,NASHVILLE,TN,37221
1704,109  LIGHTWOOD DR,ANTIOCH,TN,37013
1705,917  ASHLAND PLACE DR,NASHVILLE,TN,37218
1706,5510  CENTRAL GROVE SQ,ANTIOCH,TN,37013
1707,503  LITTLE CHANNING WAY,NASHVILLE,TN,37212
1708,921  ASHLAND PLACE DR,NASHVILLE,TN,37218
1709,915  ASHLAND PLACE DR,NASHVILLE,TN,37218
1710,507  LITTLE CHANNING WAY,NASHVILLE,TN,37212
1711,3195  CHARLES PARK DR,NASHVILLE,TN,37211
1712,312  BODDINGTON LN,ANTIOCH,TN,37013
1713,5325  TUPELO ST,ANTIOCH,TN,37013
1714,334  BODDINGTON LN,ANTIOCH,TN,37013
1715,308  BODDINGTON LN,ANTIOCH,TN,37013
1716,2355  FAIRCHILD CIR,NOLENSVILLE,TN,37135
1717,3139  CHARLES PARK DR,NASHVILLE,TN,37211
1718,88  WHITE BRIDGE PIKE,NASHVILLE,TN,37205
1719,3408  MUSTANG DR,NASHVILLE,TN,37211
1720,4088  MAGNOLIA FARMS DR,HERMITAGE,TN,37076
1721,1308  TREE HOUSE DR,ANTIOCH,TN,37013
1722,3203  CHARLES PARK DR,NASHVILLE,TN,37211
1723,3509  FARRIER DR,NASHVILLE,TN,37211
1724,1135  HARMONY WAY,NASHVILLE,TN,37207
1725,1118  HARMONY WAY,NASHVILLE,TN,37207
1726,1137  HARMONY WAY,NASHVILLE,TN,37207
1727,1140  HARMONY WAY,NASHVILLE,TN,37207
1728,1145  HARMONY WAY,NASHVILLE,TN,37207
1729,2441  PRAIRIE HILL DR,ANTIOCH,TN,37013
1730,1134  HARMONY WAY,NASHVILLE,TN,37207
1731,1144  HARMONY WAY,NASHVILLE,TN,37207
1732,3558  FOUR LEAF WAY,ANTIOCH,TN,37013
1733,4065  CANE RIDGE PKWY  101-109,ANTIOCH,TN,37013
1734,1142  HARMONY WAY,NASHVILLE,TN,37207
1735,4065C  CANE RIDGE PKWY,ANTIOCH,TN,37013
1736,1153  HARMONY WAY,NASHVILLE,TN,37207
1737,3608  FOUR LEAF WAY,ANTIOCH,TN,37013
1738,2476  PRAIRIE HILL DR,ANTIOCH,TN,37013
1739,4055D  CANE RIDGE PKWY,ANTIOCH,TN,37013
1740,4055  CANE RIDGE PKWY,ANTIOCH,TN,37013
1741,1128  HARMONY WAY,NASHVILLE,TN,37207
1742,2487  PRAIRIE HILL DR,ANTIOCH,TN,37013
1743,1120  HARMONY WAY,NASHVILLE,TN,37207
1744,1150  HARMONY WAY,NASHVILLE,TN,37207
1745,1152  HARMONY WAY,NASHVILLE,TN,37207
1746,3554  FOUR LEAF WAY,ANTIOCH,TN,37013
1747,4065  CANE RIDGE PKWY,ANTIOCH,TN,37013
1748,1147  HARMONY WAY,NASHVILLE,TN,37207
1749,1138  HARMONY WAY,NASHVILLE,TN,37207
1750,4065  CANE RIDGE PKWY  123-132,ANTIOCH,TN,37013
1751,1130  HARMONY WAY,NASHVILLE,TN,37207
1752,1122  HARMONY WAY,NASHVILLE,TN,37207
1753,1131  HARMONY WAY,NASHVILLE,TN,37207
1754,2471  PRAIRIE HILL DR,ANTIOCH,TN,37013
1755,2483  PRAIRIE HILL DR,ANTIOCH,TN,37013
1756,3400  MUSTANG DR,NASHVILLE,TN,37211
1757,1148  HARMONY WAY,NASHVILLE,TN,37207
1758,1577  HAMILTON CROSS DR,ANTIOCH,TN,37013
1759,2453  PRAIRIE HILL DR,ANTIOCH,TN,37013
1760,4065  CANE RIDGE PKWY  133-141,ANTIOCH,TN,37013
1761,1146  HARMONY WAY,NASHVILLE,TN,37207
1762,1126  HARMONY WAY,NASHVILLE,TN,37207
1763,1116  HARMONY WAY,NASHVILLE,TN,37207
1764,3616  FOUR LEAF WAY,ANTIOCH,TN,37013
1765,3277  LONGSTALK RD,ANTIOCH,TN,37013
1766,4065  CANE RIDGE PKWY  111-120,ANTIOCH,TN,37013
1767,1149  HARMONY WAY,NASHVILLE,TN,37207
1768,1133  HARMONY WAY,NASHVILLE,TN,37207
1769,3281  LONGSTALK RD,ANTIOCH,TN,37013
1770,1132  HARMONY WAY,NASHVILLE,TN,37207
1771,1151  HARMONY WAY,NASHVILLE,TN,37207
1772,2479  PRAIRIE HILL DR,ANTIOCH,TN,37013
1773,4061  CANE RIDGE PKWY,ANTIOCH,TN,37013
1774,6003  BELL RD,HERMITAGE,TN,37076
1775,4100  WILLIAM TURNER PKWY,ANTIOCH,TN,37013
1776,1400B  HERON POINTE DR,NASHVILLE,TN,37214
1777,7051B  WHITES CREEK PIKE,WHITES CREEK,TN,37189
1778,3100B  HOSPITAL LN,NASHVILLE,TN,37218
1779,419  ANCHOR RESERVE CV,HERMITAGE,TN,37076
1780,417  ANCHOR RESERVE CV,HERMITAGE,TN,37076
1781,3471  ST LAWRENCE DR,JOELTON,TN,37080
1782,507  WRIGHT BRANCH CV,HERMITAGE,TN,37076
1783,505  WRIGHT BRANCH CV,HERMITAGE,TN,37076
1784,529  SARVER AVE,MADISON,TN,37115
1785,4906B2  MICHIGAN AVE,NASHVILLE,TN,37209
1786,4906A2  MICHIGAN AVE,NASHVILLE,TN,37209
1787,3640  FOUR LEAF WAY,ANTIOCH,TN,37013
1788,533  SARVER AVE,MADISON,TN,37115
1789,1613  LAMPWICK CT,NASHVILLE,TN,37221
1790,141  LENHAM DR,BRENTWOOD,TN,37027
1791,1664  ALAYNA DR,NASHVILLE,TN,37221
1792,137  LENHAM DR,BRENTWOOD,TN,37027
1793,400  HERRON DR  310,NASHVILLE,TN,37210
1794,117  LENHAM DR,BRENTWOOD,TN,37027
1795,129  LENHAM DR,BRENTWOOD,TN,37027
1796,5000B  RIVERBANK DR,HERMITAGE,TN,37076
1797,133  LENHAM DR,BRENTWOOD,TN,37027
1798,1677  ALAYNA DR,NASHVILLE,TN,37221
1799,3648  FOUR LEAF WAY,ANTIOCH,TN,37013
1800,3644  FOUR LEAF WAY,ANTIOCH,TN,37013
1801,7059  PAISLEY WOOD DR,ANTIOCH,TN,37013
1802,7051  PAISLEY WOOD DR,ANTIOCH,TN,37013
1803,7048  PAISLEY WOOD DR,ANTIOCH,TN,37013
1804,206B2  LUTIE ST,NASHVILLE,TN,37210
1805,2304  PATRICK AVE,OLD HICKORY,TN,37138
1806,2306  PATRICK AVE,OLD HICKORY,TN,37138
1807,2302  PATRICK AVE,OLD HICKORY,TN,37138
1808,2308  PATRICK AVE,OLD HICKORY,TN,37138
1809,7000  HARRIS HILLS LN  1B,NASHVILLE,TN,37211
1810,2310  PATRICK AVE,OLD HICKORY,TN,37138
1811,504  CERET ALY,NASHVILLE,TN,37211
1812,640  HENRY LN,NASHVILLE,TN,37211
1813,7056  PAISLEY WOOD DR,ANTIOCH,TN,37013
1814,4080  MAGNOLIA FARMS DR,HERMITAGE,TN,37076
1815,3147  CHARLES PARK DR,NASHVILLE,TN,37211
1816,1418A2  SHARPE AVE,NASHVILLE,TN,37206
1817,2314  COUNTESS ALY,NASHVILLE,TN,37207
1818,2304  COUNTESS ALY,NASHVILLE,TN,37207
1819,2308  COUNTESS ALY,NASHVILLE,TN,37207
1820,13  THE ARCADE,NASHVILLE,TN,37219
1821,1207B2  STAINBACK AVE,NASHVILLE,TN,37207
1822,1207A2  STAINBACK AVE,NASHVILLE,TN,37207
1823,2300  COUNTESS ALY,NASHVILLE,TN,37207
1824,855  BLOOMDALE TRCE,HERMITAGE,TN,37076
1825,330  PENNINGTON CENTRE BLVD,NASHVILLE,TN,37214
1826,2316  COUNTESS ALY,NASHVILLE,TN,37207
1827,2302  COUNTESS ALY,NASHVILLE,TN,37207
1828,2312  COUNTESS ALY,NASHVILLE,TN,37207
1829,2310  COUNTESS ALY,NASHVILLE,TN,37207
1830,2306  COUNTESS ALY,NASHVILLE,TN,37207
1831,527  LITTLE CHANNING WAY,NASHVILLE,TN,37212
1832,529  LITTLE CHANNING WAY,NASHVILLE,TN,37212
1833,541  LITTLE CHANNING WAY,NASHVILLE,TN,37212
1834,547  LITTLE CHANNING WAY,NASHVILLE,TN,37212
1835,537  LITTLE CHANNING WAY,NASHVILLE,TN,37212
1836,545  LITTLE CHANNING WAY,NASHVILLE,TN,37212
1837,509  LITTLE CHANNING WAY,NASHVILLE,TN,37212
1838,513  LITTLE CHANNING WAY,NASHVILLE,TN,37212
1839,533  LITTLE CHANNING WAY,NASHVILLE,TN,37212
1840,517  BATTERY DR,NASHVILLE,TN,37220
1841,600  KOREAN VETERANS BLVD,NASHVILLE,TN,37203
1842,543  LITTLE CHANNING WAY,NASHVILLE,TN,37212
1843,5015  BROADWAY PL,NASHVILLE,TN,37203
1844,812B2  POWERS AVE,NASHVILLE,TN,37206
1845,7060  PAISLEY WOOD DR,ANTIOCH,TN,37013
1846,1824A2  5TH AVE N,NASHVILLE,TN,37208
1847,7044  PAISLEY WOOD DR,ANTIOCH,TN,37013
1848,1812B2  BEECH AVE,NASHVILLE,TN,37203
1849,1824B2  5TH AVE N,NASHVILLE,TN,37208
1850,1812A2  BEECH AVE,NASHVILLE,TN,37203
1851,1984B  CAROTHERS RD,NOLENSVILLE,TN,37135
1852,7055  PAISLEY WOOD DR,ANTIOCH,TN,37013
1853,7052  PAISLEY WOOD DR,ANTIOCH,TN,37013
1854,525  LITTLE CHANNING WAY,NASHVILLE,TN,37212
1855,515  LITTLE CHANNING WAY,NASHVILLE,TN,37212
1856,549  LITTLE CHANNING WAY,NASHVILLE,TN,37212
1857,539  LITTLE CHANNING WAY,NASHVILLE,TN,37212
1858,505  LITTLE CHANNING WAY,NASHVILLE,TN,37212
1859,501  LITTLE CHANNING WAY,NASHVILLE,TN,37212
1860,531  LITTLE CHANNING WAY,NASHVILLE,TN,37212
1861,5054  BROADWAY PL,NASHVILLE,TN,37203
1862,4048  SADDLECREEK WAY,ANTIOCH,TN,37013
1863,4056  SADDLECREEK WAY,ANTIOCH,TN,37013
1864,863  BLOOMDALE TRCE,HERMITAGE,TN,37076
1865,859  BLOOMDALE TRCE,HERMITAGE,TN,37076
1866,1235  SUMMER SHADE DR,ANTIOCH,TN,37013
1867,4054  SADDLECREEK WAY,ANTIOCH,TN,37013
1868,4052  SADDLECREEK WAY,ANTIOCH,TN,37013
1869,4050  SADDLECREEK WAY,ANTIOCH,TN,37013
1870,3175  CHARLES PARK DR,NASHVILLE,TN,37211
1871,5049  SUNFLOWER LN,HERMITAGE,TN,37076
1872,1360  GREENSTONE LN,NASHVILLE,TN,37221
1873,1637  ALAYNA DR,NASHVILLE,TN,37221
1874,1648  ALAYNA DR,NASHVILLE,TN,37221
1875,905  FANCHER LN,JOELTON,TN,37080
1876,1364  GREENSTONE LN,NASHVILLE,TN,37221
1877,9301  BARCO RD,BRENTWOOD,TN,37027
1878,1356  GREENSTONE LN,NASHVILLE,TN,37221
1879,7042  PAISLEY WOOD DR,ANTIOCH,TN,37013
1880,7034  PAISLEY WOOD DR,ANTIOCH,TN,37013
1881,2448  PRAIRIE HILL DR,ANTIOCH,TN,37013
1882,5128  POND CREEK RD,NASHVILLE,TN,37209
1883,6208A2  NEW YORK AVE,NASHVILLE,TN,37209
1884,532  CERET ALY,NASHVILLE,TN,37211
1885,6208B2  NEW YORK AVE,NASHVILLE,TN,37209
1886,3404  MUSTANG DR,NASHVILLE,TN,37211
1887,1321  BUSIRIS DR,HERMITAGE,TN,37076
1888,4167  MAGNOLIA FARMS DR,HERMITAGE,TN,37076
1889,7038  PAISLEY WOOD DR,ANTIOCH,TN,37013
1890,112  LIGHTWOOD DR,ANTIOCH,TN,37013
1891,116  LIGHTWOOD DR,ANTIOCH,TN,37013
1892,104  LIGHTWOOD DR,ANTIOCH,TN,37013
1893,1023  RICHLAND CREEK ALY,NASHVILLE,TN,37209
1894,1376  MARITIME PRT,ANTIOCH,TN,37013
1895,416  CREEDMORE DR,OLD HICKORY,TN,37138
1896,1400  WHITE DUTCH LN,ANTIOCH,TN,37013
1897,2956  JENRY DR,NASHVILLE,TN,37214
1898,1936B  GRACE POINT LN,NOLENSVILLE,TN,37135
1899,9408  KAPLAN AVE,BRENTWOOD,TN,37027
1900,5116  KENSAL DR,ANTIOCH,TN,37013
1901,705  BRADBURN VILLAGE WAY,ANTIOCH,TN,37013
1902,6105A2  LOUISIANA AVE,NASHVILLE,TN,37209
1903,5550  HAMILTON CIR,NASHVILLE,TN,37013
1904,825  HAMILTON CROSSINGS,ANTIOCH,TN,37013
1905,4204  HERMITAGE RD,HERMITAGE,TN,37076
1906,5540  HAMILTON CIR,NASHVILLE,TN,37013
1907,0  LEBANON PIKE,NASHVILLE,TN,37210
1908,1017  GRANBERY PARK DR,BRENTWOOD,TN,37027
1909,1608  MARSHALL HOLLOW DR  303,NASHVILLE,TN,37203
1910,1313  HAVENBROOK DR,NASHVILLE,TN,37207
1911,839  HAMILTON CROSSINGS,ANTIOCH,TN,37013
1912,723  BRADBURN VILLAGE WAY,ANTIOCH,TN,37013
1913,2117  PORTWAY ALY,NASHVILLE,TN,37207
1914,213  ZENYATTA DR,ANTIOCH,TN,37013
1915,5429  RUFFIAN WAY,ANTIOCH,TN,37013
1916,2101  PORTWAY ALY,NASHVILLE,TN,37207
1917,400  HERRON DR  205,NASHVILLE,TN,37210
1918,5001  RIVERBANK DR,HERMITAGE,TN,37076
1919,5421  RUFFIAN WAY,ANTIOCH,TN,37013
1920,411  MERRITT ST  102,NASHVILLE,TN,37203
1921,5039  UPPER PARK PL,ANTIOCH,TN,37013
1922,5017  MOORGATE DR,ANTIOCH,TN,37013
1923,1022  GRANBERY PARK DR,BRENTWOOD,TN,37027
1924,7447  MARONEY DR,ANTIOCH,TN,37013
1925,1585B  WINDING CREEK DR,NOLENSVILLE,TN,37135
1926,5416  RUFFIAN WAY,ANTIOCH,TN,37013
1927,1608  MARSHALL HOLLOW DR  302,NASHVILLE,TN,37203
1928,4949  RIVERBANK DR,HERMITAGE,TN,37076
1929,600  DR MARTIN L KING JR BLVD,NASHVILLE,TN,37219
1930,2122  NOTCHLEAF RD,ANTIOCH,TN,37013
1931,221  STERLING POINT CIR,NASHVILLE,TN,37209
1932,1008  LAWSONS RIDGE DR,NASHVILLE,TN,37218
1933,5023  UPPER PARK PL,ANTIOCH,TN,37013
1934,1345  DUNS LN,NOLENSVILLE,TN,37135
1935,92  WHITE BRIDGE PIKE,NASHVILLE,TN,37205
1936,2108  CAREFREE LN,ANTIOCH,TN,37013
1937,9452  KAPLAN AVE,BRENTWOOD,TN,37027
1938,719  BRADBURN VILLAGE WAY,ANTIOCH,TN,37013
1939,7420  MARONEY DR,ANTIOCH,TN,37013
1940,1345  MARITIME PRT,ANTIOCH,TN,37013
1941,1305  DUNS LN,NOLENSVILLE,TN,37135
1942,5105  KENSAL DR,ANTIOCH,TN,37013
1943,9456  KAPLAN AVE,BRENTWOOD,TN,37027
1944,1519B2  WARD AVE,NASHVILLE,TN,37206
1945,1320  DUNS LN,NOLENSVILLE,TN,37135
1946,5006B2  INDIANA AVE,NASHVILLE,TN,37209
1947,2127  PORTWAY ALY,NASHVILLE,TN,37207
1948,2137  PORTWAY ALY,NASHVILLE,TN,37207
1949,2130  NOTCHLEAF RD,ANTIOCH,TN,37013
1950,1103  LADY NASHVILLE DR,HERMITAGE,TN,37076
1951,5460  RUFFIAN WAY,ANTIOCH,TN,37013
1952,5004  MOORGATE DR,ANTIOCH,TN,37013
1953,5534  HAMILTON CIR,ANTIOCH,TN,37013
1954,5428  RUFFIAN WAY,ANTIOCH,TN,37013
1955,2139  CAREFREE LN,ANTIOCH,TN,37013
1956,9313  BARCO RD,BRENTWOOD,TN,37027
1957,0  OLD HICKORY BLVD,NASHVILLE,TN,37221
1958,934  GOVERNORS CT  306,ANTIOCH,TN,37013
1959,400  HERRON DR  114,NASHVILLE,TN,37210
1960,734  JAMES AVE,NASHVILLE,TN,37209
1961,5012  MOORGATE DR,ANTIOCH,TN,37013
1962,737  BRADBURN VILLAGE WAY,ANTIOCH,TN,37013
1963,740  BLOOMDALE TRCE,HERMITAGE,TN,37076
1964,1004  LAWSONS RIDGE DR,NASHVILLE,TN,37218
1965,2425  PRAIRIE HILL DR,ANTIOCH,TN,37013
1966,4988  CHUTNEY DR,ANTIOCH,TN,37013
1967,159  LIGHTWOOD DR,ANTIOCH,TN,37013
1968,25  WHITE BRIDGE PIKE,NASHVILLE,TN,37205
1969,400  HERRON DR  113,NASHVILLE,TN,37210
1970,1593  WINDING CREEK DR,NOLENSVILLE,TN,37135
1971,2705  GOSSETT TRL,NASHVILLE,TN,37221
1972,2105  PORTWAY ALY,NASHVILLE,TN,37207
1973,2285  MURFREESBORO PIKE  102,ANTIOCH,TN,37013
1974,720  DAVIDSON ST,NASHVILLE,TN,37213
1975,4049  LIBERTON WAY,NOLENSVILLE,TN,37135
1976,860  BLOOMDALE TRCE,HERMITAGE,TN,37076
1977,5008  ARROGATE DR,ANTIOCH,TN,37013
1978,4332  STONE HALL BLVD,HERMITAGE,TN,37076
1979,751A2  LYNWOOD AVE,NASHVILLE,TN,37203
1980,1027  RICHLAND CREEK ALY,NASHVILLE,TN,37209
1981,1365  MARITIME PRT,ANTIOCH,TN,37013
1982,1360  MARITIME PRT,ANTIOCH,TN,37013
1983,5112  KENSAL DR,ANTIOCH,TN,37013
1984,5538  HAMILTON CIR,NASHVILLE,TN,37013
1985,2741  OPRYLAND DR  ICE TENT,NASHVILLE,TN,37214
1986,1020  TREVINO PL,ANTIOCH,TN,37013
1987,4806B2  KENTUCKY AVE,NASHVILLE,TN,37209
1988,117  LIGHTWOOD DR,ANTIOCH,TN,37013
1989,1108  LADY NASHVILLE DR,HERMITAGE,TN,37076
1990,105  BURKITT COMMONS AVE,BRENTWOOD,TN,37027
1991,2140  CAREFREE LN,ANTIOCH,TN,37013
1992,0  CREATIVE WAY,MADISON,TN,37115
1993,3796  BEDFORD AVE  204,NASHVILLE,TN,37215
1994,500B2  5TH AVE S,NASHVILLE,TN,37203
1995,4364  STONE HALL BLVD,HERMITAGE,TN,37076
1996,8300  SAWYER BROWN RD  S 301-S 30,NASHVILLE,TN,37221
1997,2001  GALLATIN PIKE  A T & T ST,MADISON,TN,37115
1998,3803  OCTOBER WOODS DR,ANTIOCH,TN,37013
1999,1580  WINDING CREEK DR,NOLENSVILLE,TN,37135
2000,1353  DUNS LN,NOLENSVILLE,TN,37135
2001,806  VIBE PL,NASHVILLE,TN,37216
2002,321  HART ST,NASHVILLE,TN,37210
2003,711  MILL CREEK MEADOW DR,NASHVILLE,TN,37214
2004,1513  STRONG ALY,NOLENSVILLE,TN,37135
2005,2004  VILLAGE PARK CIR,OLD HICKORY,TN,37138
2006,1265  HILLWOOD PRIVATE CV,NASHVILLE,TN,37209
2007,808  VIBE PL,NASHVILLE,TN,37216
2008,2152  CAREFREE LN,ANTIOCH,TN,37013
2009,701  ELLIE DR,MADISON,TN,37115
2010,1017  TREVINO PL,ANTIOCH,TN,37013
2011,2224  BELLE CREEK WAY,NASHVILLE,TN,37221
2012,1005  TREVINO PL,ANTIOCH,TN,37013
2013,2405  SOLOMON LN,NASHVILLE,TN,37207
2014,400  HERRON DR  218,NASHVILLE,TN,37210
2015,5580  HAMILTON CIR,NASHVILLE,TN,37013
2016,2990  BELWOOD ST,NASHVILLE,TN,37203
2017,2301  SHADOW LN,NASHVILLE,TN,37216
2018,1357  MARITIME PRT,ANTIOCH,TN,37013
2019,145B  MONTGOMERY BELL AVE,NASHVILLE,TN,37205
2020,2512  PRAIRIE HILL DR,ANTIOCH,TN,37013
2021,1329  HAVENBROOK DR,NASHVILLE,TN,37207
2022,5113  HELMSDALE CT,HERMITAGE,TN,37076
2023,400  HERRON DR  415,NASHVILLE,TN,37210
2024,203  STERLING POINT CIR,NASHVILLE,TN,37209
2025,819  VIBE PL,NASHVILLE,TN,37216
2026,774  COTTAGE PARK DR,NASHVILLE,TN,37207
2027,2048  KIRKWALL DR,NOLENSVILLE,TN,37135
2028,2408  SERENE DR,ANTIOCH,TN,37013
2029,1306  HAVENBROOK DR,NASHVILLE,TN,37207
2030,1727B2  PECAN ST,NASHVILLE,TN,37208
2031,1009  TREVINO PL,ANTIOCH,TN,37013
2032,4340  STONE HALL BLVD,HERMITAGE,TN,37076
2033,2943  JENRY DR,NASHVILLE,TN,37214
2034,790  COTTAGE PARK DR,NASHVILLE,TN,37207
2035,8068  BROCKMAN LN,NASHVILLE,TN,37211
2036,28  WHITE BRIDGE PIKE,NASHVILLE,TN,37205
2037,4008  LIBERTON WAY,NOLENSVILLE,TN,37135
2038,715  MILL CREEK MEADOW DR,NASHVILLE,TN,37214
2039,5503D2  TENNESSEE AVE,NASHVILLE,TN,37209
2040,7000B  WESTSIDE CIR,NASHVILLE,TN,37205
2041,1609  MARSHALL HOLLOW DR  204,NASHVILLE,TN,37203
2042,165  LIGHTWOOD DR,ANTIOCH,TN,37013
2043,2420  PRAIRIE HILL DR,ANTIOCH,TN,37013
2044,1001  HEALTH PARK DR,BRENTWOOD,TN,37027
2045,2107  PORTWAY ALY,NASHVILLE,TN,37207
2046,1239  SUMMER SHADE DR,ANTIOCH,TN,37013
2047,1008  TREVINO PL,ANTIOCH,TN,37013
2048,400  HERRON DR  409,NASHVILLE,TN,37210
2049,104  PALMORE CT,NASHVILLE,TN,37221
2050,5104  KENSAL DR,ANTIOCH,TN,37013
2051,400  HERRON DR  115,NASHVILLE,TN,37210
2052,1318  HAVENBROOK DR,NASHVILLE,TN,37207
2053,5109  HELMSDALE CT,HERMITAGE,TN,37076
2054,1608  MARSHALL HOLLOW DR  101,NASHVILLE,TN,37203
2055,7536  STATION DR,NASHVILLE,TN,37221
2056,950  BRITTANY PARK DR,ANTIOCH,TN,37013
2057,205  STERLING POINT CIR,NASHVILLE,TN,37209
2058,0  ANTIOCH PIKE,NASHVILLE,TN,37211
2059,400  HERRON DR  214,NASHVILLE,TN,37210
2060,5433  RUFFIAN WAY,ANTIOCH,TN,37013
2061,4705  STONEY POINT CV,ANTIOCH,TN,37013
2062,2064  KIRKWALL DR,NOLENSVILLE,TN,37135
2063,1104A2 N 8TH ST,NASHVILLE,TN,37207
2064,1436  WHITE DUTCH LN,ANTIOCH,TN,37013
2065,3410  BRISTOL ALY,NOLENSVILLE,TN,37135
2066,207  STERLING POINT CIR,NASHVILLE,TN,37209
2067,400  HERRON DR  406,NASHVILLE,TN,37210
2068,780  COTTAGE PARK DR,NASHVILLE,TN,37207
2069,507B  PLEASANT ST,NOLENSVILLE,TN,37135
2070,1000  TREVINO PL,ANTIOCH,TN,37013
2071,1717B2  3RD AVE N,NASHVILLE,TN,37208
2072,1103B2 N 5TH ST,NASHVILLE,TN,37207
2073,1608  MARSHALL HOLLOW DR  204,NASHVILLE,TN,37203
2074,1418  WHITE DUTCH LN,ANTIOCH,TN,37013
2075,4065  LIBERTON WAY,NOLENSVILLE,TN,37135
2076,5021  SUNFLOWER LN,HERMITAGE,TN,37076
2077,5254  LAKE MAXWELL DR,ANTIOCH,TN,37013
2078,146  LIGHTWOOD DR,ANTIOCH,TN,37013
2079,400  HERRON DR  418,NASHVILLE,TN,37210
2080,2089  KIRKWALL DR,NOLENSVILLE,TN,37135
2081,24  WHITE BRIDGE PIKE,NASHVILLE,TN,37205
2082,2317  FAIRCHILD CIR,NOLENSVILLE,TN,37135
2083,170  LIGHTWOOD DR,ANTIOCH,TN,37013
2084,1630  MARSHALL HOLLOW DR,NASHVILLE,TN,37203
2085,2444  PRAIRIE HILL DR,ANTIOCH,TN,37013
2086,5307B2  MICHIGAN AVE,NASHVILLE,TN,37209
2087,1335  HAVENBROOK DR,NASHVILLE,TN,37207
2088,1817  SPRUCEWOOD LN,NASHVILLE,TN,37211
2089,1061  GRANBERY PARK DR,BRENTWOOD,TN,37027
2090,124  BURKITT COMMONS AVE,NOLENSVILLE,TN,37135
2091,1908  GRACE POINT LN,NOLENSVILLE,TN,37135
2092,945  DR RICHARD G ADAMS DR,NASHVILLE,TN,37207
2093,2006  VILLAGE PARK CIR,OLD HICKORY,TN,37138
2094,5512  MULLIGAN CT,HERMITAGE,TN,37076
2095,1505  STRONG ALY,NOLENSVILLE,TN,37135
2096,5314  LAKE MAXWELL DR,ANTIOCH,TN,37013
2097,400B  HERRON DR,NASHVILLE,TN,37210
2098,8053  BROCKMAN LN,NASHVILLE,TN,37211
2099,431  CREEDMORE DR,OLD HICKORY,TN,37138
2100,1308  DUNS LN,NOLENSVILLE,TN,37135
2101,950  BRITTANY PARK DR  300-321,ANTIOCH,TN,37013
2102,5449  RUFFIAN WAY,ANTIOCH,TN,37013
2103,1247  HILLWOOD PRIVATE CV,NASHVILLE,TN,37209
2104,1432  WHITE DUTCH LN,ANTIOCH,TN,37013
2105,852  BLOOMDALE TRCE,HERMITAGE,TN,37076
2106,5033  MOORGATE DR,ANTIOCH,TN,37013
2107,5517  MULLIGAN CT,HERMITAGE,TN,37076
2108,3422  SHELBY BOTTOMS BND,NASHVILLE,TN,37206
2109,934  GOVERNORS CT  102,ANTIOCH,TN,37013
2110,3416  SHELBY BOTTOMS BND,NASHVILLE,TN,37206
2111,521  PLEASANT ST,NOLENSVILLE,TN,37135
2112,1700  WOODSONG DR,BRENTWOOD,TN,37027
2113,950  BRITTANY PARK DR,ANTIOCH,TN,37013
2114,523  PLEASANT ST,NOLENSVILLE,TN,37135
2115,2113  PORTWAY ALY,NASHVILLE,TN,37207
2116,300  KARA LN,NOLENSVILLE,TN,37135
2117,114  BURKITT COMMONS AVE,NOLENSVILLE,TN,37135
2118,2429  PRAIRIE HILL DR,ANTIOCH,TN,37013
2119,1322  HAVENBROOK DR,NASHVILLE,TN,37207
2120,1628  MARSHALL HOLLOW DR,NASHVILLE,TN,37203
2121,709  ELLIE DR,MADISON,TN,37115
2122,1510B2  ARTHUR AVE,NASHVILLE,TN,37208
2123,500  CREATIVE WAY,MADISON,TN,37115
2124,2733  GOSSETT TRL,NASHVILLE,TN,37221
2125,1869  SPRUCEWOOD LN,NASHVILLE,TN,37211
2126,4048  MAGNOLIA FARMS DR,HERMITAGE,TN,37076
2127,4324  STONE HALL BLVD,HERMITAGE,TN,37076
2128,500  CREATIVE WAY  10,MADISON,TN,37115
2129,844  BLOOMDALE TRCE,HERMITAGE,TN,37076
2130,1000B  RICHLAND CREEK ALY,NASHVILLE,TN,37209
2131,4216  DYSANT ALY,NOLENSVILLE,TN,37135
2132,4973  CHUTNEY DR,ANTIOCH,TN,37013
2133,1000  ROSA L PARKS BLVD  TN STATE M,NASHVILLE,TN,37208
2134,7113  SILVERWOOD TRL,HERMITAGE,TN,37076
2135,841  VIBE PL,NASHVILLE,TN,37216
2136,1249  HILLWOOD PRIVATE CV,NASHVILLE,TN,37209
2137,1916  GRACE POINT LN,NOLENSVILLE,TN,37135
2138,1908  GRACE POINT LN,NOLENSVILLE,TN,37135
2139,1313  DUNS LN,NOLENSVILLE,TN,37135
2140,934  GOVERNORS CT  101,ANTIOCH,TN,37013
2141,5404  RUFFIAN WAY,ANTIOCH,TN,37013
2142,1209  SUMMER SHADE DR,ANTIOCH,TN,37013
2143,756  BLOOMDALE TRCE,HERMITAGE,TN,37076
2144,1037  GRANBERY PARK DR,BRENTWOOD,TN,37027
2145,2285  MURFREESBORO PIKE  210,ANTIOCH,TN,37013
2146,2233  BELLE CREEK WAY,NASHVILLE,TN,37221
2147,1327  HAVENBROOK DR,NASHVILLE,TN,37207
2148,831  VIBE PL,NASHVILLE,TN,37216
2149,2206  AUSTIN AVE,NASHVILLE,TN,37210
2150,5551  MULLIGAN CT,HERMITAGE,TN,37076
2151,1317  GREENSTONE LN,NASHVILLE,TN,37221
2152,411  ANCHOR RESERVE CV,HERMITAGE,TN,37076
2153,204  MUIR AVE,BRENTWOOD,TN,37027
2154,1316  MARITIME PRT,ANTIOCH,TN,37013
2155,7125  SILVERWOOD TRL,HERMITAGE,TN,37076
2156,2433  SOLOMON,NASHVILLE,TN,37207
2157,2200  BELLE CREEK WAY,NASHVILLE,TN,37221
2158,1533  DAVIDGE DR,NASHVILLE,TN,37221
2159,5582  HAMILTON CIR,NASHVILLE,TN,37013
2160,400  HERRON DR  311,NASHVILLE,TN,37210
2161,3015  LANARK DR,NOLENSVILLE,TN,37135
2162,775  COTTAGE PARK DR,NASHVILLE,TN,37207
2163,2433  PRAIRIE HILL DR,ANTIOCH,TN,37013
2164,5117  HELMSDALE CT,HERMITAGE,TN,37076
2165,745  BRADBURN VILLAGE WAY,ANTIOCH,TN,37013
2166,122  BURKITT COMMONS AVE,NOLENSVILLE,TN,37135
2167,1316  DUNS LN,NOLENSVILLE,TN,37135
2168,1341  GREENSTONE LN,NASHVILLE,TN,37221
2169,2013  VILLAGE PARK CIR,OLD HICKORY,TN,37138
2170,1440B  WHITE DUTCH LN,ANTIOCH,TN,37013
2171,809  HAMILTON CROSSINGS,ANTIOCH,TN,37013
2172,1220  DUNS LN,NOLENSVILLE,TN,37135
2173,3019  LANARK DR,NOLENSVILLE,TN,37135
2174,1120  3RD AVE N RESTAURANT,NASHVILLE,TN,37208
2175,1025  LAWSONS RIDGE DR,NASHVILLE,TN,37218
2176,1012  TREVINO PL,ANTIOCH,TN,37013
2177,1621  MARSHALL HOLLOW DR,NASHVILLE,TN,37203
2178,5107  SUNSET RIDGE LN,ANTIOCH,TN,37013
2179,1131  LADY NASHVILLE DR,HERMITAGE,TN,37076
2180,2077  KIRKWALL DR,NOLENSVILLE,TN,37135
2181,847  VIBE PL,NASHVILLE,TN,37216
2182,5036  SUNFLOWER LN,HERMITAGE,TN,37076
2183,5110B2  ILLINOIS AVE,NASHVILLE,TN,37209
2184,116  BURKITT COMMONS AVE,NOLENSVILLE,TN,37135
2185,213  MUIR AVE,NOLENSVILLE,TN,37135
2186,2229  BELLE CREEK WAY,NASHVILLE,TN,37221
2187,5537  MULLIGAN CT,HERMITAGE,TN,37076
2188,1620  MARSHALL HOLLOW DR,NASHVILLE,TN,37203
2189,1042  GRANBERY PARK DR,BRENTWOOD,TN,37027
2190,2039  VILLAGE PARK CIR,OLD HICKORY,TN,37138
2191,513  SARVER AVE,MADISON,TN,37115
2192,5480  RUFFIAN WAY,ANTIOCH,TN,37013
2193,2508  SOLOMON LN,NASHVILLE,TN,37207
2194,951  BRITTANY PARK DR  600-641,ANTIOCH,TN,37013
2195,1438B  WHITE DUTCH LN,ANTIOCH,TN,37013
2196,2000B2  OAK TRAIL DR,NOLENSVILLE,TN,37135
2197,1622  MARSHALL HOLLOW DR,NASHVILLE,TN,37203
2198,5469  RUFFIAN WAY,ANTIOCH,TN,37013
2199,1611  MARSHALL HOLLOW DR,NASHVILLE,TN,37203
2200,7129  SILVERWOOD TRL,HERMITAGE,TN,37076
2201,4004  LIBERTON WAY,NOLENSVILLE,TN,37135
2202,400  HERRON DR  405,NASHVILLE,TN,37210
2203,784  COTTAGE PARK DR,NASHVILLE,TN,37207
2204,3000  SPRINGLANE CT,NOLENSVILLE,TN,37135
2205,2093  KIRKWALL DR,NOLENSVILLE,TN,37135
2206,2113  BELLE CREEK WAY,NASHVILLE,TN,37221
2207,721  OPRY MILLS DR  MTV FIELD,NASHVILLE,TN,37214
2208,7637  VERANDA CT,NASHVILLE,TN,37221
2209,1749  WOODSONG DR,BRENTWOOD,TN,37027
2210,5846B  CROSSINGS BLVD  TEMP TRAIL,ANTIOCH,TN,37013
2211,3410  KNIGHT DR,NASHVILLE,TN,37207
2212,5017  SUNFLOWER LN,HERMITAGE,TN,37076
2213,2026  VILLAGE PARK CIR,OLD HICKORY,TN,37138
2214,6006B2  LOUISIANA AVE,NASHVILLE,TN,37209
2215,2200  CHILDRENS WAY  CHILDRENS,NASHVILLE,TN,37212
2216,3 S 14TH ST,NASHVILLE,TN,37206
2217,1304  DUNS LN,NOLENSVILLE,TN,37135
2218,5024  HARBOR RESERVE CV,HERMITAGE,TN,37076
2219,904  LATTING DR,HERMITAGE,TN,37076
2220,3414  BRISTOL ALY,NOLENSVILLE,TN,37135
2221,400  HERRON DR  410,NASHVILLE,TN,37210
2222,2257  BELLE CREEK WAY,NASHVILLE,TN,37221
2223,1013  GRANBERY PARK DR,BRENTWOOD,TN,37027
2224,421  5TH AVE N,NASHVILLE,TN,37203
2225,1402  WHITE DUTCH LN,ANTIOCH,TN,37013
2226,400  HERRON DR  417,NASHVILLE,TN,37210
2227,143  LIGHTWOOD DR,ANTIOCH,TN,37013
2228,880  BLOOMDALE TRCE,HERMITAGE,TN,37076
2229,934  GOVERNORS CT  211,ANTIOCH,TN,37013
2230,2413  SOLOMON LN,NASHVILLE,TN,37207
2231,2445  SOLOMON LN,NASHVILLE,TN,37207
2232,934  GOVERNORS CT  203,ANTIOCH,TN,37013
2233,1609  MARSHALL HOLLOW DR  302,NASHVILLE,TN,37203
2234,3  BURKITT COMMONS AVE,BRENTWOOD,TN,37027
2235,0  JENRY DR,NASHVILLE,TN,37214
2236,5546  HAMILTON CIR,NASHVILLE,TN,37013
2237,2139  PORTWAY ALY,NASHVILLE,TN,37207
2238,147  LIGHTWOOD DR,ANTIOCH,TN,37013
2239,2109  PORTWAY ALY,NASHVILLE,TN,37207
2240,2073  KIRKWALL DR,NOLENSVILLE,TN,37135
2241,1936  GRACE POINT LN,NOLENSVILLE,TN,37135
2242,1058  GRANBERY PARK DR,BRENTWOOD,TN,37027
2243,3409  WOODLAND STAR WAY,NASHVILLE,TN,37207
2244,2527  SOLOMON LN,NASHVILLE,TN,37207
2245,7109  SILVERWOOD TRL,HERMITAGE,TN,37076
2246,3160  FRANKLIN LIMESTONE RD,NASHVILLE,TN,37217
2247,504  PLEASANT ST,NOLENSVILLE,TN,37135
2248,2232  BELLE CREEK WAY,NASHVILLE,TN,37221
2249,4008  MAGNOLIA FARMS DR,HERMITAGE,TN,37076
2250,934  GOVERNORS CT  313,ANTIOCH,TN,37013
2251,1001  EIGHTH ST,OLD HICKORY,TN,37138
2252,1308  HAVENBROOK DR,NASHVILLE,TN,37207
2253,505  SARVER AVE,MADISON,TN,37115
2254,1340  GREENSTONE LN,NASHVILLE,TN,37221
2255,2738  GOSSETT TRL,NASHVILLE,TN,37221
2256,1257  HILLWOOD PRIVATE CV,NASHVILLE,TN,37209
2257,2110  NOTCHLEAF RD,ANTIOCH,TN,37013
2258,4806A2  MICHIGAN AVE,NASHVILLE,TN,37209
2259,9436  KAPLAN AVE,BRENTWOOD,TN,37027
2260,914  GOVERNORS CT,ANTIOCH,TN,37013
2261,101  OLD HICKORY BLVD,MADISON,TN,37115
2262,8057  BROCKMAN LN,NASHVILLE,TN,37211
2263,5180  FRANKLIN PIKE CIR,NASHVILLE,TN,37220
2264,812  VIBE PL,NASHVILLE,TN,37216
2265,1233  DUNS LN,NOLENSVILLE,TN,37135
2266,1825B2  5TH AVE N,NASHVILLE,TN,37208
2267,2532  SOLOMON LN,NASHVILLE,TN,37207
2268,4801  SANDYROCK LN,ANTIOCH,TN,37013
2269,400  HERRON DR  419,NASHVILLE,TN,37210
2270,785  COTTAGE PARK DR,NASHVILLE,TN,37207
2271,1627  MARSHALL HOLLOW DR,NASHVILLE,TN,37203
2272,1716A2  MCKINNEY AVE,NASHVILLE,TN,37208
2273,875  BLOOMDALE TRCE,HERMITAGE,TN,37076
2274,505  VERNON CIR,NASHVILLE,TN,37209
2275,1596  WINDING CREEK DR,NOLENSVILLE,TN,37135
2276,204  ZENYATTA DR,ANTIOCH,TN,37013
2277,2180  CAREFREE LN,ANTIOCH,TN,37013
2278,1065  GRANBERY PARK DR,BRENTWOOD,TN,37027
2279,1729B2  PECAN ST,NASHVILLE,TN,37208
2280,1021  DR MARTIN L KING JR BLVD,NASHVILLE,TN,37203
2281,2400  PRAIRIE HILL DR,ANTIOCH,TN,37013
2282,9428  KAPLAN AVE,BRENTWOOD,TN,37027
2283,4020  MAGNOLIA FARMS DR,HERMITAGE,TN,37076
2284,5128  KENSAL DR,ANTIOCH,TN,37013
2285,3200  HOSPITAL LN,NASHVILLE,TN,37218
2286,617  OLD HICKORY BLVD,OLD HICKORY,TN,37138
2287,717  ARBOR TRACE CIR,NASHVILLE,TN,37207
2288,1792  WOODSONG DR,BRENTWOOD,TN,37027
2289,441  UNION BRIDGE RD,NASHVILLE,TN,37221
2290,5017  ARROGATE DR,ANTIOCH,TN,37013
2291,1340  DUNS LN,NOLENSVILLE,TN,37135
2292,2275  MURFREESBORO PIKE  108,ANTIOCH,TN,37013
2293,400  HERRON DR  210,NASHVILLE,TN,37210
2294,4385  STONE HALL BLVD,HERMITAGE,TN,37076
2295,2412  PRAIRIE HILL DR,ANTIOCH,TN,37013
2296,1315  HAVENBROOK DR,NASHVILLE,TN,37207
2297,771  COTTAGE PARK DR,NASHVILLE,TN,37207
2298,2523  SOLOMON LN,NASHVILLE,TN,37207
2299,400  HERRON DR  102,NASHVILLE,TN,37210
2300,410  ANCHOR RESERVE CV,HERMITAGE,TN,37076
2301,2401  PRAIRIE HILL DR,ANTIOCH,TN,37013
2302,5053  SUNFLOWER LN,HERMITAGE,TN,37076
2303,1204  DUNS LN,NOLENSVILLE,TN,37135
2304,4805  SANDYROCK LN,ANTIOCH,TN,37013
2305,1127  LADY NASHVILLE DR,HERMITAGE,TN,37076
2306,400  HERRON DR  118,NASHVILLE,TN,37210
2307,832  BLOOMDALE TRCE,HERMITAGE,TN,37076
2308,501  BOND ST,OLD HICKORY,TN,37138
2309,0  JENRY DR,NASHVILLE,TN,37214
2310,9401  KAPLAN AVE,BRENTWOOD,TN,37027
2311,2384  FAIRCHILD CIR,NOLENSVILLE,TN,37135
2312,2103  PORTWAY ALY,NASHVILLE,TN,37207
2313,4913  RIVERBANK DR,HERMITAGE,TN,37076
2314,3013  LANARK DR,NOLENSVILLE,TN,37135
2315,1074  GRANBERY PARK DR,BRENTWOOD,TN,37027
2316,5461  RUFFIAN WAY,ANTIOCH,TN,37013
2317,2947  JENRY DR,NASHVILLE,TN,37214
2318,8040  BROCKMAN LN,NASHVILLE,TN,37211
2319,9440  KAPLAN AVE,BRENTWOOD,TN,37027
2320,4238  DYSANT ALY,NOLENSVILLE,TN,37135
2321,3803  OCTOBER WOODS DR,ANTIOCH,TN,37013
2322,1220  SUMMER SHADE DR,ANTIOCH,TN,37013
2323,5607B2  LOUISIANA AVE,NASHVILLE,TN,37209
2324,3796  BEDFORD AVE  204,NASHVILLE,TN,37215
2325,1344  DUNS LN,NOLENSVILLE,TN,37135
2326,2516  NEWSOME MILL LN,NASHVILLE,TN,37221
2327,2149  CHADWELL RETREAT DR,MADISON,TN,37115
2328,0  LIGHTWOOD DR,ANTIOCH,TN,37013
2329,2417  SOLOMON LN,NASHVILLE,TN,37207
2330,1609  MARSHALL HOLLOW DR  104,NASHVILLE,TN,37203
2331,5560  HAMILTON CIR,NASHVILLE,TN,37013
2332,500  CREATIVE WAY  20,MADISON,TN,37115
2333,6006A2  LOUISIANA AVE,NASHVILLE,TN,37209
2334,1204  SUMMER SHADE DR,ANTIOCH,TN,37013
2335,5000  RIVERBANK DR,HERMITAGE,TN,37076
2336,5408  RUFFIAN WAY,ANTIOCH,TN,37013
2337,140  MAGNOLIA CIR,NASHVILLE,TN,37212
2338,4925  RIVERBANK DR,HERMITAGE,TN,37076
2339,2420  SOLOMON LN,NASHVILLE,TN,37207
2340,1418B  WHITE DUTCH LN,ANTIOCH,TN,37013
2341,9469  KAPLAN AVE,BRENTWOOD,TN,37027
2342,1337  BUSIRIS DR,HERMITAGE,TN,37076
2343,2035  VILLAGE PARK CIR,OLD HICKORY,TN,37138
2344,1521  DAVIDGE DR,NASHVILLE,TN,37221
2345,1619  MARSHALL HOLLOW DR,NASHVILLE,TN,37203
2346,2939  JENRY DR,NASHVILLE,TN,37214
2347,2204  BELLE CREEK WAY,NASHVILLE,TN,37221
2348,2044  KIRKWALL DR,NOLENSVILLE,TN,37135
2349,5477  RUFFIAN WAY,ANTIOCH,TN,37013
2350,400  HERRON DR  408,NASHVILLE,TN,37210
2351,2721  GOSSETT TRL,NASHVILLE,TN,37221
2352,934  GOVERNORS CT  212,ANTIOCH,TN,37013
2353,733  BRADBURN VILLAGE WAY,ANTIOCH,TN,37013
2354,1337  MARITIME PRT,ANTIOCH,TN,37013
2355,934  GOVERNORS CT  314,ANTIOCH,TN,37013
2356,801  HAMILTON CROSSINGS,ANTIOCH,TN,37013
2357,2952  JENRY DR,NASHVILLE,TN,37214
2358,5027  UPPER PARK PL,ANTIOCH,TN,37013
2359,2315  FAIRCHILD CIR,NOLENSVILLE,TN,37135
2360,1212  YELLOW HOP ALY,ANTIOCH,TN,37013
2361,609  CREATIVE WAY,MADISON,TN,37115
2362,235  STERLING POINT CIR,NASHVILLE,TN,37209
2363,4300  STONE HALL BLVD,HERMITAGE,TN,37076
2364,523B2  MOORE AVE,NASHVILLE,TN,37203
2365,151  LIGHTWOOD DR,ANTIOCH,TN,37013
2366,6107A2  LOUISIANA AVE,NASHVILLE,TN,37209
2367,740  JAMES AVE,NASHVILLE,TN,37209
2368,1809  WRITERS CIR,BRENTWOOD,TN,37027
2369,3417  WOODLAND STAR WAY,NASHVILLE,TN,37207
2370,2060  KIRKWALL DR,NOLENSVILLE,TN,37135
2371,26  WHITE BRIDGE PIKE,NASHVILLE,TN,37205
2372,82  WHITE BRIDGE PIKE,NASHVILLE,TN,37205
2373,738  JAMES AVE,NASHVILLE,TN,37209
2374,731  MILL CREEK MEADOW DR,NASHVILLE,TN,37214
2375,703  MILL CREEK MEADOW DR,NASHVILLE,TN,37214
2376,2001  VILLAGE PARK CIR,OLD HICKORY,TN,37138
2377,4976  CHUTNEY DR,ANTIOCH,TN,37013
2378,7629  VERANDA CT,NEWPORT,TN,37221
2379,5608B2  PENNSYLVANIA AVE,NASHVILLE,TN,37209
2380,523A2  MOORE AVE,NASHVILLE,TN,37203
2381,781  COTTAGE PARK DR,NASHVILLE,TN,37207
2382,5009  SUNFLOWER LN,HERMITAGE,TN,37076
2383,4048  LIBERTON WAY,NOLENSVILLE,TN,37135
2384,4937  RIVERBANK DR,HERMITAGE,TN,37076
2385,9305  BARCO RD,BRENTWOOD,TN,37027
2386,3100  BELWOOD ST  301,NASHVILLE,TN,37203
2387,737  ARBOR TRACE CIR,NASHVILLE,TN,37207
2388,1312  DUNS LN,NOLENSVILLE,TN,37135
2389,5018  HARBOR RESERVE CV,HERMITAGE,TN,37076
2390,2524  NEWSOME MILL LN,NASHVILLE,TN,37221
2391,2081  KIRKWALL DR,NOLENSVILLE,TN,37135
2392,9413  KAPLAN AVE,BRENTWOOD,TN,37027
2393,500  CREATIVE WAY  19,MADISON,TN,37115
2394,1014  GRANBERY PARK DR,BRENTWOOD,TN,37027
2395,8080  BROCKMAN LN,NASHVILLE,TN,37211
2396,3410  SHELBY BOTTOMS BND,NASHVILLE,TN,37206
2397,1537  DAVIDGE DR,NASHVILLE,TN,37221
2398,1204  YELLOW HOP ALY,ANTIOCH,TN,37013
2399,1100  DR MARTIN L KING JR BLVD,NASHVILLE,TN,37203
2400,1373  MARITIME PRT,ANTIOCH,TN,37013
2401,2317B  FAIRCHILD CIR,NOLENSVILLE,TN,37135
2402,1344  MARITIME PRT,ANTIOCH,TN,37013
2403,227  STERLING POINT CIR,NASHVILLE,TN,37209
2404,749  BRADBURN VILLAGE WAY,ANTIOCH,TN,37013
2405,5417  RUFFIAN WAY,ANTIOCH,TN,37013
2406,5000  ARROGATE DR,ANTIOCH,TN,37013
2407,2369  FAIRCHILD CIR,NOLENSVILLE,TN,37135
2408,2405  PRAIRIE HILL DR,ANTIOCH,TN,37013
2409,727  BRADBURN VILLAGE WAY,ANTIOCH,TN,37013
2410,400  HERRON DR  103,NASHVILLE,TN,37210
2411,1898  MCKENNELL DR,NASHVILLE,TN,37206
2412,1119  LADY NASHVILLE DR,HERMITAGE,TN,37076
2413,209  MUIR AVE,NOLENSVILLE,TN,37135
2414,205  COLBERT WAY,NASHVILLE,TN,37206
2415,2141  PORTWAY ALY,NASHVILLE,TN,37207
2416,400  HERRON DR  120 B,NASHVILLE,TN,37210
2417,2164  CAREFREE LN,ANTIOCH,TN,37013
2418,1325  DUNS LN,NOLENSVILLE,TN,37135
2419,2023  BROADWAY   HOTEL REST,NASHVILLE,TN,37203
2420,4704  STONEY POINT CV,ANTIOCH,TN,37013
2421,9425  KAPLAN AVE,BRENTWOOD,TN,37027
2422,1029  TREVINO PL,ANTIOCH,TN,37013
2423,2465  PRAIRIE HILL DR,ANTIOCH,TN,37013
2424,4348  STONE HALL BLVD,HERMITAGE,TN,37076
2425,400  HERRON DR  105,NASHVILLE,TN,37210
2426,400  HERRON DR  306,NASHVILLE,TN,37210
2427,3408  SHELBY BOTTOMS BND,NASHVILLE,TN,37206
2428,733  MILL CREEK MEADOW DR,NASHVILLE,TN,37214
2429,1428  WHITE DUTCH LN,ANTIOCH,TN,37013
2430,950  BRITTANY PARK DR  1,ANTIOCH,TN,37013
2431,104  BURKITT COMMONS AVE,BRENTWOOD,TN,37027
2432,1000  59TH AVE N,NASHVILLE,TN,37209
2433,1912  GRACE POINT LN,NOLENSVILLE,TN,37135
2434,934  GOVERNORS CT  307,ANTIOCH,TN,37013
2435,4002  LIBERTON WAY,NOLENSVILLE,TN,37135
2436,1902  GRACE POINT LN  202,NOLENSVILLE,TN,37135
2437,2261  BELLE CREEK WAY,NASHVILLE,TN,37221
2438,138  LIGHTWOOD DR,ANTIOCH,TN,37013
2439,400  HERRON DR  309,NASHVILLE,TN,37210
2440,905  FAIRDALE CT,NASHVILLE,TN,37221
2441,1898  RANDOLPH PL,NASHVILLE,TN,37215
2442,4057  LIBERTON WAY,NOLENSVILLE,TN,37135
2443,5025  SUNFLOWER LN,HERMITAGE,TN,37076
2444,5020  MOORGATE DR,ANTIOCH,TN,37013
2445,1024  LAWSONS RIDGE DR,NASHVILLE,TN,37218
2446,8064  BROCKMAN LN,NASHVILLE,TN,37211
2447,1300  DUNS LN,NOLENSVILLE,TN,37135
2448,753  BRADBURN VILLAGE WAY,ANTIOCH,TN,37013
2449,2409  SOLOMON LN,NASHVILLE,TN,37209
2450,934  GOVERNORS CT  113,ANTIOCH,TN,37013
2451,4304  STONE HALL BLVD,HERMITAGE,TN,37076
2452,2056  KIRKWALL DR,NOLENSVILLE,TN,37135
2453,1201  DUNS LN,NOLENSVILLE,TN,37135
2454,719  MILL CREEK MEADOW DR,NASHVILLE,TN,37214
2455,5012  ARROGATE DR,ANTIOCH,TN,37013
2456,1217  DUNS LN,NOLENSVILLE,TN,37135
2457,105  LIGHTWOOD DR,ANTIOCH,TN,37013
2458,1938B  GRACE POINT LN,NOLENSVILLE,TN,37135
2459,2135  PORTWAY ALY,NASHVILLE,TN,37207
2460,154  LIGHTWOOD DR,ANTIOCH,TN,37013
2461,200  MUIR AVE,BRENTWOOD,TN,37027
2462,5566  HAMILTON CIR,NASHVILLE,TN,37013
2463,500  CREATIVE WAY  11,MADISON,TN,37115
2464,3100  BELWOOD ST  201,NASHVILLE,TN,37203
2465,2160  CAREFREE LN,ANTIOCH,TN,37013
2466,3100  BELWOOD ST  301B,NASHVILLE,TN,0
2467,2996B  JENRY DR,NASHVILLE,TN,37214
2468,1212  SUMMER SHADE DR,ANTIOCH,TN,37013
2469,5503A2  TENNESSEE AVE,NASHVILLE,TN,37209
2470,747  BRADBURN VILLAGE WAY,ANTIOCH,TN,37013
2471,808  SAM PATCH CT,HERMITAGE,TN,37076
2472,934  GOVERNORS CT  107,ANTIOCH,TN,37013
2473,221  ZENYATTA DR,ANTIOCH,TN,37013
2474,2249  BELLE CREEK WAY,NASHVILLE,TN,37221
2475,748  BRADBURN VILLAGE WAY,ANTIOCH,TN,37013
2476,1845  SPRUCEWOOD LN,NASHVILLE,TN,37211
2477,1774  WOODSONG DR,BRENTWOOD,TN,37027
2478,1320  HAVENBROOK DR,NASHVILLE,TN,37207
2479,905  LATTING DR,HERMITAGE,TN,37076
2480,3796  BEDFORD AVE  202,NASHVILLE,TN,37215
2481,7439  MARONEY DR,ANTIOCH,TN,37013
2482,4075  LIBERTON WAY,NOLENSVILLE,TN,37135
2483,130  LIFEWAY PLZ,NASHVILLE,TN,37203
2484,2203  VILLAGE PARK CT,OLD HICKORY,TN,37138
2485,415  ANCHOR RESERVE CV,HERMITAGE,TN,37076
2486,772  COTTAGE PARK DR,NASHVILLE,TN,37207
2487,23  WHITE BRIDGE PIKE,NASHVILLE,TN,37205
2488,742  BRADBURN VILLAGE WAY,ANTIOCH,TN,37013
2489,9424  KAPLAN AVE,BRENTWOOD,TN,37027
2490,5562  HAMILTON CIR,NASHVILLE,TN,37013
2491,2464  PRAIRIE HILL DR,ANTIOCH,TN,37013
2492,9409  KAPLAN AVE,BRENTWOOD,TN,37027
2493,9433  KAPLAN AVE,BRENTWOOD,TN,37027
2494,400  HERRON DR  318,NASHVILLE,TN,37210
2495,1000  AMBERWOOD CIR  CLUB HOUSE,NASHVILLE,TN,37221
2496,4001  LIBERTON WAY,NOLENSVILLE,TN,37135
2497,776  COTTAGE PARK DR,NASHVILLE,TN,37207
2498,4808  SANDYROCK LN,ANTIOCH,TN,37013
2499,1320  MARITIME PRT,ANTIOCH,TN,37013
2500,409  ANCHOR RESERVE CV,HERMITAGE,TN,37076
2501,2221  BELLE CREEK WAY,NASHVILLE,TN,37221
2502,5043  UPPER PARK PL,ANTIOCH,TN,37013
2503,813  HAMILTON CROSSINGS,ANTIOCH,TN,37013
2504,3803  OCTOBER WOODS DR,ANTIOCH,TN,37013
2505,4036  MAGNOLIA FARMS DR,HERMITAGE,TN,37076
2506,400  HERRON DR  414,NASHVILLE,TN,37210
2507,1019  RICHLAND CREEK ALY,NASHVILLE,TN,37209
2508,1717A2  3RD AVE N,NASHVILLE,TN,37208
2509,1420  WHITE DUTCH LN,ANTIOCH,TN,37013
2510,4304A2  DAKOTA AVE,NASHVILLE,TN,37209
2511,82  EVANSTON AVE,NASHVILLE,TN,37207
2512,1584  WINDING CREEK DR,NOLENSVILLE,TN,37135
2513,500  CREATIVE WAY  9,MADISON,TN,37115
2514,830  ASHLAND PLACE DR,NASHVILLE,TN,37218
2515,6003A2  PENNSYLVANIA AVE,NASHVILLE,TN,37209
2516,833  HAMILTON CROSSINGS,ANTIOCH,TN,37013
2517,9416  KAPLAN AVE,BRENTWOOD,TN,37027
2518,5013  ARROGATE DR,ANTIOCH,TN,37013
2519,823  VIBE PL,NASHVILLE,TN,37216
2520,2156  CAREFREE LN,ANTIOCH,TN,37013
2521,2209  BELLE CREEK WAY,NASHVILLE,TN,37221
2522,1037  GRANBERY PARK DR,BRENTWOOD,TN,37027
2523,1251  HILLWOOD PRIVATE CV,NASHVILLE,TN,37209
2524,2404  SERENE DR,ANTIOCH,TN,37013
2525,1259  HILLWOOD PRIVATE CV,NASHVILLE,TN,37209
2526,4064  LIBERTON WAY,NOLENSVILLE,TN,37135
2527,3724  HILLTOP LN,NASHVILLE,TN,37216
2528,3406  BRISTOL ALY,NOLENSVILLE,TN,37135
2529,5605A2  TENNESSEE AVE,NASHVILLE,TN,37209
2530,461  TUNE AIRPORT DR,NASHVILLE,TN,37209
2531,1912A2  9TH AVE N,NASHVILLE,TN,37208
2532,1314  HAVENBROOK DR,NASHVILLE,TN,37207
2533,4032  MAGNOLIA FARMS DR,HERMITAGE,TN,37076
2534,804  VIBE PL,NASHVILLE,TN,37216
2535,1334  HAVENBROOK DR,NASHVILLE,TN,37207
2536,2532  NEWSOME MILL LN,NASHVILLE,TN,37221
2537,1849  SPRUCEWOOD LN,NASHVILLE,TN,37211
2538,2377  FAIRCHILD CIR,NOLENSVILLE,TN,37135
2539,9404  KAPLAN AVE,BRENTWOOD,TN,37027
2540,2408  SOLOMON LN,NASHVILLE,TN,37207
2541,2936  JENRY DR,NASHVILLE,TN,37214
2542,1319A2  MERIDIAN ST,NASHVILLE,TN,37207
2543,1353  MARITIME PRT,ANTIOCH,TN,37013
2544,7538  STATION DR,NASHVILLE,TN,37221
2545,150  LIGHTWOOD DR,ANTIOCH,TN,37013
2546,1304  BUSIRIS DR,HERMITAGE,TN,37076
2547,500  CREATIVE WAY  15,MADISON,TN,37115
2548,400  HERRON DR  119,NASHVILLE,TN,37210
2549,1709B2  4TH AVE N,NASHVILLE,TN,37208
2550,1333  BUSIRIS DR,HERMITAGE,TN,37076
2551,5013  MOORGATE DR,ANTIOCH,TN,37013
2552,2717  GOSSETT TRL,NASHVILLE,TN,37221
2553,872  BLOOMDALE TRCE,HERMITAGE,TN,37076
2554,400  HERRON DR  401,NASHVILLE,TN,37210
2555,5006A2  INDIANA AVE,NASHVILLE,TN,37209
2556,833  HAMILTON CROSSINGS,ANTIOCH,TN,37013
2557,4929  RIVERBANK DR,HERMITAGE,TN,37076
2558,1513  DAVIDGE DR,NASHVILLE,TN,37221
2559,1009  TREVINO PL,ANTIOCH,TN,37013
2560,4062  LIBERTON WAY,NOLENSVILLE,TN,37135
2561,1216  DUNS LN,NOLENSVILLE,TN,37135
2562,1224  SUMMER SHADE DR,ANTIOCH,TN,37013
2563,2038  VILLAGE PARK CIR,OLD HICKORY,TN,37138
2564,5047  UPPER PARK PL,ANTIOCH,TN,37013
2565,4933  RIVERBANK DR,HERMITAGE,TN,37076
2566,705  ELLIE DR,MADISON,TN,37115
2567,2155  CAREFREE LN,ANTIOCH,TN,37013
2568,951  BRITTANY PARK DR  700-741,ANTIOCH,TN,37013
2569,500  CREATIVE WAY  18,MADISON,TN,37115
2570,4941  RIVERBANK DR,HERMITAGE,TN,37076
2571,1328  HAVENBROOK DR,NASHVILLE,TN,37207
2572,913  FAIRDALE CT,NASHVILLE,TN,37221
2573,1519A2  WARD AVE,NASHVILLE,TN,37206
2574,2117  BELLE CREEK WAY,NASHVILLE,TN,37221
2575,1021  TREVINO PL,ANTIOCH,TN,37013
2576,912  GOVERNORS CT,ANTIOCH,TN,37013
2577,504  VERNON CIR,NASHVILLE,TN,37209
2578,3412  BRISTOL ALY,NOLENSVILLE,TN,37135
2579,161  LIGHTWOOD DR,ANTIOCH,TN,37013
2580,5041  UPPER PARK PL,ANTIOCH,TN,37013
2581,740  BRADBURN VILLAGE WAY,ANTIOCH,TN,37013
2582,909  LATTING DR,HERMITAGE,TN,37076
2583,2745  GOSSETT TRL,NASHVILLE,TN,37221
2584,2515  SOLOMON LN,NASHVILLE,TN,37207
2585,6345B2  COLUMBIA AVE,NASHVILLE,TN,37209
2586,2513  PRAIRIE HILL DR,ANTIOCH,TN,37013
2587,1208  SUMMER SHADE DR,ANTIOCH,TN,37013
2588,1609  MARSHALL HOLLOW DR  303,NASHVILLE,TN,37203
2589,5509  CALCUTTA CT,HERMITAGE,TN,37076
2590,849  HAMILTON CROSSINGS,ANTIOCH,TN,37013
2591,4363  STONE HALL BLVD,HERMITAGE,TN,37076
2592,1609  MARSHALL HOLLOW DR  201,NASHVILLE,TN,37203
2593,6011A2  PENNSYLVANIA AVE,NASHVILLE,TN,37209
2594,2421  SOLOMON LN,NASHVILLE,TN,37207
2595,22  RUTLEDGE ST  (CITY LIGHTS POOL & TERRACE AREA),NASHVILLE,TN,37210
2596,5076  SUNFLOWER LN,HERMITAGE,TN,37076
2597,741  BRADBURN VILLAGE WAY,ANTIOCH,TN,37013
2598,2429  SOLOMON LN,NASHVILLE,TN,37207
2599,712A2  WOODMERE DR,NASHVILLE,TN,37217
2600,1541  DAVIDGE DR,NASHVILLE,TN,37221
2601,3209  LONGSTALK RD,ANTIOCH,TN,37013
2602,1608  MARSHALL HOLLOW DR  103,NASHVILLE,TN,37203
2603,741  MILL CREEK MEADOW DR,NASHVILLE,TN,37214
2604,1609  MARSHALL HOLLOW DR,NASHVILLE,TN,37203
2605,1608  MARSHALL HOLLOW DR  201,NASHVILLE,TN,37203
2606,845  VIBE PL,NASHVILLE,TN,37216
2607,2512  SOLOMON LN,NASHVILLE,TN,37207
2608,1988  CAROTHERS RD,NOLENSVILLE,TN,37135
2609,1444  WHITE DUTCH LN,ANTIOCH,TN,37013
2610,1917B2  DELTA AVE,NASHVILLE,TN,37208
2611,400  HERRON DR  317,NASHVILLE,TN,37210
2612,400  HERRON DR  402,NASHVILLE,TN,37210
2613,1102A2 N 8TH ST,NASHVILLE,TN,37207
2614,717  BRADBURN VILLAGE WAY,ANTIOCH,TN,37013
2615,6204B2  CALIFORNIA AVE,NASHVILLE,TN,37209
2616,2516  PRAIRIE HILL DR,ANTIOCH,TN,37013
2617,2125  PORTWAY ALY,NASHVILLE,TN,37207
2618,2200  VILLAGE PARK CT,OLD HICKORY,TN,37138
2619,3772  NOLENSVILLE PIKE  RENT A CEN,NASHVILLE,TN,37211
2620,1101  RYMER CT,OLD HICKORY,TN,37138
2621,4908  RIVERBANK DR,HERMITAGE,TN,37076
2622,1588  WINDING CREEK DR,NOLENSVILLE,TN,37135
2623,951C  BRITTANY PARK DR,ANTIOCH,TN,37013
2624,5609B2  TENNESSEE AVE,NASHVILLE,TN,37209
2625,501  PLEASANT ST,NOLENSVILLE,TN,37135
2626,2412  SERENE DR,ANTIOCH,TN,37013
2627,5526  HAMILTON CIR,ANTIOCH,TN,37013
2628,6003B2  PENNSYLVANIA AVE,NASHVILLE,TN,37209
2629,1319  HAVENBROOK DR,NASHVILLE,TN,37207
2630,5568  HAMILTON CIR,NASHVILLE,TN,37013
2631,5202B2  LOUISIANA AVE,NASHVILLE,TN,37209
2632,212  ZENYATTA DR,ANTIOCH,TN,37013
2633,2998  BELWOOD ST,NASHVILLE,TN,37203
2634,730  BRADBURN VILLAGE WAY,ANTIOCH,TN,37013
2635,9301  BARCO RD,BRENTWOOD,TN,37027
2636,1341  BUSIRIS DR,HERMITAGE,TN,37076
2637,1028  TREVINO PL,ANTIOCH,TN,37013
2638,400  HERRON DR  201,NASHVILLE,TN,37210
2639,853  VIBE PL,NASHVILLE,TN,37216
2640,1903B2  14TH AVE N,NASHVILLE,TN,37208
2641,5105  HELMSDALE CT,HERMITAGE,TN,37076
2642,400  HERRON DR  302,NASHVILLE,TN,37210
2643,829  HAMILTON CROSSINGS,ANTIOCH,TN,37013
2644,211  STERLING POINT CIR,NASHVILLE,TN,37209
2645,6204A2  PENNSYLVANIA AVE,NASHVILLE,TN,37209
2646,212  MUIR AVE,NOLENSVILLE,TN,37135
2647,0  UNKNOWN,NASHVILLE,TN,0
2648,11  THE ARCADE   SMOKE SHOP,NASHVILLE,TN,37219
2649,1205  SUMMER SHADE DR,ANTIOCH,TN,37013
2650,1369  MARITIME PRT,ANTIOCH,TN,37013
2651,901  PERIMETER CT,NASHVILLE,TN,37214
2652,4985  CHUTNEY DR,ANTIOCH,TN,37013
2653,113  BURKITT COMMONS AVE,BRENTWOOD,TN,37027
2654,2319  FAIRCHILD CIR,NOLENSVILLE,TN,37135
2655,2000  VILLAGE PARK CIR,OLD HICKORY,TN,37138
2656,1803  WRITERS CIR,BRENTWOOD,TN,37027
2657,1104B2 N 8TH ST,NASHVILLE,TN,37207
2658,1608  MARSHALL HOLLOW DR  104,NASHVILLE,TN,37203
2659,4996  CHUTNEY DR,ANTIOCH,TN,37013
2660,5108  KENSAL DR,ANTIOCH,TN,37013
2661,1104  LADY NASHVILLE DR,HERMITAGE,TN,37076
2662,910  GOVERNORS CT,ANTIOCH,TN,37013
2663,1009  CLOVER GLEN WAY,ANTIOCH,TN,37013
2664,739  MILL CREEK MEADOW DR,NASHVILLE,TN,37214
2665,934  GOVERNORS CT  303,ANTIOCH,TN,37013
2666,5036  BROADWAY PL  216,NASHVILLE,TN,37203
2667,1324  HAVENBROOK DR,NASHVILLE,TN,37207
2668,5035  UPPER PARK PL,ANTIOCH,TN,37013
2669,5020  HARBOR RESERVE CV,HERMITAGE,TN,37076
2670,4070  LIBERTON WAY,NOLENSVILLE,TN,37135
2671,6204A2  CALIFORNIA AVE,NASHVILLE,TN,37209
2672,4375  STONE HALL BLVD,HERMITAGE,TN,37076
2673,6131  OBRIEN AVE,NASHVILLE,TN,37209
2674,4236  DYSANT ALY,NOLENSVILLE,TN,37135
2675,2200  AUSTIN AVE,NASHVILLE,TN,37210
2676,1005  TREVINO PL,ANTIOCH,TN,37013
2677,1309  BUSIRIS DR,HERMITAGE,TN,37076
2678,129  LIGHTWOOD DR,ANTIOCH,TN,37013
2679,500  CREATIVE WAY  17,MADISON,TN,37115
2680,839  VIBE PL,NASHVILLE,TN,37216
2681,500  CREATIVE WAY  24,MADISON,TN,37115
2682,513  PLEASANT ST,NOLENSVILLE,TN,37135
2683,741  BLOOMDALE TRCE,HERMITAGE,TN,37076
2684,2031  VILLAGE PARK CIR,OLD HICKORY,TN,37138
2685,8021  BROCKMAN LN,NASHVILLE,TN,37211
2686,5064  SUNFLOWER LN,HERMITAGE,TN,37076
2687,879  BLOOMDALE TRCE,HERMITAGE,TN,37076
2688,6210B2  CALIFORNIA AVE,NASHVILLE,TN,37209
2689,2512  NEWSOME MILL LN,NASHVILLE,TN,37221
2690,7300  MARONEY DR,ANTIOCH,TN,37013
2691,101  BURKITT COMMONS AVE,BRENTWOOD,TN,37027
2692,2380  FAIRCHILD CIR,NOLENSVILLE,TN,37135
2693,1017  CLOVER GLEN WAY,ANTIOCH,TN,37013
2694,2325  FAIRCHILD CIR,NOLENSVILLE,TN,37135
2695,415  IONA WAY,BRENTWOOD,TN,37027
2696,1805  SPRUCEWOOD LN,NASHVILLE,TN,37211
2697,1320  GREENSTONE LN,NASHVILLE,TN,37221
2698,2725  GOSSETT TRL,NASHVILLE,TN,37221
2699,892  BLOOMDALE TRCE,HERMITAGE,TN,37076
2700,1032  TREVINO PL,ANTIOCH,TN,37013
2701,1356  MARITIME PRT,ANTIOCH,TN,37013
2702,2468  PRAIRIE HILL DR,ANTIOCH,TN,37013
2703,5306  LAKE MAXWELL DR,ANTIOCH,TN,37013
2704,1432B  WHITE DUTCH LN,ANTIOCH,TN,37013
2705,501  VERNON CIR,NASHVILLE,TN,37209
2706,515  PLEASANT ST,NOLENSVILLE,TN,37135
2707,1414B  WHITE DUTCH LN,ANTIOCH,TN,37013
2708,1013  TREVINO PL,ANTIOCH,TN,37013
2709,1324  GREENSTONE LN,NASHVILLE,TN,37221
2710,2948  JENRY DR,NASHVILLE,TN,37214
2711,5835  WOODLAND HILLS DR,NASHVILLE,TN,37211
2712,5298  LAKE MAXWELL DR,ANTIOCH,TN,37013
2713,6210A2  CALIFORNIA AVE,NASHVILLE,TN,37209
2714,735  BRADBURN VILLAGE WAY,ANTIOCH,TN,37013
2715,1352  MARITIME PRT,ANTIOCH,TN,37013
2716,848  BLOOMDALE TRCE,HERMITAGE,TN,37076
2717,7633  VERANDA CT,NASHVILLE,TN,37221
2718,5005  RIVERBANK DR,HERMITAGE,TN,37076
2719,3005  LANARK DR,NOLENSVILLE,TN,37135
2720,6204A2  NEW YORK AVE,NASHVILLE,TN,37209
2721,1016  TREVINO PL,ANTIOCH,TN,37013
2722,2118  NOTCHLEAF RD,ANTIOCH,TN,37013
2723,1325  HAVENBROOK DR,NASHVILLE,TN,37207
2724,920  PERIMETER CT,NASHVILLE,TN,37214
2725,400  HERRON DR  316,NASHVILLE,TN,37210
2726,4717  STONEY POINT CV,ANTIOCH,TN,37013
2727,814  VIBE PL,NASHVILLE,TN,37216
2728,924  GOVERNORS CT,ANTIOCH,TN,37013
2729,1822A2  11TH AVE N,NASHVILLE,TN,37208
2730,5503C2  TENNESSEE AVE,NASHVILLE,TN,37209
2731,1104  OLD HICKORY BLVD,MADISON,TN,37115
2732,400  HERRON DR  312,NASHVILLE,TN,37210
2733,700HM  MILL CREEK MEADOW DR,NASHVILLE,TN,37214
2734,5037  UPPER PARK PL,ANTIOCH,TN,37013
2735,26  WHITE BRIDGE PIKE,NASHVILLE,TN,37205
2736,500  CREATIVE WAY  2,MADISON,TN,37115
2737,102  BURKITT COMMONS AVE,BRENTWOOD,TN,37027
2738,130B2  RAINS AVE,NASHVILLE,TN,37203
2739,5453  RUFFIAN WAY,ANTIOCH,TN,37013
2740,726  BRADBURN VILLAGE WAY,ANTIOCH,TN,37013
2741,5515  SCRUGGS LN  601-624,NASHVILLE,TN,37207
2742,934  GOVERNORS CT  214,ANTIOCH,TN,37013
2743,9444  KAPLAN AVE,BRENTWOOD,TN,37027
2744,9465  KAPLAN AVE,BRENTWOOD,TN,37027
2745,1053  GRANBERY PARK DR,BRENTWOOD,TN,37027
2746,1309  DUNS LN,NOLENSVILLE,TN,37135
2747,2240  BELLE CREEK WAY,NASHVILLE,TN,37221
2748,943  DR RICHARD G ADAMS DR,NASHVILLE,TN,37207
2749,1416B  WHITE DUTCH LN,ANTIOCH,TN,37013
2750,2200  CHILDRENS WAY  CHILDRENS,NASHVILLE,TN,37212
2751,3430  SHELBY BOTTOMS BND,NASHVILLE,TN,37206
2752,4204  DYSANT ALY,NOLENSVILLE,TN,37135
2753,4204  HERMITAGE RD,HERMITAGE,TN,37076
2754,950  MADISON SQ  STICKS'N'S,MADISON,TN,37115
2755,2005  VILLAGE PARK CIR,OLD HICKORY,TN,37138
2756,1304B2  PILLOW ST,NASHVILLE,TN,37203
2757,2742  GOSSETT TRL,NASHVILLE,TN,37221
2758,1332  BUSIRIS DR,HERMITAGE,TN,37076
2759,4320  STONE HALL BLVD,HERMITAGE,TN,37076
2760,832  ASHLAND PLACE DR,NASHVILLE,TN,37218
2761,950  BRITTANY PARK DR,ANTIOCH,TN,37013
2762,0  CENTENNIAL BLVD,NASHVILLE,TN,37209
2763,4992  CHUTNEY DR,ANTIOCH,TN,37013
2764,1110A2 N 6TH ST,NASHVILLE,TN,37207
2765,9464  KAPLAN AVE,BRENTWOOD,TN,37027
2766,400  HERRON DR  305,NASHVILLE,TN,37210
2767,208D2  MYRTLE ST,NASHVILLE,TN,37206
2768,833  VIBE PL,NASHVILLE,TN,37216
2769,1312  HAVENBROOK DR,NASHVILLE,TN,37207
2770,5532  HAMILTON CIR,ANTIOCH,TN,37013
2771,1304A2  PILLOW ST,NASHVILLE,TN,37203
2772,1001  CLOVER GLEN WAY,ANTIOCH,TN,37013
2773,503  VERNON CIR,NASHVILLE,TN,37209
2774,4132  MAGNOLIA FARMS DR,HERMITAGE,TN,37076
2775,0  BROOKLYN AVE,NASHVILLE,TN,37207
2776,5029  UPPER PARK PL,ANTIOCH,TN,37013
2777,3428  SHELBY BOTTOMS BND,NASHVILLE,TN,37206
2778,9448  KAPLAN AVE,BRENTWOOD,TN,37027
2779,711  BRADBURN VILLAGE WAY,ANTIOCH,TN,37013
2780,1609  MARSHALL HOLLOW DR  103,NASHVILLE,TN,37203
2781,400  HERRON DR  403,NASHVILLE,TN,37210
2782,9282  BARCO RD,BRENTWOOD,TN,37027
2783,503B  PLEASANT ST,NOLENSVILLE,TN,37135
2784,1212  DUNS LN,NOLENSVILLE,TN,37135
2785,934  GOVERNORS CT  301,ANTIOCH,TN,37013
2786,1512  DAVIDGE DR,NASHVILLE,TN,37221
2787,1054  GRANBERY PARK DR,BRENTWOOD,TN,37027
2788,4216  SUMMERCREST BLVD,ANTIOCH,TN,37013
2789,2505  BLACKPOOL CT,NASHVILLE,TN,37211
2790,5214A2  LOUISIANA AVE,NASHVILLE,TN,37209
2791,5021  HARBOR RESERVE CV,HERMITAGE,TN,37076
2792,950  BRITTANY PARK DR  100-127,ANTIOCH,TN,37013
2793,930  GOVERNORS CT,ANTIOCH,TN,37013
2794,614B2 N 2ND ST,NASHVILLE,TN,37207
2795,1624  MARSHALL HOLLOW DR,NASHVILLE,TN,37203
2796,2136  CAREFREE LN,ANTIOCH,TN,37013
2797,4009  LIBERTON WAY,NOLENSVILLE,TN,37135
2798,120  BURKITT COMMONS AVE,NOLENSVILLE,TN,37135
2799,5266  LAKE MAXWELL DR,ANTIOCH,TN,37013
2800,8060  BROCKMAN LN,NASHVILLE,TN,37211
2801,0  UNKNOWN,NASHVILLE,TN,0
2802,500  CREATIVE WAY  14,MADISON,TN,37115
2803,4316  STONE HALL BLVD,HERMITAGE,TN,37076
2804,5033  UPPER PARK PL,ANTIOCH,TN,37013
2805,5606B2  PENNSYLVANIA AVE,NASHVILLE,TN,37209
2806,5024  MOORGATE DR,NASHVILLE,TN,37013
2807,1128  LADY NASHVILLE DR,HERMITAGE,TN,37076
2808,4820  SANDYROCK LN,ANTIOCH,TN,37013
2809,3100B  HOSPITAL LN,NASHVILLE,TN,37218
2810,4053  LIBERTON WAY,NOLENSVILLE,TN,37135
2811,4344  STONE HALL BLVD,HERMITAGE,TN,37076
2812,934  GOVERNORS CT  201,ANTIOCH,TN,37013
2813,851  BLOOMDALE TRCE,HERMITAGE,TN,37076
2814,4202  DYSANT ALY,NOLENSVILLE,TN,37135
2815,805  HAMILTON CROSSINGS,ANTIOCH,TN,37013
2816,9421  KAPLAN AVE,BRENTWOOD,TN,37027
2817,1308  BUSIRIS DR,HERMITAGE,TN,37076
2818,2301  SHADOW LN,NASHVILLE,TN,37216
2819,511  PLEASANT ST,NOLENSVILLE,TN,37135
2820,713  MILL CREEK MEADOW DR,NASHVILLE,TN,37214
2821,2012  VILLAGE PARK CIR,OLD HICKORY,TN,37138
2822,1305  BUSIRIS DR,HERMITAGE,TN,37076
2823,111  BURKITT COMMONS AVE,BRENTWOOD,TN,37027
2824,805  HAMILTON CROSSINGS,ANTIOCH,TN,37013
2825,321  HART ST,NASHVILLE,TN,37210
2826,750  BRADBURN VILLAGE WAY,ANTIOCH,TN,37013
2827,208  ZENYATTA DR,ANTIOCH,TN,37013
2828,2437  SOLOMON LN,NASHVILLE,TN,37207
2829,4234  DYSANT ALY,NOLENSVILLE,TN,37135
2830,1825A2  4TH AVE N,NASHVILLE,TN,37208
2831,2202  VILLAGE PARK CT,OLD HICKORY,TN,37138
2832,500  VERNON CIR,NASHVILLE,TN,37209
2833,1026  GRANBERY PARK DR,BRENTWOOD,TN,37027
2834,1916B  GRACE POINT LN,NOLENSVILLE,TN,37135
2835,1509  STRONG ALY,NOLENSVILLE,TN,37135
2836,4005  LIBERTON WAY,NOLENSVILLE,TN,37135
2837,1018B  GRANBERY PARK DR,BRENTWOOD,TN,37027
2838,6215A2  NEW YORK AVE,NASHVILLE,TN,37209
2839,2212  BELLE CREEK WAY,NASHVILLE,TN,37221
2840,810  VIBE PL,NASHVILLE,TN,37216
2841,5541  MULLIGAN CT,HERMITAGE,TN,37076
2842,500  CREATIVE WAY  3,MADISON,TN,37115
2843,243  STERLING POINT CIR,NASHVILLE,TN,37209
2844,1428B  WHITE DUTCH LN,ANTIOCH,TN,37013
2845,2124  CAREFREE LN,ANTIOCH,TN,37013
2846,4981  RIVERBANK DR,HERMITAGE,TN,37076
2847,5552  HAMILTON CIR,NASHVILLE,TN,37013
2848,1309  GREENSTONE LN,NASHVILLE,TN,37221
2849,500  CREATIVE WAY  21,MADISON,TN,37115
2850,843  BLOOMDALE TRCE,HERMITAGE,TN,37076
2851,1430B  WHITE DUTCH LN,ANTIOCH,TN,37013
2852,5026  HARBOR RESERVE CV,HERMITAGE,TN,37076
2853,308  LOIS ALY,NASHVILLE,TN,37214
2854,1016  TREVINO PL,ANTIOCH,TN,37013
2855,3425B  TIFFANY DR,NASHVILLE,TN,37206
2856,400  HERRON DR  111,NASHVILLE,TN,37210
2857,411A2  36TH AVE N,NASHVILLE,TN,37209
2858,1904  GRACE POINT LN,NOLENSVILLE,TN,37135
2859,1  J M FROST PLZ,NASHVILLE,TN,37203
2860,302  COLBERT WAY,NASHVILLE,TN,37206
2861,145  MONTGOMERY BELL AVE,NASHVILLE,TN,37205
2862,5448  RUFFIAN WAY,ANTIOCH,TN,37013
2863,5108B2  INDIANA AVE,NASHVILLE,TN,37209
2864,2507  SOLOMON LN,NASHVILLE,TN,37207
2865,5025  MOORGATE DR,ANTIOCH,TN,37013
2866,752  BLOOMDALE TRCE,HERMITAGE,TN,37076
2867,802  VIBE PL,NASHVILLE,TN,37216
2868,4052  LIBERTON WAY,NOLENSVILLE,TN,37135
2869,500  CREATIVE WAY  6,MADISON,TN,37115
2870,2730  GOSSETT TRL,NASHVILLE,TN,37221
2871,4312  STONE HALL BLVD,HERMITAGE,TN,37076
2872,829  VIBE PL,NASHVILLE,TN,37216
2873,400  HERRON DR  220,NASHVILLE,TN,37210
2874,884  BLOOMDALE TRCE,HERMITAGE,TN,37076
2875,950  BRITTANY PARK DR  200-234,ANTIOCH,TN,37013
2876,4072  LIBERTON WAY,NOLENSVILLE,TN,37135
2877,5120  KENSAL DR,ANTIOCH,TN,37013
2878,4812  SANDYROCK LN,ANTIOCH,TN,37013
2879,400  HERRON DR  206,NASHVILLE,TN,37210
2880,513  IVOR ST,BRENTWOOD,TN,37027
2881,0  ASHLAND CITY HWY,NASHVILLE,TN,37218
2882,109  BURKITT COMMONS AVE,BRENTWOOD,TN,37027
2883,5207B2  MICHIGAN AVE,NASHVILLE,TN,37209
2884,1709A2  4TH AVE N,NASHVILLE,TN,37208
2885,1992  CAROTHERS RD,NOLENSVILLE,TN,37135
2886,1020  TREVINO PL,ANTIOCH,TN,37013
2887,9472  KAPLAN AVE,BRENTWOOD,TN,37027
2888,2321  FAIRCHILD CIR,NOLENSVILLE,TN,37135
2889,2514  SHINKLE AVE,NASHVILLE,TN,37206
2890,2460  PRAIRIE HILL DR,ANTIOCH,TN,37013
2891,5290  LAKE MAXWELL DR,ANTIOCH,TN,37013
2892,1792  WOODSONG DR,BRENTWOOD,TN,37027
2893,5025  ARROGATE DR,ANTIOCH,TN,37013
2894,4944  RIVERBANK DR,HERMITAGE,TN,37076
2895,8049  BROCKMAN LN,NASHVILLE,TN,37211
2896,304  COLBERT WAY,NASHVILLE,TN,37206
2897,2085  KIRKWALL DR,NOLENSVILLE,TN,37135
2898,2520  SOLOMON LN,NASHVILLE,TN,37207
2899,1031  RICHLAND CREEK ALY,NASHVILLE,TN,37209
2900,5476  RUFFIAN WAY,ANTIOCH,TN,37013
2901,1332  GREENSTONE LN,NASHVILLE,TN,37221
2902,841  HAMILTON CROSSINGS,ANTIOCH,TN,37013
2903,5578  HAMILTON CIR,NASHVILLE,TN,37013
2904,1029  GRANBERY PARK DR,BRENTWOOD,TN,37027
2905,4069  LIBERTON WAY,NOLENSVILLE,TN,37135
2906,934  GOVERNORS CT  105,ANTIOCH,TN,37013
2907,2216  BELLE CREEK WAY,NASHVILLE,TN,37221
2908,826  ASHLAND PLACE DR,NASHVILLE,TN,37218
2909,400  HERRON DR  301,NASHVILLE,TN,37210
2910,1102  OLD HICKORY BLVD,MADISON,TN,37115
2911,3424  WOODLAND STAR WAY,NASHVILLE,TN,37207
2912,2144  CAREFREE LN,ANTIOCH,TN,37013
2913,934  GOVERNORS CT  111,ANTIOCH,TN,37013
2914,1012  TREVINO PL,ANTIOCH,TN,37013
2915,1300  HAVENBROOK DR,NASHVILLE,TN,37207
2916,794  COTTAGE PARK DR,NASHVILLE,TN,37207
2917,132  MONTGOMERY BELL AVE,NASHVILLE,TN,37205
2918,614A2 N 2ND ST,NASHVILLE,TN,37207
2919,757  BLOOMDALE TRCE,HERMITAGE,TN,37076
2920,1609  MARSHALL HOLLOW DR  102,NASHVILLE,TN,37203
2921,2131  CAREFREE LN,ANTIOCH,TN,37013
2922,3009  LANARK DR,NOLENSVILLE,TN,37135
2923,1608  MARSHALL HOLLOW DR  203,NASHVILLE,TN,37203
2924,5017  RIVERBANK DR,HERMITAGE,TN,37076
2925,4073  LIBERTON WAY,NOLENSVILLE,TN,37135
2926,1357  DUNS LN,NOLENSVILLE,TN,37135
2927,1609  MARSHALL HOLLOW DR,NASHVILLE,TN,37203
2928,1614A2  6TH AVE N,NASHVILLE,TN,37208
2929,4206  DYSANT ALY,NOLENSVILLE,TN,37135
2930,2225  BELLE CREEK WAY,NASHVILLE,TN,37221
2931,1408  WHITE DUTCH LN,ANTIOCH,TN,37013
2932,4817  SANDYROCK LN,ANTIOCH,TN,37013
2933,1025  GRANBERY PARK DR,BRENTWOOD,TN,37027
2934,5105  SUNSET RIDGE LN,ANTIOCH,TN,37013
2935,2151  CAREFREE LN,ANTIOCH,TN,37013
2936,400  HERRON DR  221,NASHVILLE,TN,37210
2937,1910A2  11TH AVE N,NASHVILLE,TN,37208
2938,5072  SUNFLOWER LN,HERMITAGE,TN,37076
2939,6204B2  NEW YORK AVE,NASHVILLE,TN,37209
2940,400  HERRON DR  407,NASHVILLE,TN,37210
2941,312  LOIS ALY,NASHVILLE,TN,37214
2942,1052  NAVE CT,NASHVILLE,TN,37214
2943,9412  KAPLAN AVE,BRENTWOOD,TN,37027
2944,1116  LADY NASHVILLE DR,HERMITAGE,TN,37076
2945,900  GOVERNORS CT,ANTIOCH,TN,37013
2946,1008B2  VILLA PL,NASHVILLE,TN,37212
2947,934  GOVERNORS CT  210,ANTIOCH,TN,37013
2948,909B2  HALCYON AVE,NASHVILLE,TN,37204
2949,201  COLBERT WAY,NASHVILLE,TN,37206
2950,4340  STONE HALL BLVD,HERMITAGE,TN,37076
2951,1009  LAWSONS RIDGE DR,NASHVILLE,TN,37218
2952,3420  WOODLAND STAR WAY,NASHVILLE,TN,37207
2953,738  BRADBURN VILLAGE WAY,ANTIOCH,TN,37013
2954,2111  PORTWAY ALY,NASHVILLE,TN,37207
2955,1368  MARITIME PRT,ANTIOCH,TN,37013
2956,5023  HARBOR RESERVE CV,HERMITAGE,TN,37076
2957,7408  MARONEY DR,ANTIOCH,TN,37013
2958,118  BURKITT COMMONS AVE,NOLENSVILLE,TN,37135
2959,9321  BARCO RD,BRENTWOOD,TN,37027
2960,835  VIBE PL,NASHVILLE,TN,37216
2961,779  COTTAGE PARK DR,NASHVILLE,TN,37207
2962,4985  RIVERBANK DR,HERMITAGE,TN,37076
2963,1406B  WHITE DUTCH LN,ANTIOCH,TN,37013
2964,424  CREEDMORE DR,OLD HICKORY,TN,37138
2965,1103A2 N 5TH ST,NASHVILLE,TN,37207
2966,1377  MARITIME PRT,ANTIOCH,TN,37013
2967,505B  PLEASANT ST,NOLENSVILLE,TN,37135
2968,3809  OCTOBER WOODS DR,ANTIOCH,TN,37013
2969,1317  HAVENBROOK DR,NASHVILLE,TN,37207
2970,505  PLEASANT ST,NOLENSVILLE,TN,37135
2971,1825B2  4TH AVE N,NASHVILLE,TN,37208
2972,542  VERNON CIR,NASHVILLE,TN,37209
2973,420  CREEDMORE DR,OLD HICKORY,TN,37138
2974,400  HERRON DR  319,NASHVILLE,TN,37210
2975,3100B  HOSPITAL LN,NASHVILLE,TN,37218
2976,1317  GREENSTONE LN,NASHVILLE,TN,37221
2977,142  LIGHTWOOD DR,ANTIOCH,TN,37013
2978,1589  WINDING CREEK DR,NOLENSVILLE,TN,37135
2979,4712  STONEY POINT CV,ANTIOCH,TN,37013
2980,1520  DAVIDGE DR,NASHVILLE,TN,37221
2981,796  COTTAGE PARK DR,NASHVILLE,TN,37207
2982,0  OLD DUE WEST AVE,MADISON,TN,37115
2983,0  UNKNOWN,NASHVILLE,TN,0
2984,731  BRADBURN VILLAGE WAY,ANTIOCH,TN,37013
2985,5108A2  INDIANA AVE,NASHVILLE,TN,37209
2986,2100  CAREFREE LN,ANTIOCH,TN,37013
2987,217  ZENYATTA DR,ANTIOCH,TN,37013
2988,5456  RUFFIAN WAY,ANTIOCH,TN,37013
2989,1028  LAWSONS RIDGE DR,NASHVILLE,TN,37218
2990,7600B2  CABOT DR,NASHVILLE,TN,37209
2991,2147  CAREFREE LN,ANTIOCH,TN,37013
2992,4905  RIVERBANK DR,HERMITAGE,TN,37076
2993,5505  CALCUTTA CT,HERMITAGE,TN,37076
2994,2148  CAREFREE LN,ANTIOCH,TN,37013
2995,1021  TREVINO PL,ANTIOCH,TN,37013
2996,3408  BRISTOL ALY,NOLENSVILLE,TN,37135
2997,1046  GRANBERY PARK DR,BRENTWOOD,TN,37027
2998,1328  BUSIRIS DR,HERMITAGE,TN,37076
2999,1914B2  15TH AVE N,NASHVILLE,TN,37208
3000,717  MILL CREEK MEADOW DR,NASHVILLE,TN,37214
3001,108  PALMORE CT,NASHVILLE,TN,37221
3002,1316  HAVENBROOK DR,NASHVILLE,TN,37207
3003,1608  MARSHALL HOLLOW DR,NASHVILLE,TN,37203
3004,2440  PRAIRIE HILL DR,ANTIOCH,TN,37013
3005,210  MUIR AVE,NOLENSVILLE,TN,37135
3006,4701  STONEY POINT CV,ANTIOCH,TN,37013
3007,2027  VILLAGE PARK CIR,OLD HICKORY,TN,37138
3008,1333  DUNS LN,NOLENSVILLE,TN,37135
3009,6014  BLACKBERRY RIDGE LN,HERMITAGE,TN,37076
3010,1539  WINDING CREEK DR,NOLENSVILLE,TN,37135
3011,1253  HILLWOOD PRIVATE CV,NASHVILLE,TN,37209
3012,864  BLOOMDALE TRCE,HERMITAGE,TN,37076
3013,1302  HAVENBROOK DR,NASHVILLE,TN,37207
3014,934  GOVERNORS CT  204,ANTIOCH,TN,37013
3015,1340  MARITIME PRT,ANTIOCH,TN,37013
3016,400  HERRON DR  404,NASHVILLE,TN,37210
3017,2009  VILLAGE PARK CIR,OLD HICKORY,TN,37138
3018,1825A2  4TH AVE N,NASHVILLE,TN,37208
3019,9453  KAPLAN AVE,BRENTWOOD,TN,37027
3020,5437  RUFFIAN WAY,ANTIOCH,TN,37013
3021,1008  RICHLAND CREEK ALY,NASHVILLE,TN,37209
3022,8092  BROCKMAN LN,NASHVILLE,TN,37211
3023,2000A2  OAK TRAIL DR,NOLENSVILLE,TN,37135
3024,2524  SOLOMON LN,NASHVILLE,TN,37207
3025,425B  5TH AVE N,NASHVILLE,TN,37203
3026,400  HERRON DR  203,NASHVILLE,TN,37210
3027,4821  SANDYROCK LN,ANTIOCH,TN,37013
3028,4304B2  DAKOTA AVE,NASHVILLE,TN,37209
3029,113  LIGHTWOOD DR,ANTIOCH,TN,37013
3030,2436  PRAIRIE HILL DR,ANTIOCH,TN,37013
3031,2528  NEWSOME MILL LN,NASHVILLE,TN,37221
3032,4012  ARROWLEAF LN,ANTIOCH,TN,37013
3033,1317  BUSIRIS DR,HERMITAGE,TN,37076
3034,1809  PAISLEY DR,NOLENSVILLE,TN,37135
3035,2994  BELWOOD ST,NASHVILLE,TN,37203
3036,745  BLOOMDALE TRCE,HERMITAGE,TN,37076
3037,21  WHITE BRIDGE PIKE  104,NASHVILLE,TN,37205
3038,4049  LIBERTON WAY,NOLENSVILLE,TN,37135
3039,400  HERRON DR  110,NASHVILLE,TN,37210
3040,1033  GRANBERY PARK DR,BRENTWOOD,TN,37027
3041,5008  MOORGATE DR,ANTIOCH,TN,37013
3042,9400  KAPLAN AVE,BRENTWOOD,TN,37027
3043,5605B2  TENNESSEE AVE,NASHVILLE,TN,37209
3044,3400  BRISTOL ALY,NOLENSVILLE,TN,37135
3045,507  PLEASANT ST,NOLENSVILLE,TN,37135
3046,400B  HERRON DR,NASHVILLE,TN,37210
3047,1009  EIGHTH ST,OLD HICKORY,TN,37138
3048,1504  DAVIDGE DR,NASHVILLE,TN,37221
3049,130A2  RAINS AVE,NASHVILLE,TN,37203
3050,746  BRADBURN VILLAGE WAY,ANTIOCH,TN,37013
3051,408  CREEDMORE DR,OLD HICKORY,TN,37138
3052,9420  KAPLAN AVE,BRENTWOOD,TN,37027
3053,229  STERLING POINT CIR,NASHVILLE,TN,37209
3054,2114  NOTCHLEAF RD,ANTIOCH,TN,37013
3055,4045  MAGNOLIA FARMS DR,HERMITAGE,TN,37076
3056,1404B  WHITE DUTCH LN,ANTIOCH,TN,37013
3057,7121  SILVERWOOD TRL,HERMITAGE,TN,37076
3058,2968  JENRY DR,NASHVILLE,TN,37214
3059,752  BRADBURN VILLAGE WAY,ANTIOCH,TN,37013
3060,5031  UPPER PARK PL,ANTIOCH,TN,37013
3061,4006  LIBERTON WAY,NOLENSVILLE,TN,37135
3062,7100  SOUTHPOINT PKWY,BRENTWOOD,TN,37027
3063,934  GOVERNORS CT  112,ANTIOCH,TN,37013
3064,5212A2  LOUISIANA AVE,NASHVILLE,TN,37209
3065,411  MERRITT ST  101,NASHVILLE,TN,37203
3066,6345A2  COLUMBIA AVE,NASHVILLE,TN,37209
3067,1361  DUNS LN,NOLENSVILLE,TN,37135
3068,1902  GRACE POINT LN,NOLENSVILLE,TN,37135
3069,1996  CAROTHERS RD,NOLENSVILLE,TN,37135
3070,5508  MULLIGAN CT,HERMITAGE,TN,37076
3071,8076  BROCKMAN LN,NASHVILLE,TN,37211
3072,423  CREEDMORE DR,OLD HICKORY,TN,37138
3073,2425  SOLOMON LN,NASHVILLE,TN,37207
3074,5304B2  INDIANA AVE,NASHVILLE,TN,37209
3075,921  FAIRDALE CT,NASHVILLE,TN,37221
3076,0  LITTLE MARROWBONE RD,ASHLAND CITY,TN,37015
3077,1385  MARITIME PRT,ANTIOCH,TN,37013
3078,5029  SUNFLOWER LN,HERMITAGE,TN,37076
3079,5014  HARBOR RESERVE CV,HERMITAGE,TN,37076
3080,1609  MARSHALL HOLLOW DR  203,NASHVILLE,TN,37203
3081,1609  MARSHALL HOLLOW DR  202,NASHVILLE,TN,37203
3082,1349  DUNS LN,NOLENSVILLE,TN,37135
3083,5603B2  CALIFORNIA AVE,NASHVILLE,TN,37209
3084,241  STERLING POINT CIR,NASHVILLE,TN,37209
3085,934  GOVERNORS CT  312,ANTIOCH,TN,37013
3086,1208  DUNS LN,NOLENSVILLE,TN,37135
3087,2115  PORTWAY ALY,NASHVILLE,TN,37207
3088,2452  PRAIRIE HILL DR,ANTIOCH,TN,37013
3089,2323  FAIRCHILD CIR,NOLENSVILLE,TN,37135
3090,1221  DUNS LN,NOLENSVILLE,TN,37135
3091,2147  CHADWELL RETREAT DR,MADISON,TN,37115
3092,5110A2  ILLINOIS AVE,NASHVILLE,TN,37209
3093,84  EVANSTON AVE,NASHVILLE,TN,37207
3094,739  BRADBURN VILLAGE WAY,ANTIOCH,TN,37013
3095,1336  DUNS LN,NOLENSVILLE,TN,37135
3096,2002  VILLAGE PARK CIR,OLD HICKORY,TN,37138
3097,400  HERRON DR  313,NASHVILLE,TN,37210
3098,500  CREATIVE WAY  13,MADISON,TN,37115
3099,5037  SUNFLOWER LN,HERMITAGE,TN,37076
3100,435  CREEDMORE DR,OLD HICKORY,TN,37138
3101,3101  HOSPITAL LN,NASHVILLE,TN,37218
3102,5005  MOORGATE DR,ANTIOCH,TN,37013
3103,500  CREATIVE WAY  7,MADISON,TN,37115
3104,306  COLBERT WAY,NASHVILLE,TN,37206
3105,934  GOVERNORS CT  114,ANTIOCH,TN,37013
3106,3100  HOSPITAL LN,NASHVILLE,TN,37218
3107,201  ZENYATTA DR,ANTIOCH,TN,37013
3108,237  STERLING POINT CIR,NASHVILLE,TN,37209
3109,5012  RIVERBANK DR,HERMITAGE,TN,37076
3110,400  HERRON DR  321,NASHVILLE,TN,37210
3111,400  HERRON DR  108,NASHVILLE,TN,37210
3112,5533  MULLIGAN CT,HERMITAGE,TN,37076
3113,5278  LAKE MAXWELL DR,ANTIOCH,TN,37013
3114,1123  LADY NASHVILLE DR,HERMITAGE,TN,37076
3115,713  ARBOR TRACE CIR,NASHVILLE,TN,37207
3116,158  LIGHTWOOD DR,ANTIOCH,TN,37013
3117,166  LIGHTWOOD DR,ANTIOCH,TN,37013
3118,5262  LAKE MAXWELL DR,ANTIOCH,TN,37013
3119,8052  BROCKMAN LN,NASHVILLE,TN,37211
3120,701  ARBOR TRACE CIR,NASHVILLE,TN,37207
3121,2068  KIRKWALL DR,NOLENSVILLE,TN,37135
3122,1319B2  MERIDIAN ST,NASHVILLE,TN,37207
3123,609B2  49TH AVE N,NASHVILLE,TN,37209
3124,5436  RUFFIAN WAY,ANTIOCH,TN,37013
3125,1000  HEALTH PARK DR  180,BRENTWOOD,TN,37027
3126,1837  SPRUCEWOOD LN,NASHVILLE,TN,37211
3127,400  HERRON DR  308,NASHVILLE,TN,37210
3128,500  CREATIVE WAY  26,MADISON,TN,37115
3129,4371  STONE HALL BLVD,HERMITAGE,TN,37076
3130,400  HERRON DR  109,NASHVILLE,TN,37210
3131,736  BRADBURN VILLAGE WAY,ANTIOCH,TN,37013
3132,2167  CAREFREE LN,ANTIOCH,TN,37013
3133,400  HERRON DR  106,NASHVILLE,TN,37210
3134,4981  CHUTNEY DR,ANTIOCH,TN,37013
3135,1212  25TH AVE S,NASHVILLE,TN,37212
3136,82  WHITE BRIDGE PIKE,NASHVILLE,TN,37205
3137,1609  MARSHALL HOLLOW DR  301,NASHVILLE,TN,37203
3138,7625  VERANDA CT,NASHVILLE,TN,37221
3139,3011  LANARK DR,NOLENSVILLE,TN,37135
3140,427  CREEDMORE DR,OLD HICKORY,TN,37138
3141,1821  SPRUCEWOOD LN,NASHVILLE,TN,37211
3142,5029  MOORGATE DR,ANTIOCH,TN,37013
3143,744  BRADBURN VILLAGE WAY,ANTIOCH,TN,37013
3144,500  CREATIVE WAY,MADISON,TN,37115
3145,1025  TREVINO PL,ANTIOCH,TN,37013
3146,2606  OLD BUENA VISTA RD,NASHVILLE,TN,37218
3147,1020  DR MARTIN L KING JR BLVD,NASHVILLE,TN,37203
3148,729  BRADBURN VILLAGE WAY,ANTIOCH,TN,37013
3149,5603A2  CALIFORNIA AVE,NASHVILLE,TN,37209
3150,934  GOVERNORS CT  310,ANTIOCH,TN,37013
3151,1922B2  CASTLEMAN DR,NASHVILLE,TN,37215
3152,90  WHITE BRIDGE PIKE,NASHVILLE,TN,37205
3153,1410  WHITE DUTCH LN,ANTIOCH,TN,37013
3154,2992  BELWOOD ST,NASHVILLE,TN,37203
3155,7534  STATION DR,NASHVILLE,TN,37221
3156,724  BRADBURN VILLAGE WAY,ANTIOCH,TN,37013
3157,4012  LIBERTON WAY,NOLENSVILLE,TN,37135
3158,1220  2ND AVE N LC GERMANT,NASHVILLE,TN,37208
3159,2409  PRAIRIE HILL DR,ANTIOCH,TN,37013
3160,2220  BELLE CREEK WAY,NASHVILLE,TN,37221
3161,5424  RUFFIAN WAY,ANTIOCH,TN,37013
3162,1311  HAVENBROOK DR,NASHVILLE,TN,37207
3163,906  GOVERNORS CT,ANTIOCH,TN,37013
3164,9417  KAPLAN AVE,BRENTWOOD,TN,37027
3165,2746  GOSSETT TRL,NASHVILLE,TN,37221
3166,7627  VERANDA CT,NASHVILLE,TN,37221
3167,2400  SERENE DR,ANTIOCH,TN,37013
3168,1312  BUSIRIS DR,HERMITAGE,TN,37076
3169,208C2  MYRTLE ST,NASHVILLE,TN,37206
3170,836  BLOOMDALE TRCE,HERMITAGE,TN,37076
3171,736  JAMES AVE,NASHVILLE,TN,37209
3172,2253  BELLE CREEK WAY,NASHVILLE,TN,37221
3173,4328  STONE HALL BLVD,HERMITAGE,TN,37076
3174,516  SARVER AVE,MADISON,TN,37115
3175,1349  MARITIME PRT,ANTIOCH,TN,37013
3176,8084  BROCKMAN LN,NASHVILLE,TN,37211
3177,1024  DR MARTIN L KING JR BLVD,NASHVILLE,TN,37203
3178,817  VIBE PL,NASHVILLE,TN,37216
3179,5548  HAMILTON CIR,NASHVILLE,TN,37013
3180,400  HERRON DR  209,NASHVILLE,TN,37210
3181,4063  LIBERTON WAY,NOLENSVILLE,TN,37135
3182,223  STERLING POINT CIR,NASHVILLE,TN,37209
3183,500HM  VERNON CIR,NASHVILLE,TN,37209
3184,1008A2  VILLA PL,NASHVILLE,TN,37212
3185,1216  SUMMER SHADE DR,ANTIOCH,TN,37013
3186,5270  LAKE MAXWELL DR,ANTIOCH,TN,37013
3187,824  ASHLAND PLACE DR,NASHVILLE,TN,37218
3188,4806A2  KENTUCKY AVE,NASHVILLE,TN,37209
3189,134  LIGHTWOOD DR,ANTIOCH,TN,37013
3190,2176  CAREFREE LN,ANTIOCH,TN,37013
3191,3420  SHELBY BOTTOMS BND,NASHVILLE,TN,37206
3192,4359  STONE HALL BLVD,HERMITAGE,TN,37076
3193,2201  VILLAGE PARK CT,OLD HICKORY,TN,37138
3194,5472  RUFFIAN WAY,ANTIOCH,TN,37013
3195,777  COTTAGE PARK DR,NASHVILLE,TN,37207
3196,2011  VILLAGE PARK CIR,OLD HICKORY,TN,37138
3197,4813  SANDYROCK LN,ANTIOCH,TN,37013
3198,506  VERNON CIR,NASHVILLE,TN,37209
3199,827  VIBE PL,NASHVILLE,TN,37216
3200,1442B  WHITE DUTCH LN,ANTIOCH,TN,37013
3201,798  COTTAGE PARK DR,NASHVILLE,TN,37207
3202,760  BLOOMDALE TRCE,HERMITAGE,TN,37076
3203,2412  SOLOMON LN,NASHVILLE,TN,37207
3204,213  STERLING POINT CIR,NASHVILLE,TN,37209
3205,1401  JEWEL ST,NASHVILLE,TN,37207
3206,9358  BARCO RD,BRENTWOOD,TN,37027
3207,786  COTTAGE PARK DR,NASHVILLE,TN,37207
3208,1135  LADY NASHVILLE DR,HERMITAGE,TN,37076
3209,859  VIBE PL,NASHVILLE,TN,37216
3210,408  ANCHOR RESERVE CV,HERMITAGE,TN,37076
3211,1328  GREENSTONE LN,NASHVILLE,TN,37221
3212,2539  SOLOMON LN,NASHVILLE,TN,37207
3213,99  WESTPARK DR,BRENTWOOD,TN,37027
3214,1309  GREENSTONE LN,NASHVILLE,TN,37221
3215,500  DR MARTIN L KING JR BLVD,NASHVILLE,TN,37219
3216,8088  BROCKMAN LN,NASHVILLE,TN,37211
3217,9461  KAPLAN AVE,BRENTWOOD,TN,37027
3218,4829  SANDYROCK LN,ANTIOCH,TN,37013
3219,500  CREATIVE WAY  23,MADISON,TN,37115
3220,788  COTTAGE PARK DR,NASHVILLE,TN,37207
3221,73  WHITE BRIDGE PIKE,NASHVILLE,TN,37205
3222,5207A2  MICHIGAN AVE,NASHVILLE,TN,37209
3223,1309  GREENSTONE LN,NASHVILLE,TN,37221
3224,400  HERRON DR  208,NASHVILLE,TN,37210
3225,1029  LAWSONS RIDGE DR,NASHVILLE,TN,37218
3226,500  PLEASANT ST,NOLENSVILLE,TN,37135
3227,748  BLOOMDALE TRCE,HERMITAGE,TN,37076
3228,2315B  FAIRCHILD CIR,NOLENSVILLE,TN,37135
3229,525  SARVER AVE,MADISON,TN,37115
3230,101  21ST AVE S HEMMINGWAY,NASHVILLE,TN,37212
3231,1857  SPRUCEWOOD LN,NASHVILLE,TN,37211
3232,1348  MARITIME PRT,ANTIOCH,TN,37013
3233,2168  CAREFREE LN,ANTIOCH,TN,37013
3234,1902  GRACE POINT LN  201,NOLENSVILLE,TN,37135
3235,7435  MARONEY DR,ANTIOCH,TN,37013
3236,174  LIGHTWOOD DR,ANTIOCH,TN,37013
3237,1525  DAVIDGE DR,NASHVILLE,TN,37221
3238,1301  DUNS LN,NOLENSVILLE,TN,37135
3239,233  STERLING POINT CIR,NASHVILLE,TN,37209
3240,1928  GRACE POINT LN,NOLENSVILLE,TN,37135
3241,1100  DR MARTIN L KING JR BLVD,NASHVILLE,TN,37203
3242,934  GOVERNORS CT  304,ANTIOCH,TN,37013
3243,838  ASHLAND PLACE DR,NASHVILLE,TN,37218
3244,4232  DYSANT ALY,NOLENSVILLE,TN,37135
3245,419  CREEDMORE DR,OLD HICKORY,TN,37138
3246,400  HERRON DR  117,NASHVILLE,TN,37210
3247,1516  DAVIDGE DR,NASHVILLE,TN,37221
3248,411B2  36TH AVE N,NASHVILLE,TN,37209
3249,4040  MAGNOLIA FARMS DR,HERMITAGE,TN,37076
3250,4980  CHUTNEY DR,ANTIOCH,TN,37013
3251,400  HERRON DR  303,NASHVILLE,TN,37210
3252,1229  DUNS LN,NOLENSVILLE,TN,37135
3253,1324  BUSIRIS DR,HERMITAGE,TN,37076
3254,3416  WOODLAND STAR WAY,NASHVILLE,TN,37207
3255,1721  ST LOUIS ST,NASHVILLE,TN,37208
3256,5554  HAMILTON CIR,NASHVILLE,TN,37013
3257,1057  GRANBERY PARK DR,BRENTWOOD,TN,37027
3258,737  MILL CREEK MEADOW DR,NASHVILLE,TN,37214
3259,1045  GRANBERY PARK DR,BRENTWOOD,TN,37027
3260,5576  HAMILTON CIR,NASHVILLE,TN,37013
3261,8072  BROCKMAN LN,NASHVILLE,TN,37211
3262,2204  VILLAGE PARK CT,OLD HICKORY,TN,37138
3263,2061  KIRKWALL DR,NOLENSVILLE,TN,37135
3264,5310  LAKE MAXWELL DR,ANTIOCH,TN,37013
3265,723  MILL CREEK MEADOW DR,NASHVILLE,TN,37214
3266,922  GOVERNORS CT,ANTIOCH,TN,37013
3267,920  GOVERNORS CT,ANTIOCH,TN,37013
3268,1032  TREVINO PL,ANTIOCH,TN,37013
3269,5536  HAMILTON CIR,ANTIOCH,TN,37013
3270,721  BRADBURN VILLAGE WAY,ANTIOCH,TN,37013
3271,1809  WRITERS CIR,BRENTWOOD,TN,37027
3272,412  CREEDMORE DR,OLD HICKORY,TN,37138
3273,934  GOVERNORS CT  205,ANTIOCH,TN,37013
3274,76  EVANSTON AVE,NASHVILLE,TN,37207
3275,1841  SPRUCEWOOD LN,NASHVILLE,TN,37211
3276,417  IONA WAY,BRENTWOOD,TN,37027
3277,1020  RICHLAND CREEK ALY,NASHVILLE,TN,37209
3278,5609A2  TENNESSEE AVE,NASHVILLE,TN,37209
3279,400  HERRON DR  411,NASHVILLE,TN,37210
3280,6006A2  LOUISIANA AVE,NASHVILLE,TN,37209
3281,4700  STONEY POINT CV,ANTIOCH,TN,37013
3282,7108  BOB BURTON DR,ANTIOCH,TN,37013
3283,843  VIBE PL,NASHVILLE,TN,37216
3284,1028  TREVINO PL,ANTIOCH,TN,37013
3285,751B2  LYNWOOD AVE,NASHVILLE,TN,37203
3286,5412  RUFFIAN WAY,ANTIOCH,TN,37013
3287,5302A2  TENNESSEE AVE,NASHVILLE,TN,37209
3288,753  BLOOMDALE TRCE,HERMITAGE,TN,37076
3289,1044  DR MARTIN L KING JR BLVD,NASHVILLE,TN,37203
3290,934  GOVERNORS CT  305,ANTIOCH,TN,37013
3291,914A2  32ND AVE N,NASHVILLE,TN,37209
3292,1727B2  PECAN ST,NASHVILLE,TN,37208
3293,934  GOVERNORS CT  308,ANTIOCH,TN,37013
3294,5024  SUNFLOWER LN,HERMITAGE,TN,37076
3295,400  HERRON DR  202,NASHVILLE,TN,37210
3296,2519  SOLOMON LN,NASHVILLE,TN,37207
3297,1822B2  11TH AVE N,NASHVILLE,TN,37208
3298,211  MUIR AVE,NOLENSVILLE,TN,37135
3299,4028  MAGNOLIA FARMS DR,HERMITAGE,TN,37076
3300,2264  BELLE CREEK WAY,NASHVILLE,TN,37221
3301,5303A2  LOUISIANA AVE,NASHVILLE,TN,37209
3302,9708  KATZ LN,BRENTWOOD,TN,37027
3303,5274  LAKE MAXWELL DR,ANTIOCH,TN,37013
3304,851  VIBE PL,NASHVILLE,TN,37216
3305,1000  TREVINO PL,ANTIOCH,TN,37013
3306,7451  MARONEY DR,ANTIOCH,TN,37013
3307,1100  LADY NASHVILLE DR,HERMITAGE,TN,37076
3308,1623  MARSHALL HOLLOW DR,NASHVILLE,TN,37203
3309,1073  GRANBERY PARK DR,BRENTWOOD,TN,37027
3310,112  BURKITT COMMONS AVE,NOLENSVILLE,TN,37135
3311,1412  WHITE DUTCH LN,ANTIOCH,TN,37013
3312,1749B  WOODSONG DR,BRENTWOOD,TN,37027
3313,934  GOVERNORS CT  311,ANTIOCH,TN,37013
3314,500  CREATIVE WAY  8,MADISON,TN,37115
3315,5016  HARBOR RESERVE CV,HERMITAGE,TN,37076
3316,500  CREATIVE WAY  12,MADISON,TN,37115
3317,2116  CAREFREE LN,ANTIOCH,TN,37013
3318,1920  GRACE POINT LN,NOLENSVILLE,TN,37135
3319,411  IONA WAY,NOLENSVILLE,TN,37135
3320,1625  MARSHALL HOLLOW DR,NASHVILLE,TN,37203
3321,217  STERLING POINT CIR,NASHVILLE,TN,37209
3322,0  MURFREESBORO PIKE,ANTIOCH,TN,37013
3323,6105  OBRIEN AVE,NASHVILLE,TN,37209
3324,4806B2  MICHIGAN AVE,NASHVILLE,TN,37209
3325,2388  FAIRCHILD CIR,NOLENSVILLE,TN,37135
3326,500  CREATIVE WAY  4,MADISON,TN,37115
3327,400  HERRON DR  413,NASHVILLE,TN,37210
3328,934  GOVERNORS CT  110,ANTIOCH,TN,37013
3329,2132  CAREFREE LN,ANTIOCH,TN,37013
3330,400  HERRON DR  211,NASHVILLE,TN,37210
3331,121  LIGHTWOOD DR,ANTIOCH,TN,37013
3332,934  GOVERNORS CT  104,ANTIOCH,TN,37013
3333,5005  ARROGATE DR,ANTIOCH,TN,37013
3334,2323B  FAIRCHILD CIR,NOLENSVILLE,TN,37135
3335,400  HERRON DR  314,NASHVILLE,TN,37210
3336,5409  RUFFIAN WAY,ANTIOCH,TN,37013
3337,507  VERNON CIR,NASHVILLE,TN,37209
3338,2105  BELLE CREEK WAY,NASHVILLE,TN,37221
3339,1400A15  DONELSON PIKE,NASHVILLE,TN,37217
3340,98  WESTPARK DR,BRENTWOOD,TN,37027
3341,2508  NEWSOME MILL LN,NASHVILLE,TN,37221
3342,0  UNKNOWN,NASHVILLE,TN,0
3343,100  BURKITT COMMONS AVE,BRENTWOOD,TN,37027
3344,400  HERRON DR  412,NASHVILLE,TN,37210
3345,1029  TREVINO PL,ANTIOCH,TN,37013
3346,821  VIBE PL,NASHVILLE,TN,37216
3347,214  MUIR AVE,NOLENSVILLE,TN,37135
3348,5304A2  INDIANA AVE,NASHVILLE,TN,37209
3349,1050  GRANBERY PARK DR,BRENTWOOD,TN,37027
3350,0  ARROGATE DR,ANTIOCH,TN,37013
3351,4044  LIBERTON WAY,NOLENSVILLE,TN,37135
3352,209  COLBERT WAY,NASHVILLE,TN,37206
3353,1336  GREENSTONE LN,NASHVILLE,TN,37221
3354,7635  VERANDA CT,NASHVILLE,TN,37221
3355,3410  KNIGHT DR,NASHVILLE,TN,37207
3356,8065  BROCKMAN LN,NASHVILLE,TN,37211
3357,4208  DYSANT ALY,NOLENSVILLE,TN,37135
3358,5304B2  TENNESSEE AVE,NASHVILLE,TN,37209
3359,5304A2  TENNESSEE AVE,NASHVILLE,TN,37209
3360,5413  RUFFIAN WAY,ANTIOCH,TN,37013
3361,500  CREATIVE WAY  25,MADISON,TN,37115
3362,4210E3  HARDING PIKE,NASHVILLE,TN,37205
3363,2119  PORTWAY ALY,NASHVILLE,TN,37207
3364,727  MILL CREEK MEADOW DR,NASHVILLE,TN,37214
3365,400  HERRON DR  107,NASHVILLE,TN,37210
3366,804  SAM PATCH CT,HERMITAGE,TN,37076
3367,1320  BUSIRIS DR,HERMITAGE,TN,37076
3368,857  VIBE PL,NASHVILLE,TN,37216
3369,5464  RUFFIAN WAY,ANTIOCH,TN,37013
3370,1400  ROPE SWING WAY,ANTIOCH,TN,37013
3371,7427  MARONEY DR,ANTIOCH,TN,37013
3372,712B2  WOODMERE DR,NASHVILLE,TN,37217
3373,7432  MARONEY DR,ANTIOCH,TN,37013
3374,521  SARVER AVE,MADISON,TN,37115
3375,108  BURKITT COMMONS AVE,NOLENSVILLE,TN,37135
3376,7431  MARONEY DR,ANTIOCH,TN,37013
3377,1013  TREVINO PL,ANTIOCH,TN,37013
3378,5212B2  LOUISIANA AVE,NASHVILLE,TN,37209
3379,837  VIBE PL,NASHVILLE,TN,37216
3380,5045  UPPER PARK PL,ANTIOCH,TN,37013
3381,400  HERRON DR  104,NASHVILLE,TN,37210
3382,1200  YELLOW HOP ALY,ANTIOCH,TN,37013
3383,840  BLOOMDALE TRCE,HERMITAGE,TN,37076
3384,73  WHITE BRIDGE PIKE,NASHVILLE,TN,37205
3385,918  GOVERNORS CT,ANTIOCH,TN,37013
3386,2184  CAREFREE LN,ANTIOCH,TN,37013
3387,1389  MARITIME PRT,ANTIOCH,TN,37013
3388,1438  WHITE DUTCH LN,ANTIOCH,TN,37013
3389,1705  WOODSONG DR,BRENTWOOD,TN,37027
3390,3418  SHELBY BOTTOMS BND,NASHVILLE,TN,37206
3391,2163  CAREFREE LN,ANTIOCH,TN,37013
3392,5440  RUFFIAN WAY,ANTIOCH,TN,37013
3393,1912B2  9TH AVE N,NASHVILLE,TN,37208
3394,2275  MURFREESBORO PIKE  101,ANTIOCH,TN,37013
3395,5503B2  TENNESSEE AVE,NASHVILLE,TN,37209
3396,701  MILL CREEK MEADOW DR,NASHVILLE,TN,37214
3397,718  BRADBURN VILLAGE WAY,ANTIOCH,TN,37013
3398,1316B  JEWEL ST,NASHVILLE,TN,37207
3399,934  GOVERNORS CT  309,ANTIOCH,TN,37013
3400,106  BURKITT COMMONS AVE,NOLENSVILLE,TN,37135
3401,400  HERRON DR  217,NASHVILLE,TN,37210
3402,7317  MARONEY DR,ANTIOCH,TN,37013
3403,2428  PRAIRIE HILL DR,ANTIOCH,TN,37013
3404,2749  GOSSETT TRL,NASHVILLE,TN,37221
3405,5028  SUNFLOWER LN,HERMITAGE,TN,37076
3406,2131  PORTWAY ALY,NASHVILLE,TN,37207
3407,1036  TREVINO PL,ANTIOCH,TN,37013
3408,1321  HAVENBROOK DR,NASHVILLE,TN,37207
3409,9460  KAPLAN AVE,BRENTWOOD,TN,37027
3410,1825B2  4TH AVE N,NASHVILLE,TN,37208
3411,4965  CHUTNEY DR,ANTIOCH,TN,37013
3412,1323  HAVENBROOK DR,NASHVILLE,TN,37207
3413,400  HERRON DR  416,NASHVILLE,TN,37210
3414,4917  RIVERBANK DR,HERMITAGE,TN,37076
3415,2200  CHILDRENS WAY  CHILDRENS,NASHVILLE,TN,37212
3416,5029  ARROGATE DR,ANTIOCH,TN,37013
3417,4806C2  MICHIGAN AVE,NASHVILLE,TN,37209
3418,205  ZENYATTA DR,ANTIOCH,TN,37013
3419,1508  DAVIDGE DR,NASHVILLE,TN,37221
3420,512  SARVER AVE,MADISON,TN,37115
3421,725  MILL CREEK MEADOW DR,NASHVILLE,TN,37214
3422,1017  TREVINO PL,ANTIOCH,TN,37013
3423,5258  LAKE MAXWELL DR,ANTIOCH,TN,37013
3424,540  VERNON CIR,NASHVILLE,TN,37209
3425,1805  WRITERS CIR,BRENTWOOD,TN,37027
3426,4306A2  DAKOTA AVE,NASHVILLE,TN,37209
3427,609A2  49TH AVE N,NASHVILLE,TN,37209
3428,3405  WOODLAND STAR WAY,NASHVILLE,TN,37207
3429,760  WEDGEWOOD PARK  108,NASHVILLE,TN,37203
3430,2709  GOSSETT TRL,NASHVILLE,TN,37221
3431,2424  PRAIRIE HILL DR,ANTIOCH,TN,37013
3432,1727A2  PECAN ST,NASHVILLE,TN,37208
3433,5121  HELMSDALE CT,HERMITAGE,TN,37076
3434,3017  LANARK DR,NOLENSVILLE,TN,37135
3435,2543  SOLOMON LN,NASHVILLE,TN,37207
3436,4013  LIBERTON WAY,NOLENSVILLE,TN,37135
3437,2275  MURFREESBORO PIKE  101,ANTIOCH,TN,37013
3438,2008  VILLAGE PARK CIR,OLD HICKORY,TN,37138
3439,701  BRADBURN VILLAGE WAY,ANTIOCH,TN,37013
3440,3726  HILLTOP LN,NASHVILLE,TN,37216
3441,5009  RIVERBANK DR,HERMITAGE,TN,37076
3442,500  CREATIVE WAY  1,MADISON,TN,37115
3443,1412B  WHITE DUTCH LN,ANTIOCH,TN,37013
3444,605  PICKETT DR,HERMITAGE,TN,37076
3445,2531  SOLOMON LN,NASHVILLE,TN,37207
3446,2112  CAREFREE LN,ANTIOCH,TN,37013
3447,1024  TREVINO PL,ANTIOCH,TN,37013
3448,400  HERRON DR  320,NASHVILLE,TN,37210
3449,0  BELL RD,NASHVILLE,TN,37211
3450,5109  KENSAL DR,ANTIOCH,TN,37013
3451,1004  TREVINO PL,ANTIOCH,TN,37013
3452,5010  HARBOR RESERVE CV,HERMITAGE,TN,37076
3453,849  VIBE PL,NASHVILLE,TN,37216
3454,729  MILL CREEK MEADOW DR,NASHVILLE,TN,37214
3455,2456  PRAIRIE HILL DR,ANTIOCH,TN,37013
3456,2392  FAIRCHILD CIR,NOLENSVILLE,TN,37135
3457,1517  DAVIDGE DR,NASHVILLE,TN,37221
3458,415  CREEDMORE DR,OLD HICKORY,TN,37138
3459,80  EVANSTON AVE,NASHVILLE,TN,37207
3460,934  GOVERNORS CT  108,ANTIOCH,TN,37013
3461,5004  ARROGATE DR,ANTIOCH,TN,37013
3462,2248  BELLE CREEK WAY,NASHVILLE,TN,37221
3463,1372  MARITIME PRT,ANTIOCH,TN,37013
3464,1434  WHITE DUTCH LN,ANTIOCH,TN,37013
3465,4200  DYSANT ALY,NOLENSVILLE,TN,37135
3466,1331  HAVENBROOK DR,NASHVILLE,TN,37207
3467,3404  BRISTOL ALY,NOLENSVILLE,TN,37135
3468,545B2  MOORE AVE,NASHVILLE,TN,37203
3469,400  HERRON DR  204,NASHVILLE,TN,37210
3470,203  COLBERT WAY,NASHVILLE,TN,37206
3471,728  ELLIE DR,MADISON,TN,37115
3472,112  PALMORE CT,NASHVILLE,TN,37221
3473,1111  LADY NASHVILLE DR,HERMITAGE,TN,37076
3474,1608  MARSHALL HOLLOW DR  301,NASHVILLE,TN,37203
3475,732  BRADBURN VILLAGE WAY,ANTIOCH,TN,37013
3476,7416  MARONEY DR,ANTIOCH,TN,37013
3477,5068  SUNFLOWER LN,HERMITAGE,TN,37076
3478,2265  BELLE CREEK WAY,NASHVILLE,TN,37221
3479,732  JAMES AVE,NASHVILLE,TN,37209
3480,2213  BELLE CREEK WAY,NASHVILLE,TN,37221
3481,1704  WOODSONG DR,BRENTWOOD,TN,37027
3482,5012  HARBOR RESERVE CV,HERMITAGE,TN,37076
3483,3404  SHELBY BOTTOMS BND,NASHVILLE,TN,37206
3484,73  WHITE BRIDGE PIKE  104,NASHVILLE,TN,37205
3485,5504  MULLIGAN CT,HERMITAGE,TN,37076
3486,208A2  MYRTLE ST,NASHVILLE,TN,37206
3487,5572  HAMILTON CIR,NASHVILLE,TN,37013
3488,2996  BELWOOD ST,NASHVILLE,TN,37203
3489,1205  DUNS LN,NOLENSVILLE,TN,37135
3490,1345  GREENSTONE LN,NASHVILLE,TN,37221
3491,4060  LIBERTON WAY,NOLENSVILLE,TN,37135
3492,400  HERRON DR  120,NASHVILLE,TN,37210
3493,1005  GRANBERY PARK DR,BRENTWOOD,TN,37027
3494,2516  SOLOMON LN,NASHVILLE,TN,37207
3495,1729A2  PECAN ST,NASHVILLE,TN,37208
3496,2236  BELLE CREEK WAY,NASHVILLE,TN,37221
3497,2104  CAREFREE LN,ANTIOCH,TN,37013
3498,2729  GOSSETT TRL,NASHVILLE,TN,37221
3499,2007  VILLAGE PARK CIR,OLD HICKORY,TN,37138
3500,773  COTTAGE PARK DR,NASHVILLE,TN,37207
3501,2208  BELLE CREEK WAY,NASHVILLE,TN,37221
3502,715  ARBOR TRACE CIR,NASHVILLE,TN,37207
3503,1917A2  DELTA AVE,NASHVILLE,TN,37208
3504,4017  LIBERTON WAY,NOLENSVILLE,TN,37135
3505,1024  TREVINO PL,ANTIOCH,TN,37013
3506,207  COLBERT WAY,NASHVILLE,TN,37206
3507,4904  RIVERBANK DR,HERMITAGE,TN,37076
3508,7631  VERANDA CT,NASHVILLE,TN,37221
3509,1209  DUNS LN,NOLENSVILLE,TN,37135
3510,908  GOVERNORS CT,ANTIOCH,TN,37013
3511,1865  SPRUCEWOOD LN,NASHVILLE,TN,37211
3512,834  ASHLAND PLACE DR,NASHVILLE,TN,37218
3513,2408  PRAIRIE HILL DR,ANTIOCH,TN,37013
3514,914B2  32ND AVE N,NASHVILLE,TN,37209
3515,2057  KIRKWALL DR,NOLENSVILLE,TN,37135
3516,1825  SPRUCEWOOD LN,NASHVILLE,TN,37211
3517,4825  SANDYROCK LN,ANTIOCH,TN,37013
3518,1704  WOODSONG DR,BRENTWOOD,TN,37027
3519,1401  JEWEL ST,NASHVILLE,TN,37207
3520,2741  GOSSETT TRL,NASHVILLE,TN,37221
3521,716  BRADBURN VILLAGE WAY,ANTIOCH,TN,37013
3522,2040  VILLAGE PARK CIR,OLD HICKORY,TN,37138
3523,5009  ARROGATE DR,ANTIOCH,TN,37013
3524,5607A2  LOUISIANA AVE,NASHVILLE,TN,37209
3525,4010  LIBERTON WAY,NOLENSVILLE,TN,37135
3526,1013  LAWSONS RIDGE DR,NASHVILLE,TN,37218
3527,110  BURKITT COMMONS AVE,NOLENSVILLE,TN,37135
3528,2536  SOLOMON LN,NASHVILLE,TN,37207
3529,4066  LIBERTON WAY,NOLENSVILLE,TN,37135
3530,1017  LAWSONS RIDGE DR,NASHVILLE,TN,37218
3531,1609  MARSHALL HOLLOW DR  101,NASHVILLE,TN,37203
3532,2206B2  SHERIDAN RD,NASHVILLE,TN,37206
3533,1005  CLOVER GLEN WAY,ANTIOCH,TN,37013
3534,7316  MARONEY DR,ANTIOCH,TN,37013
3535,1529  DAVIDGE DR,NASHVILLE,TN,37221
3536,7448  MARONEY DR,ANTIOCH,TN,37013
3537,318B2  WILBURN ST,NASHVILLE,TN,37207
3538,855  VIBE PL,NASHVILLE,TN,37216
3539,1384  MARITIME PRT,ANTIOCH,TN,37013
3540,519  PLEASANT ST,NOLENSVILLE,TN,37135
3541,1444B  WHITE DUTCH LN,ANTIOCH,TN,37013
3542,1402B  WHITE DUTCH LN,ANTIOCH,TN,37013
3543,1324  MARITIME PRT,ANTIOCH,TN,37013
3544,2511  SOLOMON LN,NASHVILLE,TN,37207
3545,1416  WHITE DUTCH LN,ANTIOCH,TN,37013
3546,517  SARVER AVE,MADISON,TN,37115
3547,5441  RUFFIAN WAY,ANTIOCH,TN,37013
3548,7639  VERANDA CT,NASHVILLE,TN,37221
3549,1069  GRANBERY PARK DR,BRENTWOOD,TN,37027
3550,4000  LIBERTON WAY,NOLENSVILLE,TN,37135
3551,505  BELLE POST RD,NASHVILLE,TN,37205
3552,5008  HARBOR RESERVE CV,NASHVILLE,TN,37076
3553,5524  HAMILTON CIR,ANTIOCH,TN,37013
3554,30  WHITE BRIDGE PIKE  ST MARY'S,NASHVILLE,TN,37205
3555,5530  HAMILTON CIR,ANTIOCH,TN,37013
3556,836  ASHLAND PLACE DR,NASHVILLE,TN,37218
3557,1225  DUNS LN,NOLENSVILLE,TN,37135
3558,2504  NEWSOME MILL LN,NASHVILLE,TN,37221
3559,3421  SHELBY BOTTOMS BND,NASHVILLE,TN,37206
3560,4024  MAGNOLIA FARMS DR,HERMITAGE,TN,37076
3561,1632  MARSHALL HOLLOW DR,NASHVILLE,TN,37203
3562,1934  GRACE POINT LN,NOLENSVILLE,TN,37135
3563,4381  STONE HALL BLVD,HERMITAGE,TN,37076
3564,8061  BROCKMAN LN,NASHVILLE,TN,37211
3565,78  EVANSTON AVE,NASHVILLE,TN,37207
3566,4230  DYSANT ALY,NOLENSVILLE,TN,37135
3567,6107B2  LOUISIANA AVE,NASHVILLE,TN,37209
3568,2128  CAREFREE LN,ANTIOCH,TN,37013
3569,400  HERRON DR  215,NASHVILLE,TN,37210
3570,1321B2  MERIDIAN ST,NASHVILLE,TN,37207
3571,1551  WINDING CREEK DR,NOLENSVILLE,TN,37135
3572,1208  YELLOW HOP ALY,ANTIOCH,TN,37013
3573,2424  SOLOMON LN,NASHVILLE,TN,37207
3574,9405  KAPLAN AVE,BRENTWOOD,TN,37027
3575,743  BRADBURN VILLAGE WAY,ANTIOCH,TN,37013
3576,400  HERRON DR  120,NASHVILLE,TN,37210
3577,4909  RIVERBANK DR,HERMITAGE,TN,37076
3578,841  HAMILTON CROSSINGS,ANTIOCH,TN,37013
3579,1100  DR MARTIN L KING JR BLVD,NASHVILLE,TN,37203
3580,5001  SUNFLOWER LN,HERMITAGE,TN,37076
3581,916  GOVERNORS CT,ANTIOCH,TN,37013
3582,413  ANCHOR RESERVE CV,NASHVILLE,TN,37076
3583,734  BRADBURN VILLAGE WAY,ANTIOCH,TN,37013
3584,28  WHITE BRIDGE PIKE  108,NASHVILLE,TN,37205
3585,209  STERLING POINT CIR,NASHVILLE,TN,37209
3586,520  SARVER AVE,MADISON,TN,37115
3587,600B  WALLACE CT,NASHVILLE,TN,37211
3588,5701  EDMONDSON PIKE,BRENTWOOD,TN,37027
3589,4921  RIVERBANK DR,HERMITAGE,TN,37076
3590,5516B  MULLIGAN CT,HERMITAGE,TN,37076
3591,4368  STONE HALL BLVD,HERMITAGE,TN,37076
3592,724  ELLIE DR,MADISON,TN,37115
3593,1328  MARITIME PRT,ANTIOCH,TN,37013
3594,6215B2  NEW YORK AVE,NASHVILLE,TN,37209
3595,1049  GRANBERY PARK DR,BRENTWOOD,TN,37027
3596,3201  HOSPITAL LN,NASHVILLE,TN,37218
3597,400  HERRON DR  304,NASHVILLE,TN,37210
3598,792  COTTAGE PARK DR,NASHVILLE,TN,37207
3599,9362  BARCO RD,BRENTWOOD,TN,37027
3600,104  LIGHTWOOD DR,ANTIOCH,TN,37013
3601,5452  RUFFIAN WAY,ANTIOCH,TN,37013
3602,4977  CHUTNEY DR,ANTIOCH,TN,37013
3603,400  HERRON DR  112,NASHVILLE,TN,37210
3604,5021  MOORGATE DR,ANTIOCH,TN,37013
3605,934  GOVERNORS CT  209,ANTIOCH,TN,37013
3606,5024  ARROGATE DR,ANTIOCH,TN,37013
3607,1326  HAVENBROOK DR,NASHVILLE,TN,37207
3608,6105B2  LOUISIANA AVE,NASHVILLE,TN,37209
3609,1305  GREENSTONE LN,NASHVILLE,TN,37221
3610,4242  DYSANT ALY,NOLENSVILLE,TN,37135
3611,2023  BROADWAY   HOTEL REST,NASHVILLE,TN,37203
3612,500  CREATIVE WAY  16,MADISON,TN,37115
3613,5701  EDMONDSON PIKE,BRENTWOOD,TN,37027
3614,5294  LAKE MAXWELL DR,ANTIOCH,TN,37013
3615,2421  PRAIRIE HILL DR,ANTIOCH,TN,37013
3616,4917  TUSCULUM RD,NASHVILLE,TN,37211
3617,4817  SANDYROCK LN,ANTIOCH,TN,37013
3618,400  HERRON DR  212,NASHVILLE,TN,37210
3619,4816  SANDYROCK LN,ANTIOCH,TN,37013
3620,0  NOLENSVILLE PIKE,BRENTWOOD,TN,37027
3621,1924B  GRACE POINT LN,NOLENSVILLE,TN,37135
3622,904  GOVERNORS CT,ANTIOCH,TN,37013
3623,4067  LIBERTON WAY,NOLENSVILLE,TN,37135
3624,208B2  MYRTLE ST,NASHVILLE,TN,37206
3625,934  GOVERNORS CT  206,ANTIOCH,TN,37013
3626,2432  PRAIRIE HILL DR,ANTIOCH,TN,37013
3627,1510A2  ARTHUR AVE,NASHVILLE,TN,37208
3628,7117  SILVERWOOD TRL,HERMITAGE,TN,37076
3629,5484  RUFFIAN WAY,ANTIOCH,TN,37013
3630,105  PALMORE CT,NASHVILLE,TN,37221
3631,9473  KAPLAN AVE,BRENTWOOD,TN,37027
3632,219  STERLING POINT CIR,NASHVILLE,TN,37209
3633,5307A2  MICHIGAN AVE,NASHVILLE,TN,37209
3634,1528  DAVIDGE DR,NASHVILLE,TN,37221
3635,5468  RUFFIAN WAY,ANTIOCH,TN,37013
3636,717  ROSA L PARKS BLVD  AFG CELL S,NASHVILLE,TN,37203
3637,1012  RICHLAND CREEK ALY,NASHVILLE,TN,37209
3638,2264  BELLE CREEK WAY,NASHVILLE,TN,37221
3639,207A2  MYRTLE ST,NASHVILLE,TN,37206
3640,5420  RUFFIAN WAY,ANTIOCH,TN,37013
3641,1005  LAWSONS RIDGE DR,NASHVILLE,TN,37218
3642,4212  DYSANT ALY,NOLENSVILLE,TN,37135
3643,3100  BELWOOD ST  101,NASHVILLE,TN,37203
3644,7312  MARONEY DR,ANTIOCH,TN,37013
3645,5025  UPPER PARK PL,ANTIOCH,TN,37013
3646,1626  MARSHALL HOLLOW DR,NASHVILLE,TN,37203
3647,3412  SHELBY BOTTOMS BND,NASHVILLE,TN,37206
3648,1902  GRACE POINT LN  102,NOLENSVILLE,TN,37135
3649,800  VIBE PL,NASHVILLE,TN,37216
3650,400  HERRON DR  307,NASHVILLE,TN,37210
3651,2072  KIRKWALL DR,NOLENSVILLE,TN,37135
3652,2052  KIRKWALL DR,NOLENSVILLE,TN,37135
3653,4809  SANDYROCK LN,ANTIOCH,TN,37013
3654,508  VERNON CIR,NASHVILLE,TN,37209
3655,934  GOVERNORS CT,ANTIOCH,TN,37013
3656,1938  GRACE POINT LN,NOLENSVILLE,TN,37135
3657,900  BRITTANY PARK DR,NASHVILLE,TN,37013
3658,1928B  GRACE POINT LN,NOLENSVILLE,TN,37135
3659,400  HERRON DR  207,NASHVILLE,TN,37210
3660,720  ELLIE DR,MADISON,TN,37115
3661,5608A2  PENNSYLVANIA AVE,NASHVILLE,TN,37209
3662,4246  DYSANT ALY,NOLENSVILLE,TN,37135
3663,5013  SUNFLOWER LN,HERMITAGE,TN,37076
3664,2120  CAREFREE LN,ANTIOCH,TN,37013
3665,9712  KATZ LN,BRENTWOOD,TN,37027
3666,512  PLEASANT ST,NOLENSVILLE,TN,37135
3667,1332  MARITIME PRT,ANTIOCH,TN,37013
3668,5013  RIVERBANK DR,HERMITAGE,TN,37076
3669,876  BLOOMDALE TRCE,HERMITAGE,TN,37076
3670,400B  HERRON DR,NASHVILLE,TN,37210
3671,828  ASHLAND PLACE DR,NASHVILLE,TN,37218
3672,1213  DUNS LN,NOLENSVILLE,TN,37135
3673,5209A2  INDIANA AVE,NASHVILLE,TN,37209
3674,1005  EIGHTH ST,OLD HICKORY,TN,37138
3675,1025  TREVINO PL,ANTIOCH,TN,37013
3676,400  HERRON DR  219,NASHVILLE,TN,37210
3677,1406A2  HOLLY ST,NASHVILLE,TN,37206
3678,1316  BUSIRIS DR,HERMITAGE,TN,37076
3679,4210E2  HARDING PIKE,NASHVILLE,TN,37205
3680,2373  FAIRCHILD CIR,NOLENSVILLE,TN,37135
3681,1329  BUSIRIS DR,HERMITAGE,TN,37076
3682,1110B2 N 6TH ST,NASHVILLE,TN,37207
3683,1440  WHITE DUTCH LN,ANTIOCH,TN,37013
3684,1102A2 N 8TH ST,NASHVILLE,TN,37207
3685,2069  KIRKWALL DR,NOLENSVILLE,TN,37135
3686,1509  DAVIDGE DR,NASHVILLE,TN,37221
3687,1597  WINDING CREEK DR,NOLENSVILLE,TN,37135
3688,5444  RUFFIAN WAY,ANTIOCH,TN,37013
3689,4040  LIBERTON WAY,NOLENSVILLE,TN,37135
3690,4204  HERMITAGE RD,HERMITAGE,TN,37076
3691,1112  LADY NASHVILLE DR,HERMITAGE,TN,37076
3692,1442  WHITE DUTCH LN,ANTIOCH,TN,37013
3693,1325  BUSIRIS DR,HERMITAGE,TN,37076
3694,9309  BARCO RD,BRENTWOOD,TN,37027
3695,1120  LADY NASHVILLE DR,HERMITAGE,TN,37076
3696,1426B  WHITE DUTCH LN,NASHVILLE,TN,37013
3697,5542  HAMILTON CIR,NASHVILLE,TN,37013
3698,934  GOVERNORS CT  208,ANTIOCH,TN,37013
3699,503  PLEASANT ST,NOLENSVILLE,TN,37135
3700,1727A2  PECAN ST,NASHVILLE,TN,37208
3701,856  BLOOMDALE TRCE,HERMITAGE,TN,37076
3702,207  MUIR AVE,NOLENSVILLE,TN,37135
3703,2205  VILLAGE PARK CT,OLD HICKORY,TN,37138
3704,5544  HAMILTON CIR,NASHVILLE,TN,37013
3705,2204  AUSTIN AVE,NASHVILLE,TN,37210
3706,19  JUNIOR GILLIAM WAY  BALL PARK,NASHVILLE,TN,37219
3707,735  ARBOR TRACE CIR,NASHVILLE,TN,37207
3708,1313  BUSIRIS DR,HERMITAGE,TN,37076
3709,2126  NOTCHLEAF RD,ANTIOCH,TN,37013
3710,308  COLBERT WAY,NASHVILLE,TN,37206
3711,2535  SOLOMON LN,NASHVILLE,TN,37207
3712,231  STERLING POINT CIR,NASHVILLE,TN,37209
3713,1012  LAWSONS RIDGE DR,NASHVILLE,TN,37218
3714,2713  GOSSETT TRL,NASHVILLE,TN,37221
3715,1581  WINDING CREEK DR,NOLENSVILLE,TN,37135
3716,5202A2  LOUISIANA AVE,NASHVILLE,TN,37209
3717,209  ZENYATTA DR,ANTIOCH,TN,37013
3718,5400  RUFFIAN WAY,ANTIOCH,TN,37013
3719,1263  HILLWOOD PRIVATE CV,NASHVILLE,TN,37209
3720,2143  CAREFREE LN,ANTIOCH,TN,37013
3721,230  APPLETON PL,NASHVILLE,TN,37212
3722,6209B2  PENNSYLVANIA AVE,NASHVILLE,TN,37209
3723,825  VIBE PL,NASHVILLE,TN,37216
3724,5558  HAMILTON CIR,NASHVILLE,TN,37013
3725,1393  MARITIME PRT,ANTIOCH,TN,37013
3726,5465  RUFFIAN WAY,ANTIOCH,TN,37013
3727,749  BLOOMDALE TRCE,HERMITAGE,TN,37076
3728,239  STERLING POINT CIR,NASHVILLE,TN,37209
3729,2701  GOSSETT TRL,NASHVILLE,TN,37221
3730,9704  KATZ LN,BRENTWOOD,TN,37027
3731,707  BRADBURN VILLAGE WAY,ANTIOCH,TN,37013
3732,9300A  BARCO RD,BRENTWOOD,TN,37027
3733,1406  WHITE DUTCH LN,ANTIOCH,TN,37013
3734,2200  SILVERTON DR,NASHVILLE,TN,37207
3735,4804  SANDYROCK LN,ANTIOCH,TN,37013
3736,735  MILL CREEK MEADOW DR,NASHVILLE,TN,37214
3737,400  HERRON DR  216,NASHVILLE,TN,37210
3738,1505  DAVIDGE DR,NASHVILLE,TN,37221
3739,720  BRADBURN VILLAGE WAY,ANTIOCH,TN,37013
3740,400  HERRON DR  420,NASHVILLE,TN,37210
3741,902  GOVERNORS CT,ANTIOCH,TN,37013
3742,1333  HAVENBROOK DR,NASHVILLE,TN,37207
3743,1336  MARITIME PRT,ANTIOCH,TN,37013
3744,5302B2  TENNESSEE AVE,NASHVILLE,TN,37209
3745,1509  DAVIDGE DR,NASHVILLE,TN,37221
3746,751  BRADBURN VILLAGE WAY,ANTIOCH,TN,37013
3747,2365  FAIRCHILD CIR,NOLENSVILLE,TN,37135
3748,722  BRADBURN VILLAGE WAY,ANTIOCH,TN,37013
3749,1038  GRANBERY PARK DR,BRENTWOOD,TN,37027
3750,817  HAWKINS ST,NASHVILLE,TN,37203
3751,5206A2  KENTUCKY AVE,NASHVILLE,TN,37209
3752,3200  HOSPITAL LN,NASHVILLE,TN,37218
3753,1446  WHITE DUTCH LN,ANTIOCH,TN,37013
3754,7104  BOB BURTON DR,ANTIOCH,TN,37013
3755,2734  GOSSETT TRL,NASHVILLE,TN,37221
3756,4713  STONEY POINT CV,ANTIOCH,TN,37013
3757,1608  MARSHALL HOLLOW DR  202,NASHVILLE,TN,37203
3758,7409  MARONEY DR,ANTIOCH,TN,37013
3759,5425  RUFFIAN WAY,ANTIOCH,TN,37013
3760,1  J M FROST PLZ,NASHVILLE,TN,37203
3761,900  MAIN ST  FAT BOTTOM,NASHVILLE,TN,37206
3762,5021  ARROGATE DR,ANTIOCH,TN,37013
3763,1524  DAVIDGE DR,NASHVILLE,TN,37221
3764,5556  HAMILTON CIR,NASHVILLE,TN,37013
3765,1016  RICHLAND CREEK ALY,NASHVILLE,TN,37209
3766,934  GOVERNORS CT  213,ANTIOCH,TN,37013
3767,20  RUTLEDGE ST  101 (CITY LIGHTS FITNESS AREA),NASHVILLE,TN,37210
3768,721  MILL CREEK MEADOW DR,NASHVILLE,TN,37214
3769,730  JAMES AVE,NASHVILLE,TN,37209
3770,103  BURKITT COMMONS AVE,BRENTWOOD,TN,37027
3771,6204B2  PENNSYLVANIA AVE,NASHVILLE,TN,37209
3772,3413  WOODLAND STAR WAY,NASHVILLE,TN,37207
3773,400  HERRON DR  101,NASHVILLE,TN,37210
3774,1741D2  ED TEMPLE BLVD,NASHVILLE,TN,37208
3775,517  PLEASANT ST,NOLENSVILLE,TN,37135
3776,2528  SOLOMON LN,NASHVILLE,TN,37207
3777,2252  BELLE CREEK WAY,NASHVILLE,TN,37221
3778,5302  LAKE MAXWELL DR,ANTIOCH,TN,37013
3779,1912  GRACE POINT LN,NOLENSVILLE,TN,37135
3780,4984  CHUTNEY DR,ANTIOCH,TN,37013
3781,1107  LADY NASHVILLE DR,HERMITAGE,TN,37076
3782,2101  BELLE CREEK WAY,NASHVILLE,TN,37221
3783,4240  DYSANT ALY,NOLENSVILLE,TN,37135
3784,713  BRADBURN VILLAGE WAY,ANTIOCH,TN,37013
3785,934  GOVERNORS CT  106,ANTIOCH,TN,37013
3786,502  VERNON CIR,NASHVILLE,TN,37209
3787,1426  WHITE DUTCH LN,ANTIOCH,TN,37013
3788,1592  WINDING CREEK DR,NOLENSVILLE,TN,37135
3789,926  GOVERNORS CT,ANTIOCH,TN,37013
3790,783  COTTAGE PARK DR,NASHVILLE,TN,37207
3791,782  COTTAGE PARK DR,NASHVILLE,TN,37207
3792,1829  SPRUCEWOOD LN,NASHVILLE,TN,37211
3793,703  BRADBURN VILLAGE WAY,ANTIOCH,TN,37013
3794,0  SIDCO DR,NASHVILLE,TN,37204
3795,934  GOVERNORS CT  103,ANTIOCH,TN,37013
3796,500  CREATIVE WAY  22,MADISON,TN,37115
3797,1932  GRACE POINT LN,NOLENSVILLE,TN,37135
3798,5574  HAMILTON CIR,NASHVILLE,TN,37013
3799,2109  BELLE CREEK WAY,NASHVILLE,TN,37221
3800,4336  STONE HALL BLVD,HERMITAGE,TN,37076
3801,1115  LADY NASHVILLE DR,HERMITAGE,TN,37076
3802,1921B2  GREENWOOD AVE,NASHVILLE,TN,37206
3803,4940  RIVERBANK DR,HERMITAGE,TN,37076
3804,1000  HEALTH PARK DR,BRENTWOOD,TN,37027
3805,2504  SOLOMON LN,NASHVILLE,TN,37207
3806,5005  SUNFLOWER LN,HERMITAGE,TN,37076
3807,400  HERRON DR  116,NASHVILLE,TN,37210
3808,9317  BARCO RD,BRENTWOOD,TN,37027
3809,1404  WHITE DUTCH LN,ANTIOCH,TN,37013
3810,300  COLBERT WAY,NASHVILLE,TN,37206
3811,934  GOVERNORS CT  302,ANTIOCH,TN,37013
3812,2000C2  OAK TRAIL DR,NOLENSVILLE,TN,37135
3813,1414  WHITE DUTCH LN,ANTIOCH,TN,37013
3814,5303B2  LOUISIANA AVE,NASHVILLE,TN,37209
3815,0  24TH AVE N,NASHVILLE,TN,37208
3816,5570  HAMILTON CIR,NASHVILLE,TN,37013
3817,1261  HILLWOOD PRIVATE CV,NASHVILLE,TN,37209
3818,951  BRITTANY PARK DR  500-527,ANTIOCH,TN,37013
3819,4061  LIBERTON WAY,NOLENSVILLE,TN,37135
3820,1041  GRANBERY PARK DR,BRENTWOOD,TN,37027
3821,5101  HELMSDALE CT,HERMITAGE,TN,37076
3822,500  CREATIVE WAY,MADISON,TN,37115
3823,7440  MARONEY DR,ANTIOCH,TN,37013
3824,1021  GRANBERY PARK DR,BRENTWOOD,TN,37027
3825,1903A2  14TH AVE N,NASHVILLE,TN,37208
3826,2003  VILLAGE PARK CIR,OLD HICKORY,TN,37138
3827,4008  ARROWLEAF LN,ANTIOCH,TN,37013
3828,934  GOVERNORS CT  109,ANTIOCH,TN,37013
3829,2159  CAREFREE LN,ANTIOCH,TN,37013
3830,400  HERRON DR  315,NASHVILLE,TN,37210
3831,5488  RUFFIAN WAY,ANTIOCH,TN,37013
3832,711  ARBOR TRACE CIR,NASHVILLE,TN,37207
3833,1022  GRANBERY PARK DR,BRENTWOOD,TN,37027
3834,778  COTTAGE PARK DR,NASHVILLE,TN,37207
3835,1608  MARSHALL HOLLOW DR,NASHVILLE,TN,37203
3836,544  VERNON CIR,NASHVILLE,TN,37209
3837,1321A2  MERIDIAN ST,NASHVILLE,TN,37207
3838,2135  CAREFREE LN,ANTIOCH,TN,37013
3839,2260  BELLE CREEK WAY,NASHVILLE,TN,37221
3840,1304  HAVENBROOK DR,NASHVILLE,TN,37207
3841,4210  DYSANT ALY,NOLENSVILLE,TN,37135
3842,5214B2  LOUISIANA AVE,NASHVILLE,TN,37209
3843,9468  KAPLAN AVE,BRENTWOOD,TN,37027
3844,5432  RUFFIAN WAY,ANTIOCH,TN,37013
3845,411  MERRITT ST  202,NASHVILLE,TN,37203
3846,5457  RUFFIAN WAY,ANTIOCH,TN,37013
3847,1364  MARITIME PRT,ANTIOCH,TN,37013
3848,400  HERRON DR  213,NASHVILLE,TN,37210
3849,2244  BELLE CREEK WAY,NASHVILLE,TN,37221
3850,4306B2  DAKOTA AVE,NASHVILLE,TN,37209
3851,318A2  WILBURN ST,NASHVILLE,TN,37207
3852,1924  GRACE POINT LN,NOLENSVILLE,TN,37135
3853,1245  HILLWOOD PRIVATE CV,NASHVILLE,TN,37209
3854,1329  MARITIME PRT,ANTIOCH,TN,37013
3855,1009  GRANBERY PARK DR,BRENTWOOD,TN,37027
3856,2521  PRAIRIE HILL DR,ANTIOCH,TN,37013
3857,2217  BELLE CREEK WAY,NASHVILLE,TN,37221
3858,5021  UPPER PARK PL,ANTIOCH,TN,37013
3859,107  BURKITT COMMONS AVE,BRENTWOOD,TN,37027
3860,934  GOVERNORS CT  202,ANTIOCH,TN,37013
3861,5473  RUFFIAN WAY,ANTIOCH,TN,37013
3862,3201  HOSPITAL LN,NASHVILLE,TN,37218
3863,2413  PRAIRIE HILL DR,ANTIOCH,TN,37013
3864,801B  19TH AVE S AFG CELL S,NASHVILLE,TN,37203
3865,2228  BELLE CREEK WAY,NASHVILLE,TN,37221
3866,627  OLD HICKORY BLVD,OLD HICKORY,TN,37138
3867,9457  KAPLAN AVE,BRENTWOOD,TN,37027
3868,4308  STONE HALL BLVD,HERMITAGE,TN,37076
3869,109  PALMORE CT,NASHVILLE,TN,37221
3870,5001  ARROGATE DR,ANTIOCH,TN,37013
3871,1008  TREVINO PL,ANTIOCH,TN,37013
3872,1914A2  15TH AVE N,NASHVILLE,TN,37208
3873,2172  CAREFREE LN,ANTIOCH,TN,37013
3874,28  WHITE BRIDGE PIKE,NASHVILLE,TN,37205
3875,201  STERLING POINT CIR,NASHVILLE,TN,37209
3876,2737  GOSSETT TRL,NASHVILLE,TN,37221
3877,2005  CAREFREE LN,ANTIOCH,TN,37013
3878,5124  KENSAL DR,ANTIOCH,TN,37013
3879,9700  KATZ LN,BRENTWOOD,TN,37027
3880,6204A2  NEW YORK AVE,NASHVILLE,TN,37209
3881,2065  KIRKWALL DR,NOLENSVILLE,TN,37135
3882,2256  BELLE CREEK WAY,NASHVILLE,TN,37221
3883,725  BRADBURN VILLAGE WAY,ANTIOCH,TN,37013
3884,4068  LIBERTON WAY,NOLENSVILLE,TN,37135
3885,2127  CAREFREE LN,ANTIOCH,TN,37013
3886,1361  MARITIME PRT,ANTIOCH,TN,37013
3887,13010  OLD HICKORY BLVD  CANOPIES I,ANTIOCH,TN,37013
3888,2520  NEWSOME MILL LN,NASHVILLE,TN,37221
3889,1030  GRANBERY PARK DR,BRENTWOOD,TN,37027
3890,3192  LONGSTALK RD,ANTIOCH,TN,37013
3891,1310  HAVENBROOK DR,NASHVILLE,TN,37207
3892,1430  WHITE DUTCH LN,ANTIOCH,TN,37013
3893,709  BRADBURN VILLAGE WAY,ANTIOCH,TN,37013
3894,309B  22ND AVE N AFG CELL S,NASHVILLE,TN,37203
3895,4071  LIBERTON WAY,NOLENSVILLE,TN,37135
3896,4355  STONE HALL BLVD,HERMITAGE,TN,37076
3897,1825A2  5TH AVE N,NASHVILLE,TN,37208
3898,7444  MARONEY DR,ANTIOCH,TN,37013
3899,5022  HARBOR RESERVE CV,HERMITAGE,TN,37076
3900,4969  CHUTNEY DR,ANTIOCH,TN,37013
3901,1329  DUNS LN,NOLENSVILLE,TN,37135
3902,4709  STONEY POINT CV,ANTIOCH,TN,37013
3903,1380  MARITIME PRT,ANTIOCH,TN,37013
3904,1013  CLOVER GLEN WAY,ANTIOCH,TN,37013
3905,5020  ARROGATE DR,ANTIOCH,TN,37013
3906,1330  HAVENBROOK DR,NASHVILLE,TN,37207
3907,1341  MARITIME PRT,ANTIOCH,TN,37013
3908,2319B  FAIRCHILD CIR,NOLENSVILLE,TN,37135
3909,1585  WINDING CREEK DR,NOLENSVILLE,TN,37135
3910,1934B  GRACE POINT LN,NOLENSVILLE,TN,37135
3911,1853  SPRUCEWOOD LN,NASHVILLE,TN,37211
3912,1902  GRACE POINT LN  101,NOLENSVILLE,TN,37135
3913,4214  DYSANT ALY,NOLENSVILLE,TN,37135
3914,400  HERRON DR  421,NASHVILLE,TN,37210
3915,0  RACHEL DR,NASHVILLE,TN,37214
3916,9361  BARCO RD,BRENTWOOD,TN,37027
3917,132  LIGHTWOOD DR,ANTIOCH,TN,37013
3918,934  GOVERNORS CT  207,ANTIOCH,TN,37013
3919,120  LIGHTWOOD DR,ANTIOCH,TN,37013
3920,225  STERLING POINT CIR,NASHVILLE,TN,37209
3921,2321B  FAIRCHILD CIR,NOLENSVILLE,TN,37135
3922,414B2  37TH AVE N,NASHVILLE,TN,37209
3923,5016  ARROGATE DR,ANTIOCH,TN,37013
3924,500  CREATIVE WAY  5,MADISON,TN,37115
3925,1861  SPRUCEWOOD LN,NASHVILLE,TN,37211
3926,3100  BELWOOD ST  201B,NASHVILLE,TN,37203
3927,1910B2  11TH AVE N,NASHVILLE,TN,37208
