,address,city,state,zip
0,4929  CHUTNEY DR,ANTIOCH,TN,37013
1,329  BODDINGTON LN,ANTIOCH,TN,37013
2,1536  DAVIDGE DR,NASHVILLE,TN,37221
3,4948  CHUTNEY DR,ANTIOCH,TN,37013
4,5404  LAKE WATER CT,ANTIOCH,TN,37013
5,212  MUIR AVE,NOLENSVILLE,TN,37135
6,816  TWIN FALLS DR,JOELTON,TN,37080
7,4877  CHUTNEY DR,ANTIOCH,TN,37013
8,1356  GREENSTONE LN,NASHVILLE,TN,37221
9,833  HAMILTON CROSSINGS,ANTIOCH,TN,37013
10,3143  CHARLES PARK DR,NASHVILLE,TN,37211
11,2048  CAREFREE LN,ANTIOCH,TN,37013
12,2040  CAREFREE LN,ANTIOCH,TN,37013
13,4060  SADDLECREEK WAY,ANTIOCH,TN,37013
14,4905  CHUTNEY DR,ANTIOCH,TN,37013
15,2168  CAREFREE LN,ANTIOCH,TN,37013
16,4032  SADDLECREEK WAY,ANTIOCH,TN,37013
17,0  BROOKSBORO PL,NASHVILLE,TN,37217
18,4932  CHUTNEY DR,ANTIOCH,TN,37013
19,2167  CAREFREE LN,ANTIOCH,TN,37013
20,330  23RD AVE N 200,NASHVILLE,TN,37203
21,1013  LAWSONS RIDGE DR,NASHVILLE,TN,37218
22,2052  CAREFREE LN,ANTIOCH,TN,37013
23,2048  CAREFREE LN,ANTIOCH,TN,37013
24,28  WHITE BRIDGE PIKE  207,NASHVILLE,TN,37205
25,6046  BLACKBERRY RIDGE LN,HERMITAGE,TN,37076
26,4928  CHUTNEY DR,ANTIOCH,TN,37013
27,2706B2  BARCLAY DR,NASHVILLE,TN,37206
28,4034  SADDLECREEK WAY,ANTIOCH,TN,37013
29,1328  TREE HOUSE DR,ANTIOCH,TN,37013
30,4937  CHUTNEY DR,ANTIOCH,TN,37013
31,5056  SUNFLOWER LN,HERMITAGE,TN,37076
32,2161  BAYPORT AVE,OLD HICKORY,TN,37138
33,2184  CAREFREE LN,ANTIOCH,TN,37013
34,2050  VILLAGE PARK CIR,OLD HICKORY,TN,37138
35,2047  VILLAGE PARK CIR,OLD HICKORY,TN,37138
36,2049  VILLAGE PARK CIR,OLD HICKORY,TN,37138
37,4303  STONE HALL BLVD,HERMITAGE,TN,37076
38,732  INSPIRATION BLVD  2,MADISON,TN,37115
39,900  FANCHER LN,JOELTON,TN,37080
40,2153  BAYPORT AVE,OLD HICKORY,TN,37138
41,744  BLOOMDALE TRCE,HERMITAGE,TN,37076
42,2046  VILLAGE PARK CIR,OLD HICKORY,TN,37138
43,714  INSPIRATION BLVD,MADISON,TN,37115
44,2044  VILLAGE PARK CIR,OLD HICKORY,TN,37138
45,732  INSPIRATION BLVD  11,MADISON,TN,37115
46,4096  POLK FOREST CIR,NASHVILLE,TN,37207
47,2155  BAYPORT AVE,OLD HICKORY,TN,37138
48,704  INSPIRATION BLVD,MADISON,TN,37115
49,5221  LAKE MAXWELL DR,ANTIOCH,TN,37013
50,726  INSPIRATION BLVD,MADISON,TN,37115
51,4941  CHUTNEY DR,ANTIOCH,TN,37013
52,712  INSPIRATION BLVD,MADISON,TN,37115
53,2001  CLEMENT ST,NOLENSVILLE,TN,37135
54,341  KARA LN,NOLENSVILLE,TN,37135
55,401  CORNER ALY,NOLENSVILLE,TN,37135
56,732  INSPIRATION BLVD  3,MADISON,TN,37115
57,4062  SADDLECREEK WAY,ANTIOCH,TN,37013
58,2116  CAREFREE LN,ANTIOCH,TN,37013
59,405  CORNER ALY,NOLENSVILLE,TN,37135
60,4323  STONE HALL BLVD,HERMITAGE,TN,37076
61,1624  ALAYNA DR,NASHVILLE,TN,37221
62,2052  CAREFREE LN,ANTIOCH,TN,37013
63,732  INSPIRATION BLVD  6,MADISON,TN,37115
64,4058  SADDLECREEK WAY,ANTIOCH,TN,37013
65,2163  BAYPORT AVE,OLD HICKORY,TN,37138
66,117B2  46TH AVE N,NASHVILLE,TN,37209
67,2159  BAYPORT AVE,OLD HICKORY,TN,37138
68,325  HIDDEN SPRINGS CV,NASHVILLE,TN,37207
69,713  ELLIE DR,MADISON,TN,37115
70,2157  BAYPORT AVE,OLD HICKORY,TN,37138
71,732  INSPIRATION BLVD  10,MADISON,TN,37115
72,2172  CAREFREE LN,ANTIOCH,TN,37013
73,732  INSPIRATION BLVD  9,MADISON,TN,37115
74,716  INSPIRATION BLVD,MADISON,TN,37115
75,5213B2  ILLINOIS AVE,NASHVILLE,TN,37209
76,2128  CAREFREE LN,ANTIOCH,TN,37013
77,3025  ANDERSON RD,NASHVILLE,TN,37217
78,2052  CAREFREE LN,ANTIOCH,TN,37013
79,200  RACE ALY,NOLENSVILLE,TN,37135
80,702  INSPIRATION BLVD,MADISON,TN,37115
81,1722A2  NASSAU ST,NASHVILLE,TN,37208
82,529  SARVER AVE,MADISON,TN,37115
83,6052  BLACKBERRY RIDGE LN,HERMITAGE,TN,37076
84,1980  CAROTHERS RD  202,NOLENSVILLE,TN,37135
85,3303  BRONTE AVE,NASHVILLE,TN,37216
86,2003  CLEMENT ST,NOLENSVILLE,TN,37135
87,409  CORNER ALY,NOLENSVILLE,TN,37135
88,2037  CAREFREE LN,ANTIOCH,TN,37013
89,713  ELLIE DR,MADISON,TN,37115
90,2436  SERENE DR,ANTIOCH,TN,37013
91,2045  CAREFREE LN,ANTIOCH,TN,37013
92,2032  CAREFREE LN,ANTIOCH,TN,37013
93,4315  STONE HALL BLVD,HERMITAGE,TN,37076
94,0  UNKNOWN,NASHVILLE,TN,0
95,2032  CAREFREE LN,ANTIOCH,TN,37013
96,728  INSPIRATION BLVD,MADISON,TN,37115
97,724  INSPIRATION BLVD,MADISON,TN,37115
98,4909  CHUTNEY DR,ANTIOCH,TN,37013
99,2028  CAREFREE LN,ANTIOCH,TN,37013
100,2044  CAREFREE LN,ANTIOCH,TN,37013
101,2036  CAREFREE LN,ANTIOCH,TN,37013
102,2040  CAREFREE LN,ANTIOCH,TN,37013
103,2036  CAREFREE LN,ANTIOCH,TN,37013
104,911  FANCHER LN,JOELTON,TN,37080
105,2024  CAREFREE LN,ANTIOCH,TN,37013
106,2020  CAREFREE LN,ANTIOCH,TN,37013
107,2041  CAREFREE LN,ANTIOCH,TN,37013
108,2003  CLEMENT ST,NOLENSVILLE,TN,37135
109,2036  CAREFREE LN,ANTIOCH,TN,37013
110,5212  LAKE MAXWELL DR,ANTIOCH,TN,37013
111,6050  BLACKBERRY RIDGE LN,HERMITAGE,TN,37076
112,4924  CHUTNEY DR,ANTIOCH,TN,37013
113,3405  MUSTANG DR,NASHVILLE,TN,37211
114,1814B2  NEAL TER,NASHVILLE,TN,37203
115,550  VICAR DR,NASHVILLE,TN,37211
116,1814A2  NEAL TER,NASHVILLE,TN,37203
117,2418  ANTIOCH PIKE,NASHVILLE,TN,37211
118,15  CULVERT ST,NASHVILLE,TN,37210
119,1133  HARMONY WAY,NASHVILLE,TN,37207
120,0  ROBINSON RD,OLD HICKORY,TN,37138
121,1408  ROPE SWING WAY,ANTIOCH,TN,37013
122,4949  CHUTNEY DR,ANTIOCH,TN,37013
123,2001  CLEMENT ST,NOLENSVILLE,TN,37135
124,4944  CHUTNEY DR,ANTIOCH,TN,37013
125,2024A2  OVERHILL DR,NASHVILLE,TN,37215
126,6003  BELL RD,HERMITAGE,TN,37076
127,732  INSPIRATION BLVD  1,MADISON,TN,37115
128,4936  CHUTNEY DR,ANTIOCH,TN,37013
129,1612  ALAYNA DR,NASHVILLE,TN,37221
130,700  INSPIRATION BLVD,MADISON,TN,37115
131,320  HIDDEN SPRINGS CV,NASHVILLE,TN,37207
132,529  SARVER AVE,MADISON,TN,37115
133,5216  LAKE MAXWELL DR,ANTIOCH,TN,37013
134,24  WHITE BRIDGE PIKE,NASHVILLE,TN,37205
135,1653  ALAYNA DR,NASHVILLE,TN,37221
136,0  CENTENNIAL BLVD,NASHVILLE,TN,37209
137,5069  BROADWAY PL,NASHVILLE,TN,37203
138,710  INSPIRATION BLVD,MADISON,TN,37115
139,7117  SILVERWOOD TRL,HERMITAGE,TN,37076
140,4917  CHUTNEY DR,ANTIOCH,TN,37013
141,859  BLOOMDALE TRCE,HERMITAGE,TN,37076
142,706  INSPIRATION BLVD,MADISON,TN,37115
143,1238  SHIRE DR,ANTIOCH,TN,37013
144,722  INSPIRATION BLVD,MADISON,TN,37115
145,5217  LAKE MAXWELL DR,ANTIOCH,TN,37013
146,1722B2  NASSAU ST,NASHVILLE,TN,37208
147,718  INSPIRATION BLVD,MADISON,TN,37115
148,4925  CHUTNEY DR,ANTIOCH,TN,37013
149,730  INSPIRATION BLVD,MADISON,TN,37115
150,732  INSPIRATION BLVD  4,MADISON,TN,37115
151,4872  CHUTNEY DR,ANTIOCH,TN,37013
152,4953  CHUTNEY DR,ANTIOCH,TN,37013
153,2124  CAREFREE LN,ANTIOCH,TN,37013
154,533  SARVER AVE,MADISON,TN,37115
155,732  INSPIRATION BLVD  7,MADISON,TN,37115
156,732  INSPIRATION BLVD  5,MADISON,TN,37115
157,3505  FARRIER DR,NASHVILLE,TN,37211
158,732  INSPIRATION BLVD  12,MADISON,TN,37115
159,524  SARVER AVE,MADISON,TN,37115
160,529  SARVER AVE,MADISON,TN,37115
161,732  INSPIRATION BLVD  8,MADISON,TN,37115
162,4080  BRICK CHURCH PIKE,WHITES CREEK,TN,37189
163,4933  CHUTNEY DR,ANTIOCH,TN,37013
164,4901  CHUTNEY DR,ANTIOCH,TN,37013
165,1240  SHIRE DR,ANTIOCH,TN,37013
166,4912  CHUTNEY DR,ANTIOCH,TN,37013
167,4908  CHUTNEY DR,ANTIOCH,TN,37013
168,1234  SHIRE DR,ANTIOCH,TN,37013
169,623B2  JAMES AVE,NASHVILLE,TN,37209
170,1236  SHIRE DR,ANTIOCH,TN,37013
171,1242  SHIRE DR,ANTIOCH,TN,37013
172,524  SARVER AVE,MADISON,TN,37115
173,4904  CHUTNEY DR,ANTIOCH,TN,37013
174,4112  MAGNOLIA FARMS DR,HERMITAGE,TN,37076
175,232  MUIR AVE,NOLENSVILLE,TN,37135
176,5213  LAKE MAXWELL DR,ANTIOCH,TN,37013
177,4913  CHUTNEY DR,ANTIOCH,TN,37013
178,4099  SMOTHERMAN LN,HERMITAGE,TN,37076
179,2330  PATRICK AVE,OLD HICKORY,TN,37138
180,2343  FAIRCHILD CIR  102,NOLENSVILLE,TN,37135
181,1980  CAROTHERS RD  102,NOLENSVILLE,TN,37135
182,623A2  JAMES AVE,NASHVILLE,TN,37209
183,1980  CAROTHERS RD  101,NOLENSVILLE,TN,37135
184,2024A2  OVERHILL DR,NASHVILLE,TN,37215
185,1980  CAROTHERS RD  203,NOLENSVILLE,TN,37135
186,1784  WOODSONG DR,BRENTWOOD,TN,37027
187,2343  FAIRCHILD CIR  101,NOLENSVILLE,TN,37135
188,2343  FAIRCHILD CIR  202,NOLENSVILLE,TN,37135
189,0  VESTER RD,WHITES CREEK,TN,37189
190,2355  FAIRCHILD CIR  103,NOLENSVILLE,TN,37135
191,2355  FAIRCHILD CIR  201,NOLENSVILLE,TN,37135
192,2343  FAIRCHILD CIR  103,NOLENSVILLE,TN,37135
193,2343  FAIRCHILD CIR  203,NOLENSVILLE,TN,37135
194,2355  FAIRCHILD CIR  102,NOLENSVILLE,TN,37135
195,1980  CAROTHERS RD  103,NOLENSVILLE,TN,37135
196,2343  FAIRCHILD CIR  201,NOLENSVILLE,TN,37135
197,1000  TREVINO PL,ANTIOCH,TN,37013
198,2355  FAIRCHILD CIR  202,NOLENSVILLE,TN,37135
199,2355  FAIRCHILD CIR  101,NOLENSVILLE,TN,37135
200,517  PLEASANT ST,NOLENSVILLE,TN,37135
201,2326  PATRICK AVE,OLD HICKORY,TN,37138
202,236  MUIR AVE,NOLENSVILLE,TN,37135
203,2332  PATRICK AVE,OLD HICKORY,TN,37138
204,234  MUIR AVE,NOLENSVILLE,TN,37135
205,2334  PATRICK AVE,OLD HICKORY,TN,37138
206,2324  PATRICK AVE,OLD HICKORY,TN,37138
207,2328  PATRICK AVE,OLD HICKORY,TN,37138
208,4900  CHUTNEY DR,ANTIOCH,TN,37013
209,4940  CHUTNEY DR,ANTIOCH,TN,37013
210,4945  CHUTNEY DR,ANTIOCH,TN,37013
211,4868  CHUTNEY DR,ANTIOCH,TN,37013
212,4925  CHUTNEY DR,ANTIOCH,TN,37013
213,108  LAVENDER RD,HERMITAGE,TN,37076
214,4937  CHUTNEY DR,ANTIOCH,TN,37013
215,4877  CHUTNEY DR,ANTIOCH,TN,37013
216,4928  CHUTNEY DR,ANTIOCH,TN,37013
217,4933  CHUTNEY DR,ANTIOCH,TN,37013
218,4940  CHUTNEY DR,ANTIOCH,TN,37013
219,4945  CHUTNEY DR,ANTIOCH,TN,37013
220,1309  TREE HOUSE DR,ANTIOCH,TN,37013
221,2148  CAREFREE LN,ANTIOCH,TN,37013
222,2136  CAREFREE LN,ANTIOCH,TN,37013
223,2707B2  MEHARRY BLVD,NASHVILLE,TN,37208
224,2152  CAREFREE LN,ANTIOCH,TN,37013
225,2151  CAREFREE LN,ANTIOCH,TN,37013
226,1016  TREVINO PL,ANTIOCH,TN,37013
227,4044  LIBERTON WAY,NOLENSVILLE,TN,37135
228,1029  TREVINO PL,ANTIOCH,TN,37013
229,1009  LAWSONS RIDGE DR,NASHVILLE,TN,37218
230,4000  DR WALTER S DAVIS BLVD,NASHVILLE,TN,37209
231,112  PALMORE CT,NASHVILLE,TN,37221
232,9317  BARCO RD,BRENTWOOD,TN,37027
233,2140  CAREFREE LN,ANTIOCH,TN,37013
234,5460  RUFFIAN WAY,ANTIOCH,TN,37013
235,3428  SHELBY BOTTOMS BND,NASHVILLE,TN,37206
236,5005  RIVERBANK DR,HERMITAGE,TN,37076
237,2159  CAREFREE LN,ANTIOCH,TN,37013
238,2707A2  MEHARRY BLVD,NASHVILLE,TN,37208
239,519B2  ACKLEN PARK DR,NASHVILLE,TN,37205
240,2160  CAREFREE LN,ANTIOCH,TN,37013
241,5572  HAMILTON CIR,NASHVILLE,TN,37013
242,1537  DAVIDGE DR,NASHVILLE,TN,37221
243,1028  TREVINO PL,ANTIOCH,TN,37013
244,2180  CAREFREE LN,ANTIOCH,TN,37013
245,5533  MULLIGAN CT,HERMITAGE,TN,37076
246,4045  MAGNOLIA FARMS DR,HERMITAGE,TN,37076
247,1017  TREVINO PL,ANTIOCH,TN,37013
248,1005  TREVINO PL,ANTIOCH,TN,37013
249,0  ROBERTA ST,NASHVILLE,TN,37206
250,1124C  OLD HICKORY BLVD,MADISON,TN,37115
251,26  WHITE BRIDGE PIKE,NASHVILLE,TN,37205
252,3796  BEDFORD AVE  UPPER LEVE,NASHVILLE,TN,37215
253,2100  CAREFREE LN,ANTIOCH,TN,37013
254,1013  LAWSONS RIDGE DR,NASHVILLE,TN,37218
255,0  CAROTHERS RD,NOLENSVILLE,TN,37135
256,1224  SUMMER SHADE DR,ANTIOCH,TN,37013
257,2508  SOLOMON LN,NASHVILLE,TN,37207
258,2275  MURFREESBORO PIKE  200,ANTIOCH,TN,37013
259,9424  KAPLAN AVE,BRENTWOOD,TN,37027
260,1320  GREENSTONE LN,NASHVILLE,TN,37221
261,4049  LIBERTON WAY,NOLENSVILLE,TN,37135
262,1516  DAVIDGE DR,NASHVILLE,TN,37221
263,1021  TREVINO PL,ANTIOCH,TN,37013
264,2452  PRAIRIE HILL DR,ANTIOCH,TN,37013
265,9425  KAPLAN AVE,BRENTWOOD,TN,37027
266,2163  CAREFREE LN,ANTIOCH,TN,37013
267,1020  TREVINO PL,ANTIOCH,TN,37013
268,1216  SUMMER SHADE DR,ANTIOCH,TN,37013
269,1009  GRANBERY PARK DR,BRENTWOOD,TN,37027
270,0  ELM HILL PIKE,NASHVILLE,TN,37214
271,1032  TREVINO PL,ANTIOCH,TN,37013
272,2464  PRAIRIE HILL DR,ANTIOCH,TN,37013
273,5025  MOORGATE DR,ANTIOCH,TN,37013
274,3430  SHELBY BOTTOMS BND,NASHVILLE,TN,37206
275,73  WHITE BRIDGE PIKE  G-1,NASHVILLE,TN,37205
276,1212  SUMMER SHADE DR,ANTIOCH,TN,37013
277,1004  TREVINO PL,ANTIOCH,TN,37013
278,1009  TREVINO PL,ANTIOCH,TN,37013
279,3809  OCTOBER WOODS DR  101,ANTIOCH,TN,37013
280,4320  STONE HALL BLVD,HERMITAGE,TN,37076
281,1320  GREENSTONE LN,NASHVILLE,TN,37221
282,2120  CAREFREE LN,ANTIOCH,TN,37013
283,129  LIGHTWOOD DR,ANTIOCH,TN,37013
284,1012  TREVINO PL,ANTIOCH,TN,37013
285,519A2  ACKLEN PARK DR,NASHVILLE,TN,38205
286,1036  TREVINO PL,ANTIOCH,TN,37013
287,2147  CAREFREE LN,ANTIOCH,TN,37013
288,2132  CAREFREE LN,ANTIOCH,TN,37013
289,1013  TREVINO PL,ANTIOCH,TN,37013
290,2144  CAREFREE LN,ANTIOCH,TN,37013
291,1025  TREVINO PL,ANTIOCH,TN,37013
292,1328  MARITIME PRT,ANTIOCH,TN,37013
293,1024  TREVINO PL,ANTIOCH,TN,37013
294,3418  SHELBY BOTTOMS BND,NASHVILLE,TN,37206
295,2156  CAREFREE LN,ANTIOCH,TN,37013
296,4351  STONE HALL BLVD,HERMITAGE,TN,37076
